<?xml version="1.0" encoding="UTF-8"?>
<gpx creator="StravaGPX" version="1.1" xmlns="http://www.topografix.com/GPX/1/1" xmlns:xsi="http://www.w3.org/2001/XMLSchema-instance" xsi:schemaLocation="http://www.topografix.com/GPX/1/1 http://www.topografix.com/GPX/1/1/gpx.xsd">
 <metadata>
  <time>2020-04-06T16:21:12Z</time>
 </metadata>
 <trk>
  <name>Post work trot</name>
  <type>running</type>
  <trkseg>
   <trkpt lat="51.1177570" lon="-0.5744990">
    <ele>45.2</ele>
    <time>2020-04-06T16:21:12Z</time>
   </trkpt>
   <trkpt lat="51.1177490" lon="-0.5744910">
    <ele>45.3</ele>
    <time>2020-04-06T16:21:14Z</time>
   </trkpt>
   <trkpt lat="51.1177430" lon="-0.5744880">
    <ele>45.3</ele>
    <time>2020-04-06T16:21:15Z</time>
   </trkpt>
   <trkpt lat="51.1177350" lon="-0.5744870">
    <ele>45.3</ele>
    <time>2020-04-06T16:21:17Z</time>
   </trkpt>
   <trkpt lat="51.1177330" lon="-0.5744570">
    <ele>45.4</ele>
    <time>2020-04-06T16:21:18Z</time>
   </trkpt>
   <trkpt lat="51.1177450" lon="-0.5743980">
    <ele>45.6</ele>
    <time>2020-04-06T16:21:19Z</time>
   </trkpt>
   <trkpt lat="51.1177510" lon="-0.5743780">
    <ele>45.7</ele>
    <time>2020-04-06T16:21:20Z</time>
   </trkpt>
   <trkpt lat="51.1177690" lon="-0.5743370">
    <ele>45.8</ele>
    <time>2020-04-06T16:21:21Z</time>
   </trkpt>
   <trkpt lat="51.1177990" lon="-0.5742780">
    <ele>46.0</ele>
    <time>2020-04-06T16:21:23Z</time>
   </trkpt>
   <trkpt lat="51.1178120" lon="-0.5742550">
    <ele>46.1</ele>
    <time>2020-04-06T16:21:24Z</time>
   </trkpt>
   <trkpt lat="51.1178250" lon="-0.5742330">
    <ele>46.2</ele>
    <time>2020-04-06T16:21:25Z</time>
   </trkpt>
   <trkpt lat="51.1178480" lon="-0.5741950">
    <ele>46.4</ele>
    <time>2020-04-06T16:21:26Z</time>
   </trkpt>
   <trkpt lat="51.1178710" lon="-0.5741620">
    <ele>46.5</ele>
    <time>2020-04-06T16:21:27Z</time>
   </trkpt>
   <trkpt lat="51.1178970" lon="-0.5741290">
    <ele>46.7</ele>
    <time>2020-04-06T16:21:28Z</time>
   </trkpt>
   <trkpt lat="51.1179220" lon="-0.5740970">
    <ele>46.8</ele>
    <time>2020-04-06T16:21:29Z</time>
   </trkpt>
   <trkpt lat="51.1179490" lon="-0.5740570">
    <ele>47.0</ele>
    <time>2020-04-06T16:21:31Z</time>
   </trkpt>
   <trkpt lat="51.1179730" lon="-0.5740220">
    <ele>47.1</ele>
    <time>2020-04-06T16:21:32Z</time>
   </trkpt>
   <trkpt lat="51.1180140" lon="-0.5740070">
    <ele>47.3</ele>
    <time>2020-04-06T16:21:33Z</time>
   </trkpt>
   <trkpt lat="51.1180290" lon="-0.5740030">
    <ele>47.4</ele>
    <time>2020-04-06T16:21:34Z</time>
   </trkpt>
   <trkpt lat="51.1180600" lon="-0.5740100">
    <ele>48.4</ele>
    <time>2020-04-06T16:21:35Z</time>
   </trkpt>
   <trkpt lat="51.1180880" lon="-0.5740290">
    <ele>48.7</ele>
    <time>2020-04-06T16:21:36Z</time>
   </trkpt>
   <trkpt lat="51.1181300" lon="-0.5740610">
    <ele>49.1</ele>
    <time>2020-04-06T16:21:38Z</time>
   </trkpt>
   <trkpt lat="51.1181590" lon="-0.5740740">
    <ele>49.4</ele>
    <time>2020-04-06T16:21:39Z</time>
   </trkpt>
   <trkpt lat="51.1181950" lon="-0.5740540">
    <ele>49.4</ele>
    <time>2020-04-06T16:21:41Z</time>
   </trkpt>
   <trkpt lat="51.1182200" lon="-0.5740280">
    <ele>49.4</ele>
    <time>2020-04-06T16:21:42Z</time>
   </trkpt>
   <trkpt lat="51.1182450" lon="-0.5739970">
    <ele>49.4</ele>
    <time>2020-04-06T16:21:43Z</time>
   </trkpt>
   <trkpt lat="51.1182720" lon="-0.5739650">
    <ele>49.3</ele>
    <time>2020-04-06T16:21:44Z</time>
   </trkpt>
   <trkpt lat="51.1182970" lon="-0.5739260">
    <ele>49.3</ele>
    <time>2020-04-06T16:21:45Z</time>
   </trkpt>
   <trkpt lat="51.1183220" lon="-0.5738900">
    <ele>49.2</ele>
    <time>2020-04-06T16:21:46Z</time>
   </trkpt>
   <trkpt lat="51.1183440" lon="-0.5738520">
    <ele>49.2</ele>
    <time>2020-04-06T16:21:47Z</time>
   </trkpt>
   <trkpt lat="51.1183690" lon="-0.5738010">
    <ele>49.1</ele>
    <time>2020-04-06T16:21:49Z</time>
   </trkpt>
   <trkpt lat="51.1183950" lon="-0.5737380">
    <ele>49.1</ele>
    <time>2020-04-06T16:21:50Z</time>
   </trkpt>
   <trkpt lat="51.1184080" lon="-0.5737030">
    <ele>49.0</ele>
    <time>2020-04-06T16:21:51Z</time>
   </trkpt>
   <trkpt lat="51.1184380" lon="-0.5736450">
    <ele>49.0</ele>
    <time>2020-04-06T16:21:53Z</time>
   </trkpt>
   <trkpt lat="51.1184550" lon="-0.5736070">
    <ele>48.9</ele>
    <time>2020-04-06T16:21:54Z</time>
   </trkpt>
   <trkpt lat="51.1184710" lon="-0.5735710">
    <ele>48.9</ele>
    <time>2020-04-06T16:21:55Z</time>
   </trkpt>
   <trkpt lat="51.1184890" lon="-0.5735350">
    <ele>48.8</ele>
    <time>2020-04-06T16:21:56Z</time>
   </trkpt>
   <trkpt lat="51.1185260" lon="-0.5734820">
    <ele>48.7</ele>
    <time>2020-04-06T16:21:58Z</time>
   </trkpt>
   <trkpt lat="51.1185550" lon="-0.5734490">
    <ele>48.7</ele>
    <time>2020-04-06T16:21:59Z</time>
   </trkpt>
   <trkpt lat="51.1185910" lon="-0.5734030">
    <ele>48.6</ele>
    <time>2020-04-06T16:22:01Z</time>
   </trkpt>
   <trkpt lat="51.1186170" lon="-0.5733760">
    <ele>48.5</ele>
    <time>2020-04-06T16:22:02Z</time>
   </trkpt>
   <trkpt lat="51.1186490" lon="-0.5733330">
    <ele>48.5</ele>
    <time>2020-04-06T16:22:03Z</time>
   </trkpt>
   <trkpt lat="51.1186600" lon="-0.5733130">
    <ele>48.4</ele>
    <time>2020-04-06T16:22:04Z</time>
   </trkpt>
   <trkpt lat="51.1186930" lon="-0.5732570">
    <ele>48.4</ele>
    <time>2020-04-06T16:22:06Z</time>
   </trkpt>
   <trkpt lat="51.1187200" lon="-0.5732180">
    <ele>48.3</ele>
    <time>2020-04-06T16:22:07Z</time>
   </trkpt>
   <trkpt lat="51.1187630" lon="-0.5731790">
    <ele>48.2</ele>
    <time>2020-04-06T16:22:08Z</time>
   </trkpt>
   <trkpt lat="51.1188180" lon="-0.5731390">
    <ele>48.2</ele>
    <time>2020-04-06T16:22:10Z</time>
   </trkpt>
   <trkpt lat="51.1188560" lon="-0.5731150">
    <ele>48.2</ele>
    <time>2020-04-06T16:22:11Z</time>
   </trkpt>
   <trkpt lat="51.1188900" lon="-0.5730880">
    <ele>48.2</ele>
    <time>2020-04-06T16:22:12Z</time>
   </trkpt>
   <trkpt lat="51.1189210" lon="-0.5730610">
    <ele>48.3</ele>
    <time>2020-04-06T16:22:13Z</time>
   </trkpt>
   <trkpt lat="51.1189530" lon="-0.5730360">
    <ele>48.4</ele>
    <time>2020-04-06T16:22:15Z</time>
   </trkpt>
   <trkpt lat="51.1189830" lon="-0.5730010">
    <ele>48.5</ele>
    <time>2020-04-06T16:22:16Z</time>
   </trkpt>
   <trkpt lat="51.1190010" lon="-0.5729770">
    <ele>48.5</ele>
    <time>2020-04-06T16:22:17Z</time>
   </trkpt>
   <trkpt lat="51.1190290" lon="-0.5729240">
    <ele>48.6</ele>
    <time>2020-04-06T16:22:19Z</time>
   </trkpt>
   <trkpt lat="51.1190470" lon="-0.5728850">
    <ele>48.7</ele>
    <time>2020-04-06T16:22:20Z</time>
   </trkpt>
   <trkpt lat="51.1190670" lon="-0.5728410">
    <ele>48.8</ele>
    <time>2020-04-06T16:22:21Z</time>
   </trkpt>
   <trkpt lat="51.1190730" lon="-0.5728280">
    <ele>48.8</ele>
    <time>2020-04-06T16:22:22Z</time>
   </trkpt>
   <trkpt lat="51.1191030" lon="-0.5727860">
    <ele>48.9</ele>
    <time>2020-04-06T16:22:24Z</time>
   </trkpt>
   <trkpt lat="51.1191110" lon="-0.5727720">
    <ele>48.9</ele>
    <time>2020-04-06T16:22:25Z</time>
   </trkpt>
   <trkpt lat="51.1191290" lon="-0.5727370">
    <ele>48.9</ele>
    <time>2020-04-06T16:22:26Z</time>
   </trkpt>
   <trkpt lat="51.1191460" lon="-0.5726920">
    <ele>49.0</ele>
    <time>2020-04-06T16:22:27Z</time>
   </trkpt>
   <trkpt lat="51.1191600" lon="-0.5726450">
    <ele>49.1</ele>
    <time>2020-04-06T16:22:28Z</time>
   </trkpt>
   <trkpt lat="51.1191730" lon="-0.5725970">
    <ele>49.1</ele>
    <time>2020-04-06T16:22:29Z</time>
   </trkpt>
   <trkpt lat="51.1191870" lon="-0.5725460">
    <ele>49.2</ele>
    <time>2020-04-06T16:22:30Z</time>
   </trkpt>
   <trkpt lat="51.1191990" lon="-0.5724890">
    <ele>49.2</ele>
    <time>2020-04-06T16:22:32Z</time>
   </trkpt>
   <trkpt lat="51.1192060" lon="-0.5724470">
    <ele>49.2</ele>
    <time>2020-04-06T16:22:33Z</time>
   </trkpt>
   <trkpt lat="51.1192070" lon="-0.5723970">
    <ele>49.3</ele>
    <time>2020-04-06T16:22:34Z</time>
   </trkpt>
   <trkpt lat="51.1192030" lon="-0.5723480">
    <ele>49.3</ele>
    <time>2020-04-06T16:22:35Z</time>
   </trkpt>
   <trkpt lat="51.1191990" lon="-0.5722980">
    <ele>49.4</ele>
    <time>2020-04-06T16:22:36Z</time>
   </trkpt>
   <trkpt lat="51.1191970" lon="-0.5722440">
    <ele>49.4</ele>
    <time>2020-04-06T16:22:37Z</time>
   </trkpt>
   <trkpt lat="51.1191920" lon="-0.5721890">
    <ele>49.4</ele>
    <time>2020-04-06T16:22:38Z</time>
   </trkpt>
   <trkpt lat="51.1191870" lon="-0.5721230">
    <ele>49.5</ele>
    <time>2020-04-06T16:22:40Z</time>
   </trkpt>
   <trkpt lat="51.1191860" lon="-0.5720680">
    <ele>49.5</ele>
    <time>2020-04-06T16:22:41Z</time>
   </trkpt>
   <trkpt lat="51.1191810" lon="-0.5720120">
    <ele>49.5</ele>
    <time>2020-04-06T16:22:42Z</time>
   </trkpt>
   <trkpt lat="51.1191720" lon="-0.5719620">
    <ele>49.5</ele>
    <time>2020-04-06T16:22:43Z</time>
   </trkpt>
   <trkpt lat="51.1191590" lon="-0.5719100">
    <ele>49.6</ele>
    <time>2020-04-06T16:22:44Z</time>
   </trkpt>
   <trkpt lat="51.1191550" lon="-0.5718940">
    <ele>49.6</ele>
    <time>2020-04-06T16:22:45Z</time>
   </trkpt>
   <trkpt lat="51.1191560" lon="-0.5718610">
    <ele>49.6</ele>
    <time>2020-04-06T16:22:46Z</time>
   </trkpt>
   <trkpt lat="51.1191650" lon="-0.5717920">
    <ele>49.6</ele>
    <time>2020-04-06T16:22:48Z</time>
   </trkpt>
   <trkpt lat="51.1191710" lon="-0.5717480">
    <ele>49.6</ele>
    <time>2020-04-06T16:22:49Z</time>
   </trkpt>
   <trkpt lat="51.1191780" lon="-0.5716810">
    <ele>49.7</ele>
    <time>2020-04-06T16:22:50Z</time>
   </trkpt>
   <trkpt lat="51.1191870" lon="-0.5716390">
    <ele>49.8</ele>
    <time>2020-04-06T16:22:51Z</time>
   </trkpt>
   <trkpt lat="51.1191920" lon="-0.5716180">
    <ele>49.8</ele>
    <time>2020-04-06T16:22:53Z</time>
   </trkpt>
   <trkpt lat="51.1191960" lon="-0.5715960">
    <ele>49.9</ele>
    <time>2020-04-06T16:22:54Z</time>
   </trkpt>
   <trkpt lat="51.1192010" lon="-0.5715740">
    <ele>49.9</ele>
    <time>2020-04-06T16:22:55Z</time>
   </trkpt>
   <trkpt lat="51.1192150" lon="-0.5715370">
    <ele>50.0</ele>
    <time>2020-04-06T16:22:56Z</time>
   </trkpt>
   <trkpt lat="51.1192340" lon="-0.5715020">
    <ele>50.1</ele>
    <time>2020-04-06T16:22:57Z</time>
   </trkpt>
   <trkpt lat="51.1192530" lon="-0.5714660">
    <ele>50.2</ele>
    <time>2020-04-06T16:22:58Z</time>
   </trkpt>
   <trkpt lat="51.1192770" lon="-0.5714320">
    <ele>50.7</ele>
    <time>2020-04-06T16:22:59Z</time>
   </trkpt>
   <trkpt lat="51.1193110" lon="-0.5714050">
    <ele>50.9</ele>
    <time>2020-04-06T16:23:01Z</time>
   </trkpt>
   <trkpt lat="51.1193380" lon="-0.5713920">
    <ele>51.0</ele>
    <time>2020-04-06T16:23:02Z</time>
   </trkpt>
   <trkpt lat="51.1193650" lon="-0.5713770">
    <ele>51.1</ele>
    <time>2020-04-06T16:23:03Z</time>
   </trkpt>
   <trkpt lat="51.1193950" lon="-0.5713660">
    <ele>51.3</ele>
    <time>2020-04-06T16:23:04Z</time>
   </trkpt>
   <trkpt lat="51.1194250" lon="-0.5713610">
    <ele>51.4</ele>
    <time>2020-04-06T16:23:05Z</time>
   </trkpt>
   <trkpt lat="51.1194580" lon="-0.5713640">
    <ele>51.6</ele>
    <time>2020-04-06T16:23:06Z</time>
   </trkpt>
   <trkpt lat="51.1194890" lon="-0.5713710">
    <ele>51.7</ele>
    <time>2020-04-06T16:23:07Z</time>
   </trkpt>
   <trkpt lat="51.1195390" lon="-0.5713810">
    <ele>51.9</ele>
    <time>2020-04-06T16:23:09Z</time>
   </trkpt>
   <trkpt lat="51.1195750" lon="-0.5713960">
    <ele>52.1</ele>
    <time>2020-04-06T16:23:10Z</time>
   </trkpt>
   <trkpt lat="51.1195850" lon="-0.5714000">
    <ele>52.1</ele>
    <time>2020-04-06T16:23:11Z</time>
   </trkpt>
   <trkpt lat="51.1196040" lon="-0.5714020">
    <ele>52.2</ele>
    <time>2020-04-06T16:23:12Z</time>
   </trkpt>
   <trkpt lat="51.1196210" lon="-0.5714020">
    <ele>52.2</ele>
    <time>2020-04-06T16:23:13Z</time>
   </trkpt>
   <trkpt lat="51.1196400" lon="-0.5714010">
    <ele>52.3</ele>
    <time>2020-04-06T16:23:15Z</time>
   </trkpt>
   <trkpt lat="51.1196550" lon="-0.5713960">
    <ele>52.3</ele>
    <time>2020-04-06T16:23:16Z</time>
   </trkpt>
   <trkpt lat="51.1196910" lon="-0.5713810">
    <ele>52.5</ele>
    <time>2020-04-06T16:23:17Z</time>
   </trkpt>
   <trkpt lat="51.1197050" lon="-0.5713760">
    <ele>52.5</ele>
    <time>2020-04-06T16:23:18Z</time>
   </trkpt>
   <trkpt lat="51.1197360" lon="-0.5713770">
    <ele>52.6</ele>
    <time>2020-04-06T16:23:19Z</time>
   </trkpt>
   <trkpt lat="51.1197670" lon="-0.5713850">
    <ele>52.7</ele>
    <time>2020-04-06T16:23:20Z</time>
   </trkpt>
   <trkpt lat="51.1198180" lon="-0.5714070">
    <ele>52.9</ele>
    <time>2020-04-06T16:23:22Z</time>
   </trkpt>
   <trkpt lat="51.1198520" lon="-0.5714210">
    <ele>53.0</ele>
    <time>2020-04-06T16:23:23Z</time>
   </trkpt>
   <trkpt lat="51.1198860" lon="-0.5714400">
    <ele>53.2</ele>
    <time>2020-04-06T16:23:24Z</time>
   </trkpt>
   <trkpt lat="51.1199220" lon="-0.5714640">
    <ele>53.3</ele>
    <time>2020-04-06T16:23:25Z</time>
   </trkpt>
   <trkpt lat="51.1199620" lon="-0.5714890">
    <ele>53.5</ele>
    <time>2020-04-06T16:23:27Z</time>
   </trkpt>
   <trkpt lat="51.1199950" lon="-0.5715030">
    <ele>53.7</ele>
    <time>2020-04-06T16:23:28Z</time>
   </trkpt>
   <trkpt lat="51.1200300" lon="-0.5715120">
    <ele>53.8</ele>
    <time>2020-04-06T16:23:29Z</time>
   </trkpt>
   <trkpt lat="51.1200640" lon="-0.5715220">
    <ele>53.9</ele>
    <time>2020-04-06T16:23:30Z</time>
   </trkpt>
   <trkpt lat="51.1201010" lon="-0.5715280">
    <ele>54.1</ele>
    <time>2020-04-06T16:23:31Z</time>
   </trkpt>
   <trkpt lat="51.1201120" lon="-0.5715300">
    <ele>54.2</ele>
    <time>2020-04-06T16:23:32Z</time>
   </trkpt>
   <trkpt lat="51.1201530" lon="-0.5715330">
    <ele>54.4</ele>
    <time>2020-04-06T16:23:34Z</time>
   </trkpt>
   <trkpt lat="51.1201660" lon="-0.5715350">
    <ele>54.4</ele>
    <time>2020-04-06T16:23:35Z</time>
   </trkpt>
   <trkpt lat="51.1201780" lon="-0.5715370">
    <ele>54.5</ele>
    <time>2020-04-06T16:23:36Z</time>
   </trkpt>
   <trkpt lat="51.1201900" lon="-0.5715390">
    <ele>54.5</ele>
    <time>2020-04-06T16:23:37Z</time>
   </trkpt>
   <trkpt lat="51.1202180" lon="-0.5715440">
    <ele>54.7</ele>
    <time>2020-04-06T16:23:38Z</time>
   </trkpt>
   <trkpt lat="51.1202390" lon="-0.5715500">
    <ele>54.8</ele>
    <time>2020-04-06T16:23:40Z</time>
   </trkpt>
   <trkpt lat="51.1202590" lon="-0.5715570">
    <ele>54.8</ele>
    <time>2020-04-06T16:23:41Z</time>
   </trkpt>
   <trkpt lat="51.1202790" lon="-0.5715630">
    <ele>54.9</ele>
    <time>2020-04-06T16:23:42Z</time>
   </trkpt>
   <trkpt lat="51.1203200" lon="-0.5715770">
    <ele>55.1</ele>
    <time>2020-04-06T16:23:44Z</time>
   </trkpt>
   <trkpt lat="51.1203490" lon="-0.5715830">
    <ele>55.3</ele>
    <time>2020-04-06T16:23:45Z</time>
   </trkpt>
   <trkpt lat="51.1203790" lon="-0.5715860">
    <ele>55.4</ele>
    <time>2020-04-06T16:23:46Z</time>
   </trkpt>
   <trkpt lat="51.1204090" lon="-0.5715910">
    <ele>55.5</ele>
    <time>2020-04-06T16:23:47Z</time>
   </trkpt>
   <trkpt lat="51.1204550" lon="-0.5716090">
    <ele>55.7</ele>
    <time>2020-04-06T16:23:49Z</time>
   </trkpt>
   <trkpt lat="51.1204700" lon="-0.5716180">
    <ele>55.8</ele>
    <time>2020-04-06T16:23:50Z</time>
   </trkpt>
   <trkpt lat="51.1204850" lon="-0.5716280">
    <ele>55.8</ele>
    <time>2020-04-06T16:23:51Z</time>
   </trkpt>
   <trkpt lat="51.1205090" lon="-0.5716570">
    <ele>56.0</ele>
    <time>2020-04-06T16:23:52Z</time>
   </trkpt>
   <trkpt lat="51.1205340" lon="-0.5716840">
    <ele>56.1</ele>
    <time>2020-04-06T16:23:53Z</time>
   </trkpt>
   <trkpt lat="51.1205560" lon="-0.5717110">
    <ele>56.2</ele>
    <time>2020-04-06T16:23:54Z</time>
   </trkpt>
   <trkpt lat="51.1205810" lon="-0.5717310">
    <ele>56.3</ele>
    <time>2020-04-06T16:23:55Z</time>
   </trkpt>
   <trkpt lat="51.1206110" lon="-0.5717480">
    <ele>56.4</ele>
    <time>2020-04-06T16:23:57Z</time>
   </trkpt>
   <trkpt lat="51.1206380" lon="-0.5717630">
    <ele>56.4</ele>
    <time>2020-04-06T16:23:58Z</time>
   </trkpt>
   <trkpt lat="51.1206750" lon="-0.5717810">
    <ele>56.5</ele>
    <time>2020-04-06T16:23:59Z</time>
   </trkpt>
   <trkpt lat="51.1206880" lon="-0.5717880">
    <ele>56.6</ele>
    <time>2020-04-06T16:24:00Z</time>
   </trkpt>
   <trkpt lat="51.1207260" lon="-0.5718090">
    <ele>56.6</ele>
    <time>2020-04-06T16:24:01Z</time>
   </trkpt>
   <trkpt lat="51.1207380" lon="-0.5718170">
    <ele>56.7</ele>
    <time>2020-04-06T16:24:02Z</time>
   </trkpt>
   <trkpt lat="51.1207620" lon="-0.5718320">
    <ele>56.7</ele>
    <time>2020-04-06T16:24:03Z</time>
   </trkpt>
   <trkpt lat="51.1207900" lon="-0.5718490">
    <ele>56.7</ele>
    <time>2020-04-06T16:24:05Z</time>
   </trkpt>
   <trkpt lat="51.1208170" lon="-0.5718640">
    <ele>56.8</ele>
    <time>2020-04-06T16:24:06Z</time>
   </trkpt>
   <trkpt lat="51.1208440" lon="-0.5718760">
    <ele>56.8</ele>
    <time>2020-04-06T16:24:07Z</time>
   </trkpt>
   <trkpt lat="51.1208720" lon="-0.5718880">
    <ele>56.9</ele>
    <time>2020-04-06T16:24:08Z</time>
   </trkpt>
   <trkpt lat="51.1209000" lon="-0.5718980">
    <ele>56.7</ele>
    <time>2020-04-06T16:24:09Z</time>
   </trkpt>
   <trkpt lat="51.1209290" lon="-0.5719110">
    <ele>56.7</ele>
    <time>2020-04-06T16:24:10Z</time>
   </trkpt>
   <trkpt lat="51.1209630" lon="-0.5719260">
    <ele>56.6</ele>
    <time>2020-04-06T16:24:11Z</time>
   </trkpt>
   <trkpt lat="51.1209720" lon="-0.5719300">
    <ele>56.6</ele>
    <time>2020-04-06T16:24:12Z</time>
   </trkpt>
   <trkpt lat="51.1209850" lon="-0.5719400">
    <ele>56.6</ele>
    <time>2020-04-06T16:24:14Z</time>
   </trkpt>
   <trkpt lat="51.1210000" lon="-0.5719560">
    <ele>56.5</ele>
    <time>2020-04-06T16:24:15Z</time>
   </trkpt>
   <trkpt lat="51.1210310" lon="-0.5719830">
    <ele>56.5</ele>
    <time>2020-04-06T16:24:16Z</time>
   </trkpt>
   <trkpt lat="51.1210420" lon="-0.5719920">
    <ele>56.4</ele>
    <time>2020-04-06T16:24:17Z</time>
   </trkpt>
   <trkpt lat="51.1210730" lon="-0.5720160">
    <ele>56.4</ele>
    <time>2020-04-06T16:24:18Z</time>
   </trkpt>
   <trkpt lat="51.1210820" lon="-0.5720240">
    <ele>56.4</ele>
    <time>2020-04-06T16:24:19Z</time>
   </trkpt>
   <trkpt lat="51.1211180" lon="-0.5720520">
    <ele>56.3</ele>
    <time>2020-04-06T16:24:20Z</time>
   </trkpt>
   <trkpt lat="51.1211310" lon="-0.5720620">
    <ele>56.3</ele>
    <time>2020-04-06T16:24:21Z</time>
   </trkpt>
   <trkpt lat="51.1211580" lon="-0.5720810">
    <ele>56.2</ele>
    <time>2020-04-06T16:24:23Z</time>
   </trkpt>
   <trkpt lat="51.1211830" lon="-0.5721000">
    <ele>56.2</ele>
    <time>2020-04-06T16:24:24Z</time>
   </trkpt>
   <trkpt lat="51.1212170" lon="-0.5721320">
    <ele>56.1</ele>
    <time>2020-04-06T16:24:25Z</time>
   </trkpt>
   <trkpt lat="51.1212280" lon="-0.5721420">
    <ele>56.1</ele>
    <time>2020-04-06T16:24:26Z</time>
   </trkpt>
   <trkpt lat="51.1212520" lon="-0.5721640">
    <ele>56.0</ele>
    <time>2020-04-06T16:24:27Z</time>
   </trkpt>
   <trkpt lat="51.1212580" lon="-0.5721870">
    <ele>56.0</ele>
    <time>2020-04-06T16:24:28Z</time>
   </trkpt>
   <trkpt lat="51.1212530" lon="-0.5721980">
    <ele>56.0</ele>
    <time>2020-04-06T16:24:29Z</time>
   </trkpt>
   <trkpt lat="51.1212470" lon="-0.5722080">
    <ele>56.2</ele>
    <time>2020-04-06T16:24:31Z</time>
   </trkpt>
   <trkpt lat="51.1212420" lon="-0.5722190">
    <ele>56.3</ele>
    <time>2020-04-06T16:24:32Z</time>
   </trkpt>
   <trkpt lat="51.1212360" lon="-0.5722300">
    <ele>56.3</ele>
    <time>2020-04-06T16:24:33Z</time>
   </trkpt>
   <trkpt lat="51.1212100" lon="-0.5722770">
    <ele>56.5</ele>
    <time>2020-04-06T16:24:34Z</time>
   </trkpt>
   <trkpt lat="51.1212030" lon="-0.5722930">
    <ele>56.5</ele>
    <time>2020-04-06T16:24:35Z</time>
   </trkpt>
   <trkpt lat="51.1211820" lon="-0.5723470">
    <ele>56.7</ele>
    <time>2020-04-06T16:24:36Z</time>
   </trkpt>
   <trkpt lat="51.1211740" lon="-0.5723640">
    <ele>56.7</ele>
    <time>2020-04-06T16:24:37Z</time>
   </trkpt>
   <trkpt lat="51.1211530" lon="-0.5724270">
    <ele>56.9</ele>
    <time>2020-04-06T16:24:39Z</time>
   </trkpt>
   <trkpt lat="51.1211470" lon="-0.5724510">
    <ele>57.0</ele>
    <time>2020-04-06T16:24:40Z</time>
   </trkpt>
   <trkpt lat="51.1211400" lon="-0.5724760">
    <ele>57.1</ele>
    <time>2020-04-06T16:24:41Z</time>
   </trkpt>
   <trkpt lat="51.1211300" lon="-0.5725360">
    <ele>57.4</ele>
    <time>2020-04-06T16:24:42Z</time>
   </trkpt>
   <trkpt lat="51.1211270" lon="-0.5725550">
    <ele>57.5</ele>
    <time>2020-04-06T16:24:43Z</time>
   </trkpt>
   <trkpt lat="51.1211230" lon="-0.5726110">
    <ele>57.7</ele>
    <time>2020-04-06T16:24:44Z</time>
   </trkpt>
   <trkpt lat="51.1211210" lon="-0.5726290">
    <ele>57.7</ele>
    <time>2020-04-06T16:24:45Z</time>
   </trkpt>
   <trkpt lat="51.1211150" lon="-0.5727100">
    <ele>58.0</ele>
    <time>2020-04-06T16:24:47Z</time>
   </trkpt>
   <trkpt lat="51.1211130" lon="-0.5727340">
    <ele>58.1</ele>
    <time>2020-04-06T16:24:48Z</time>
   </trkpt>
   <trkpt lat="51.1211110" lon="-0.5727590">
    <ele>58.2</ele>
    <time>2020-04-06T16:24:49Z</time>
   </trkpt>
   <trkpt lat="51.1211060" lon="-0.5727950">
    <ele>58.3</ele>
    <time>2020-04-06T16:24:50Z</time>
   </trkpt>
   <trkpt lat="51.1210980" lon="-0.5728410">
    <ele>58.6</ele>
    <time>2020-04-06T16:24:52Z</time>
   </trkpt>
   <trkpt lat="51.1210890" lon="-0.5729030">
    <ele>58.8</ele>
    <time>2020-04-06T16:24:53Z</time>
   </trkpt>
   <trkpt lat="51.1210850" lon="-0.5729230">
    <ele>58.9</ele>
    <time>2020-04-06T16:24:54Z</time>
   </trkpt>
   <trkpt lat="51.1210770" lon="-0.5729840">
    <ele>59.2</ele>
    <time>2020-04-06T16:24:55Z</time>
   </trkpt>
   <trkpt lat="51.1210740" lon="-0.5730040">
    <ele>59.2</ele>
    <time>2020-04-06T16:24:56Z</time>
   </trkpt>
   <trkpt lat="51.1210630" lon="-0.5730620">
    <ele>59.5</ele>
    <time>2020-04-06T16:24:57Z</time>
   </trkpt>
   <trkpt lat="51.1210590" lon="-0.5730810">
    <ele>59.5</ele>
    <time>2020-04-06T16:24:58Z</time>
   </trkpt>
   <trkpt lat="51.1210450" lon="-0.5731500">
    <ele>59.8</ele>
    <time>2020-04-06T16:25:00Z</time>
   </trkpt>
   <trkpt lat="51.1210390" lon="-0.5731760">
    <ele>59.9</ele>
    <time>2020-04-06T16:25:01Z</time>
   </trkpt>
   <trkpt lat="51.1210340" lon="-0.5732020">
    <ele>60.0</ele>
    <time>2020-04-06T16:25:02Z</time>
   </trkpt>
   <trkpt lat="51.1210220" lon="-0.5732590">
    <ele>60.2</ele>
    <time>2020-04-06T16:25:03Z</time>
   </trkpt>
   <trkpt lat="51.1210170" lon="-0.5732770">
    <ele>60.2</ele>
    <time>2020-04-06T16:25:04Z</time>
   </trkpt>
   <trkpt lat="51.1210050" lon="-0.5733280">
    <ele>60.4</ele>
    <time>2020-04-06T16:25:05Z</time>
   </trkpt>
   <trkpt lat="51.1210030" lon="-0.5733430">
    <ele>60.4</ele>
    <time>2020-04-06T16:25:06Z</time>
   </trkpt>
   <trkpt lat="51.1209950" lon="-0.5734210">
    <ele>60.6</ele>
    <time>2020-04-06T16:25:08Z</time>
   </trkpt>
   <trkpt lat="51.1209920" lon="-0.5734440">
    <ele>60.7</ele>
    <time>2020-04-06T16:25:09Z</time>
   </trkpt>
   <trkpt lat="51.1209900" lon="-0.5734680">
    <ele>60.7</ele>
    <time>2020-04-06T16:25:10Z</time>
   </trkpt>
   <trkpt lat="51.1209860" lon="-0.5734960">
    <ele>60.8</ele>
    <time>2020-04-06T16:25:11Z</time>
   </trkpt>
   <trkpt lat="51.1209770" lon="-0.5735460">
    <ele>60.9</ele>
    <time>2020-04-06T16:25:13Z</time>
   </trkpt>
   <trkpt lat="51.1209640" lon="-0.5735970">
    <ele>61.1</ele>
    <time>2020-04-06T16:25:14Z</time>
   </trkpt>
   <trkpt lat="51.1209590" lon="-0.5736130">
    <ele>61.1</ele>
    <time>2020-04-06T16:25:15Z</time>
   </trkpt>
   <trkpt lat="51.1209510" lon="-0.5736460">
    <ele>61.2</ele>
    <time>2020-04-06T16:25:16Z</time>
   </trkpt>
   <trkpt lat="51.1209410" lon="-0.5736870">
    <ele>61.3</ele>
    <time>2020-04-06T16:25:18Z</time>
   </trkpt>
   <trkpt lat="51.1209310" lon="-0.5737420">
    <ele>61.4</ele>
    <time>2020-04-06T16:25:19Z</time>
   </trkpt>
   <trkpt lat="51.1209270" lon="-0.5737600">
    <ele>61.4</ele>
    <time>2020-04-06T16:25:20Z</time>
   </trkpt>
   <trkpt lat="51.1209190" lon="-0.5737940">
    <ele>61.5</ele>
    <time>2020-04-06T16:25:21Z</time>
   </trkpt>
   <trkpt lat="51.1209090" lon="-0.5738510">
    <ele>61.6</ele>
    <time>2020-04-06T16:25:23Z</time>
   </trkpt>
   <trkpt lat="51.1209020" lon="-0.5739080">
    <ele>61.7</ele>
    <time>2020-04-06T16:25:24Z</time>
   </trkpt>
   <trkpt lat="51.1208980" lon="-0.5739260">
    <ele>61.7</ele>
    <time>2020-04-06T16:25:25Z</time>
   </trkpt>
   <trkpt lat="51.1208910" lon="-0.5739750">
    <ele>61.8</ele>
    <time>2020-04-06T16:25:26Z</time>
   </trkpt>
   <trkpt lat="51.1208890" lon="-0.5739920">
    <ele>61.9</ele>
    <time>2020-04-06T16:25:27Z</time>
   </trkpt>
   <trkpt lat="51.1208840" lon="-0.5740250">
    <ele>61.9</ele>
    <time>2020-04-06T16:25:28Z</time>
   </trkpt>
   <trkpt lat="51.1208740" lon="-0.5740780">
    <ele>62.0</ele>
    <time>2020-04-06T16:25:30Z</time>
   </trkpt>
   <trkpt lat="51.1208660" lon="-0.5741330">
    <ele>62.1</ele>
    <time>2020-04-06T16:25:31Z</time>
   </trkpt>
   <trkpt lat="51.1208630" lon="-0.5741540">
    <ele>62.1</ele>
    <time>2020-04-06T16:25:32Z</time>
   </trkpt>
   <trkpt lat="51.1208580" lon="-0.5742070">
    <ele>62.2</ele>
    <time>2020-04-06T16:25:33Z</time>
   </trkpt>
   <trkpt lat="51.1208560" lon="-0.5742250">
    <ele>62.2</ele>
    <time>2020-04-06T16:25:34Z</time>
   </trkpt>
   <trkpt lat="51.1208520" lon="-0.5742960">
    <ele>62.4</ele>
    <time>2020-04-06T16:25:36Z</time>
   </trkpt>
   <trkpt lat="51.1208490" lon="-0.5743210">
    <ele>62.4</ele>
    <time>2020-04-06T16:25:37Z</time>
   </trkpt>
   <trkpt lat="51.1208470" lon="-0.5743470">
    <ele>62.4</ele>
    <time>2020-04-06T16:25:38Z</time>
   </trkpt>
   <trkpt lat="51.1208430" lon="-0.5744080">
    <ele>62.5</ele>
    <time>2020-04-06T16:25:39Z</time>
   </trkpt>
   <trkpt lat="51.1208410" lon="-0.5744270">
    <ele>62.6</ele>
    <time>2020-04-06T16:25:40Z</time>
   </trkpt>
   <trkpt lat="51.1208400" lon="-0.5744780">
    <ele>62.6</ele>
    <time>2020-04-06T16:25:41Z</time>
   </trkpt>
   <trkpt lat="51.1208390" lon="-0.5744970">
    <ele>62.7</ele>
    <time>2020-04-06T16:25:42Z</time>
   </trkpt>
   <trkpt lat="51.1208370" lon="-0.5745590">
    <ele>62.8</ele>
    <time>2020-04-06T16:25:44Z</time>
   </trkpt>
   <trkpt lat="51.1208350" lon="-0.5745780">
    <ele>62.8</ele>
    <time>2020-04-06T16:25:45Z</time>
   </trkpt>
   <trkpt lat="51.1208320" lon="-0.5746390">
    <ele>62.9</ele>
    <time>2020-04-06T16:25:46Z</time>
   </trkpt>
   <trkpt lat="51.1208310" lon="-0.5746590">
    <ele>62.9</ele>
    <time>2020-04-06T16:25:47Z</time>
   </trkpt>
   <trkpt lat="51.1208290" lon="-0.5747140">
    <ele>63.0</ele>
    <time>2020-04-06T16:25:48Z</time>
   </trkpt>
   <trkpt lat="51.1208280" lon="-0.5747300">
    <ele>63.1</ele>
    <time>2020-04-06T16:25:49Z</time>
   </trkpt>
   <trkpt lat="51.1208240" lon="-0.5747880">
    <ele>63.2</ele>
    <time>2020-04-06T16:25:51Z</time>
   </trkpt>
   <trkpt lat="51.1208200" lon="-0.5748480">
    <ele>63.3</ele>
    <time>2020-04-06T16:25:52Z</time>
   </trkpt>
   <trkpt lat="51.1208190" lon="-0.5748680">
    <ele>63.3</ele>
    <time>2020-04-06T16:25:53Z</time>
   </trkpt>
   <trkpt lat="51.1208180" lon="-0.5749010">
    <ele>63.4</ele>
    <time>2020-04-06T16:25:54Z</time>
   </trkpt>
   <trkpt lat="51.1208110" lon="-0.5749450">
    <ele>63.5</ele>
    <time>2020-04-06T16:25:56Z</time>
   </trkpt>
   <trkpt lat="51.1208040" lon="-0.5750010">
    <ele>63.7</ele>
    <time>2020-04-06T16:25:57Z</time>
   </trkpt>
   <trkpt lat="51.1208020" lon="-0.5750200">
    <ele>63.7</ele>
    <time>2020-04-06T16:25:58Z</time>
   </trkpt>
   <trkpt lat="51.1207940" lon="-0.5750800">
    <ele>63.8</ele>
    <time>2020-04-06T16:25:59Z</time>
   </trkpt>
   <trkpt lat="51.1207910" lon="-0.5751010">
    <ele>63.8</ele>
    <time>2020-04-06T16:26:00Z</time>
   </trkpt>
   <trkpt lat="51.1207850" lon="-0.5751570">
    <ele>63.9</ele>
    <time>2020-04-06T16:26:01Z</time>
   </trkpt>
   <trkpt lat="51.1207820" lon="-0.5751750">
    <ele>64.0</ele>
    <time>2020-04-06T16:26:02Z</time>
   </trkpt>
   <trkpt lat="51.1207700" lon="-0.5752460">
    <ele>64.1</ele>
    <time>2020-04-06T16:26:04Z</time>
   </trkpt>
   <trkpt lat="51.1207660" lon="-0.5752720">
    <ele>64.1</ele>
    <time>2020-04-06T16:26:05Z</time>
   </trkpt>
   <trkpt lat="51.1207610" lon="-0.5752980">
    <ele>64.2</ele>
    <time>2020-04-06T16:26:06Z</time>
   </trkpt>
   <trkpt lat="51.1207510" lon="-0.5753590">
    <ele>64.3</ele>
    <time>2020-04-06T16:26:07Z</time>
   </trkpt>
   <trkpt lat="51.1207480" lon="-0.5753780">
    <ele>64.3</ele>
    <time>2020-04-06T16:26:08Z</time>
   </trkpt>
   <trkpt lat="51.1207390" lon="-0.5754330">
    <ele>64.4</ele>
    <time>2020-04-06T16:26:10Z</time>
   </trkpt>
   <trkpt lat="51.1207330" lon="-0.5754700">
    <ele>64.5</ele>
    <time>2020-04-06T16:26:11Z</time>
   </trkpt>
   <trkpt lat="51.1207170" lon="-0.5755260">
    <ele>64.6</ele>
    <time>2020-04-06T16:26:13Z</time>
   </trkpt>
   <trkpt lat="51.1207060" lon="-0.5755820">
    <ele>64.6</ele>
    <time>2020-04-06T16:26:14Z</time>
   </trkpt>
   <trkpt lat="51.1207020" lon="-0.5756000">
    <ele>64.7</ele>
    <time>2020-04-06T16:26:15Z</time>
   </trkpt>
   <trkpt lat="51.1206860" lon="-0.5756600">
    <ele>64.7</ele>
    <time>2020-04-06T16:26:16Z</time>
   </trkpt>
   <trkpt lat="51.1206790" lon="-0.5756850">
    <ele>64.8</ele>
    <time>2020-04-06T16:26:17Z</time>
   </trkpt>
   <trkpt lat="51.1206570" lon="-0.5757560">
    <ele>64.8</ele>
    <time>2020-04-06T16:26:19Z</time>
   </trkpt>
   <trkpt lat="51.1206500" lon="-0.5757820">
    <ele>64.9</ele>
    <time>2020-04-06T16:26:20Z</time>
   </trkpt>
   <trkpt lat="51.1206420" lon="-0.5758070">
    <ele>64.9</ele>
    <time>2020-04-06T16:26:21Z</time>
   </trkpt>
   <trkpt lat="51.1206300" lon="-0.5758460">
    <ele>64.9</ele>
    <time>2020-04-06T16:26:22Z</time>
   </trkpt>
   <trkpt lat="51.1206180" lon="-0.5758860">
    <ele>64.9</ele>
    <time>2020-04-06T16:26:23Z</time>
   </trkpt>
   <trkpt lat="51.1206080" lon="-0.5759220">
    <ele>64.9</ele>
    <time>2020-04-06T16:26:24Z</time>
   </trkpt>
   <trkpt lat="51.1205890" lon="-0.5759820">
    <ele>64.9</ele>
    <time>2020-04-06T16:26:26Z</time>
   </trkpt>
   <trkpt lat="51.1205730" lon="-0.5760390">
    <ele>64.9</ele>
    <time>2020-04-06T16:26:27Z</time>
   </trkpt>
   <trkpt lat="51.1205670" lon="-0.5760570">
    <ele>64.9</ele>
    <time>2020-04-06T16:26:28Z</time>
   </trkpt>
   <trkpt lat="51.1205550" lon="-0.5760970">
    <ele>64.9</ele>
    <time>2020-04-06T16:26:29Z</time>
   </trkpt>
   <trkpt lat="51.1205380" lon="-0.5761630">
    <ele>64.9</ele>
    <time>2020-04-06T16:26:31Z</time>
   </trkpt>
   <trkpt lat="51.1205310" lon="-0.5761880">
    <ele>64.8</ele>
    <time>2020-04-06T16:26:32Z</time>
   </trkpt>
   <trkpt lat="51.1205240" lon="-0.5762130">
    <ele>64.8</ele>
    <time>2020-04-06T16:26:33Z</time>
   </trkpt>
   <trkpt lat="51.1205100" lon="-0.5762530">
    <ele>64.8</ele>
    <time>2020-04-06T16:26:34Z</time>
   </trkpt>
   <trkpt lat="51.1204930" lon="-0.5763110">
    <ele>64.7</ele>
    <time>2020-04-06T16:26:35Z</time>
   </trkpt>
   <trkpt lat="51.1204880" lon="-0.5763300">
    <ele>64.7</ele>
    <time>2020-04-06T16:26:36Z</time>
   </trkpt>
   <trkpt lat="51.1204760" lon="-0.5763700">
    <ele>64.6</ele>
    <time>2020-04-06T16:26:37Z</time>
   </trkpt>
   <trkpt lat="51.1204650" lon="-0.5764070">
    <ele>64.6</ele>
    <time>2020-04-06T16:26:38Z</time>
   </trkpt>
   <trkpt lat="51.1204560" lon="-0.5764500">
    <ele>64.5</ele>
    <time>2020-04-06T16:26:40Z</time>
   </trkpt>
   <trkpt lat="51.1204480" lon="-0.5764910">
    <ele>64.4</ele>
    <time>2020-04-06T16:26:41Z</time>
   </trkpt>
   <trkpt lat="51.1204370" lon="-0.5765490">
    <ele>64.2</ele>
    <time>2020-04-06T16:26:42Z</time>
   </trkpt>
   <trkpt lat="51.1204330" lon="-0.5765710">
    <ele>64.2</ele>
    <time>2020-04-06T16:26:43Z</time>
   </trkpt>
   <trkpt lat="51.1204240" lon="-0.5766320">
    <ele>64.0</ele>
    <time>2020-04-06T16:26:44Z</time>
   </trkpt>
   <trkpt lat="51.1204220" lon="-0.5766520">
    <ele>64.0</ele>
    <time>2020-04-06T16:26:45Z</time>
   </trkpt>
   <trkpt lat="51.1204180" lon="-0.5766900">
    <ele>63.9</ele>
    <time>2020-04-06T16:26:46Z</time>
   </trkpt>
   <trkpt lat="51.1204130" lon="-0.5767490">
    <ele>63.7</ele>
    <time>2020-04-06T16:26:48Z</time>
   </trkpt>
   <trkpt lat="51.1204080" lon="-0.5768070">
    <ele>63.6</ele>
    <time>2020-04-06T16:26:49Z</time>
   </trkpt>
   <trkpt lat="51.1204050" lon="-0.5768260">
    <ele>63.5</ele>
    <time>2020-04-06T16:26:50Z</time>
   </trkpt>
   <trkpt lat="51.1204000" lon="-0.5768810">
    <ele>63.4</ele>
    <time>2020-04-06T16:26:51Z</time>
   </trkpt>
   <trkpt lat="51.1203980" lon="-0.5768970">
    <ele>63.3</ele>
    <time>2020-04-06T16:26:52Z</time>
   </trkpt>
   <trkpt lat="51.1203920" lon="-0.5769470">
    <ele>63.2</ele>
    <time>2020-04-06T16:26:54Z</time>
   </trkpt>
   <trkpt lat="51.1203910" lon="-0.5769640">
    <ele>63.1</ele>
    <time>2020-04-06T16:26:55Z</time>
   </trkpt>
   <trkpt lat="51.1203900" lon="-0.5769960">
    <ele>63.0</ele>
    <time>2020-04-06T16:26:56Z</time>
   </trkpt>
   <trkpt lat="51.1203890" lon="-0.5770200">
    <ele>62.9</ele>
    <time>2020-04-06T16:26:57Z</time>
   </trkpt>
   <trkpt lat="51.1203830" lon="-0.5770730">
    <ele>62.8</ele>
    <time>2020-04-06T16:26:58Z</time>
   </trkpt>
   <trkpt lat="51.1203810" lon="-0.5770920">
    <ele>62.7</ele>
    <time>2020-04-06T16:26:59Z</time>
   </trkpt>
   <trkpt lat="51.1203790" lon="-0.5771330">
    <ele>62.6</ele>
    <time>2020-04-06T16:27:00Z</time>
   </trkpt>
   <trkpt lat="51.1203780" lon="-0.5771730">
    <ele>62.5</ele>
    <time>2020-04-06T16:27:02Z</time>
   </trkpt>
   <trkpt lat="51.1203760" lon="-0.5772380">
    <ele>62.2</ele>
    <time>2020-04-06T16:27:03Z</time>
   </trkpt>
   <trkpt lat="51.1203760" lon="-0.5772590">
    <ele>62.2</ele>
    <time>2020-04-06T16:27:04Z</time>
   </trkpt>
   <trkpt lat="51.1203770" lon="-0.5773220">
    <ele>61.9</ele>
    <time>2020-04-06T16:27:05Z</time>
   </trkpt>
   <trkpt lat="51.1203770" lon="-0.5773420">
    <ele>61.9</ele>
    <time>2020-04-06T16:27:06Z</time>
   </trkpt>
   <trkpt lat="51.1203800" lon="-0.5773860">
    <ele>61.7</ele>
    <time>2020-04-06T16:27:07Z</time>
   </trkpt>
   <trkpt lat="51.1203830" lon="-0.5774290">
    <ele>61.6</ele>
    <time>2020-04-06T16:27:08Z</time>
   </trkpt>
   <trkpt lat="51.1203830" lon="-0.5774930">
    <ele>61.3</ele>
    <time>2020-04-06T16:27:10Z</time>
   </trkpt>
   <trkpt lat="51.1203830" lon="-0.5775150">
    <ele>61.2</ele>
    <time>2020-04-06T16:27:11Z</time>
   </trkpt>
   <trkpt lat="51.1203850" lon="-0.5775580">
    <ele>61.1</ele>
    <time>2020-04-06T16:27:12Z</time>
   </trkpt>
   <trkpt lat="51.1203890" lon="-0.5776020">
    <ele>60.9</ele>
    <time>2020-04-06T16:27:13Z</time>
   </trkpt>
   <trkpt lat="51.1203910" lon="-0.5776460">
    <ele>60.8</ele>
    <time>2020-04-06T16:27:14Z</time>
   </trkpt>
   <trkpt lat="51.1203940" lon="-0.5777090">
    <ele>60.7</ele>
    <time>2020-04-06T16:27:15Z</time>
   </trkpt>
   <trkpt lat="51.1203950" lon="-0.5777290">
    <ele>60.6</ele>
    <time>2020-04-06T16:27:16Z</time>
   </trkpt>
   <trkpt lat="51.1203960" lon="-0.5777760">
    <ele>60.5</ele>
    <time>2020-04-06T16:27:18Z</time>
   </trkpt>
   <trkpt lat="51.1203990" lon="-0.5778220">
    <ele>60.3</ele>
    <time>2020-04-06T16:27:19Z</time>
   </trkpt>
   <trkpt lat="51.1204000" lon="-0.5778650">
    <ele>60.2</ele>
    <time>2020-04-06T16:27:20Z</time>
   </trkpt>
   <trkpt lat="51.1204010" lon="-0.5779110">
    <ele>60.1</ele>
    <time>2020-04-06T16:27:21Z</time>
   </trkpt>
   <trkpt lat="51.1204000" lon="-0.5779760">
    <ele>60.0</ele>
    <time>2020-04-06T16:27:22Z</time>
   </trkpt>
   <trkpt lat="51.1203990" lon="-0.5779970">
    <ele>59.9</ele>
    <time>2020-04-06T16:27:23Z</time>
   </trkpt>
   <trkpt lat="51.1203970" lon="-0.5780440">
    <ele>59.8</ele>
    <time>2020-04-06T16:27:24Z</time>
   </trkpt>
   <trkpt lat="51.1203960" lon="-0.5780880">
    <ele>59.7</ele>
    <time>2020-04-06T16:27:26Z</time>
   </trkpt>
   <trkpt lat="51.1203980" lon="-0.5781320">
    <ele>59.6</ele>
    <time>2020-04-06T16:27:27Z</time>
   </trkpt>
   <trkpt lat="51.1203980" lon="-0.5781930">
    <ele>59.4</ele>
    <time>2020-04-06T16:27:28Z</time>
   </trkpt>
   <trkpt lat="51.1203970" lon="-0.5782140">
    <ele>59.4</ele>
    <time>2020-04-06T16:27:29Z</time>
   </trkpt>
   <trkpt lat="51.1203960" lon="-0.5782580">
    <ele>59.3</ele>
    <time>2020-04-06T16:27:30Z</time>
   </trkpt>
   <trkpt lat="51.1203960" lon="-0.5783220">
    <ele>59.1</ele>
    <time>2020-04-06T16:27:31Z</time>
   </trkpt>
   <trkpt lat="51.1203960" lon="-0.5783430">
    <ele>59.0</ele>
    <time>2020-04-06T16:27:32Z</time>
   </trkpt>
   <trkpt lat="51.1203960" lon="-0.5783880">
    <ele>58.9</ele>
    <time>2020-04-06T16:27:33Z</time>
   </trkpt>
   <trkpt lat="51.1203950" lon="-0.5784410">
    <ele>58.8</ele>
    <time>2020-04-06T16:27:35Z</time>
   </trkpt>
   <trkpt lat="51.1203950" lon="-0.5784900">
    <ele>58.6</ele>
    <time>2020-04-06T16:27:36Z</time>
   </trkpt>
   <trkpt lat="51.1203960" lon="-0.5785400">
    <ele>58.4</ele>
    <time>2020-04-06T16:27:37Z</time>
   </trkpt>
   <trkpt lat="51.1203940" lon="-0.5785880">
    <ele>58.2</ele>
    <time>2020-04-06T16:27:38Z</time>
   </trkpt>
   <trkpt lat="51.1203930" lon="-0.5786340">
    <ele>58.1</ele>
    <time>2020-04-06T16:27:39Z</time>
   </trkpt>
   <trkpt lat="51.1203950" lon="-0.5786860">
    <ele>58.0</ele>
    <time>2020-04-06T16:27:40Z</time>
   </trkpt>
   <trkpt lat="51.1203990" lon="-0.5787350">
    <ele>57.9</ele>
    <time>2020-04-06T16:27:41Z</time>
   </trkpt>
   <trkpt lat="51.1204050" lon="-0.5787830">
    <ele>57.7</ele>
    <time>2020-04-06T16:27:43Z</time>
   </trkpt>
   <trkpt lat="51.1204110" lon="-0.5788340">
    <ele>57.6</ele>
    <time>2020-04-06T16:27:44Z</time>
   </trkpt>
   <trkpt lat="51.1204160" lon="-0.5788820">
    <ele>57.5</ele>
    <time>2020-04-06T16:27:45Z</time>
   </trkpt>
   <trkpt lat="51.1204230" lon="-0.5789300">
    <ele>57.3</ele>
    <time>2020-04-06T16:27:46Z</time>
   </trkpt>
   <trkpt lat="51.1204310" lon="-0.5789820">
    <ele>57.2</ele>
    <time>2020-04-06T16:27:47Z</time>
   </trkpt>
   <trkpt lat="51.1204400" lon="-0.5790270">
    <ele>57.1</ele>
    <time>2020-04-06T16:27:48Z</time>
   </trkpt>
   <trkpt lat="51.1204500" lon="-0.5790700">
    <ele>57.0</ele>
    <time>2020-04-06T16:27:49Z</time>
   </trkpt>
   <trkpt lat="51.1204610" lon="-0.5791400">
    <ele>56.8</ele>
    <time>2020-04-06T16:27:51Z</time>
   </trkpt>
   <trkpt lat="51.1204680" lon="-0.5791860">
    <ele>56.7</ele>
    <time>2020-04-06T16:27:52Z</time>
   </trkpt>
   <trkpt lat="51.1204770" lon="-0.5792330">
    <ele>56.6</ele>
    <time>2020-04-06T16:27:53Z</time>
   </trkpt>
   <trkpt lat="51.1204850" lon="-0.5792820">
    <ele>56.4</ele>
    <time>2020-04-06T16:27:54Z</time>
   </trkpt>
   <trkpt lat="51.1204930" lon="-0.5793300">
    <ele>56.3</ele>
    <time>2020-04-06T16:27:56Z</time>
   </trkpt>
   <trkpt lat="51.1205010" lon="-0.5793770">
    <ele>56.2</ele>
    <time>2020-04-06T16:27:57Z</time>
   </trkpt>
   <trkpt lat="51.1205110" lon="-0.5794210">
    <ele>56.1</ele>
    <time>2020-04-06T16:27:58Z</time>
   </trkpt>
   <trkpt lat="51.1205190" lon="-0.5794690">
    <ele>56.0</ele>
    <time>2020-04-06T16:27:59Z</time>
   </trkpt>
   <trkpt lat="51.1205240" lon="-0.5795120">
    <ele>55.9</ele>
    <time>2020-04-06T16:28:00Z</time>
   </trkpt>
   <trkpt lat="51.1205280" lon="-0.5795560">
    <ele>55.8</ele>
    <time>2020-04-06T16:28:01Z</time>
   </trkpt>
   <trkpt lat="51.1205340" lon="-0.5796000">
    <ele>55.7</ele>
    <time>2020-04-06T16:28:02Z</time>
   </trkpt>
   <trkpt lat="51.1205380" lon="-0.5796400">
    <ele>55.6</ele>
    <time>2020-04-06T16:28:03Z</time>
   </trkpt>
   <trkpt lat="51.1205400" lon="-0.5796880">
    <ele>55.6</ele>
    <time>2020-04-06T16:28:05Z</time>
   </trkpt>
   <trkpt lat="51.1205440" lon="-0.5797460">
    <ele>55.5</ele>
    <time>2020-04-06T16:28:06Z</time>
   </trkpt>
   <trkpt lat="51.1205450" lon="-0.5797680">
    <ele>55.5</ele>
    <time>2020-04-06T16:28:07Z</time>
   </trkpt>
   <trkpt lat="51.1205480" lon="-0.5798110">
    <ele>55.5</ele>
    <time>2020-04-06T16:28:08Z</time>
   </trkpt>
   <trkpt lat="51.1205510" lon="-0.5798550">
    <ele>55.4</ele>
    <time>2020-04-06T16:28:09Z</time>
   </trkpt>
   <trkpt lat="51.1205560" lon="-0.5799000">
    <ele>55.4</ele>
    <time>2020-04-06T16:28:10Z</time>
   </trkpt>
   <trkpt lat="51.1205590" lon="-0.5799660">
    <ele>55.4</ele>
    <time>2020-04-06T16:28:12Z</time>
   </trkpt>
   <trkpt lat="51.1205640" lon="-0.5800090">
    <ele>55.3</ele>
    <time>2020-04-06T16:28:13Z</time>
   </trkpt>
   <trkpt lat="51.1205700" lon="-0.5800720">
    <ele>55.3</ele>
    <time>2020-04-06T16:28:14Z</time>
   </trkpt>
   <trkpt lat="51.1205710" lon="-0.5800960">
    <ele>55.3</ele>
    <time>2020-04-06T16:28:15Z</time>
   </trkpt>
   <trkpt lat="51.1205700" lon="-0.5801350">
    <ele>55.2</ele>
    <time>2020-04-06T16:28:16Z</time>
   </trkpt>
   <trkpt lat="51.1205690" lon="-0.5801800">
    <ele>55.2</ele>
    <time>2020-04-06T16:28:18Z</time>
   </trkpt>
   <trkpt lat="51.1205720" lon="-0.5802440">
    <ele>55.1</ele>
    <time>2020-04-06T16:28:19Z</time>
   </trkpt>
   <trkpt lat="51.1205720" lon="-0.5802680">
    <ele>55.1</ele>
    <time>2020-04-06T16:28:20Z</time>
   </trkpt>
   <trkpt lat="51.1205790" lon="-0.5803280">
    <ele>55.0</ele>
    <time>2020-04-06T16:28:21Z</time>
   </trkpt>
   <trkpt lat="51.1205810" lon="-0.5803470">
    <ele>55.0</ele>
    <time>2020-04-06T16:28:22Z</time>
   </trkpt>
   <trkpt lat="51.1205840" lon="-0.5803920">
    <ele>54.9</ele>
    <time>2020-04-06T16:28:23Z</time>
   </trkpt>
   <trkpt lat="51.1205870" lon="-0.5804380">
    <ele>54.9</ele>
    <time>2020-04-06T16:28:24Z</time>
   </trkpt>
   <trkpt lat="51.1205920" lon="-0.5804840">
    <ele>54.9</ele>
    <time>2020-04-06T16:28:26Z</time>
   </trkpt>
   <trkpt lat="51.1205950" lon="-0.5805310">
    <ele>54.8</ele>
    <time>2020-04-06T16:28:27Z</time>
   </trkpt>
   <trkpt lat="51.1205990" lon="-0.5805950">
    <ele>54.8</ele>
    <time>2020-04-06T16:28:28Z</time>
   </trkpt>
   <trkpt lat="51.1206000" lon="-0.5806180">
    <ele>54.8</ele>
    <time>2020-04-06T16:28:29Z</time>
   </trkpt>
   <trkpt lat="51.1206030" lon="-0.5806810">
    <ele>54.8</ele>
    <time>2020-04-06T16:28:30Z</time>
   </trkpt>
   <trkpt lat="51.1206040" lon="-0.5807030">
    <ele>54.7</ele>
    <time>2020-04-06T16:28:31Z</time>
   </trkpt>
   <trkpt lat="51.1206070" lon="-0.5807430">
    <ele>54.7</ele>
    <time>2020-04-06T16:28:32Z</time>
   </trkpt>
   <trkpt lat="51.1206110" lon="-0.5807900">
    <ele>54.7</ele>
    <time>2020-04-06T16:28:34Z</time>
   </trkpt>
   <trkpt lat="51.1206140" lon="-0.5808330">
    <ele>54.7</ele>
    <time>2020-04-06T16:28:35Z</time>
   </trkpt>
   <trkpt lat="51.1206160" lon="-0.5808770">
    <ele>54.6</ele>
    <time>2020-04-06T16:28:36Z</time>
   </trkpt>
   <trkpt lat="51.1206200" lon="-0.5809230">
    <ele>54.6</ele>
    <time>2020-04-06T16:28:37Z</time>
   </trkpt>
   <trkpt lat="51.1206230" lon="-0.5809660">
    <ele>54.5</ele>
    <time>2020-04-06T16:28:38Z</time>
   </trkpt>
   <trkpt lat="51.1206270" lon="-0.5810100">
    <ele>54.4</ele>
    <time>2020-04-06T16:28:39Z</time>
   </trkpt>
   <trkpt lat="51.1206330" lon="-0.5810710">
    <ele>54.3</ele>
    <time>2020-04-06T16:28:40Z</time>
   </trkpt>
   <trkpt lat="51.1206340" lon="-0.5810920">
    <ele>54.3</ele>
    <time>2020-04-06T16:28:41Z</time>
   </trkpt>
   <trkpt lat="51.1206360" lon="-0.5811410">
    <ele>54.2</ele>
    <time>2020-04-06T16:28:43Z</time>
   </trkpt>
   <trkpt lat="51.1206400" lon="-0.5811880">
    <ele>54.1</ele>
    <time>2020-04-06T16:28:44Z</time>
   </trkpt>
   <trkpt lat="51.1206440" lon="-0.5812390">
    <ele>54.0</ele>
    <time>2020-04-06T16:28:45Z</time>
   </trkpt>
   <trkpt lat="51.1206470" lon="-0.5812850">
    <ele>53.9</ele>
    <time>2020-04-06T16:28:46Z</time>
   </trkpt>
   <trkpt lat="51.1206510" lon="-0.5813320">
    <ele>53.8</ele>
    <time>2020-04-06T16:28:47Z</time>
   </trkpt>
   <trkpt lat="51.1206550" lon="-0.5813740">
    <ele>53.7</ele>
    <time>2020-04-06T16:28:48Z</time>
   </trkpt>
   <trkpt lat="51.1206630" lon="-0.5814360">
    <ele>53.6</ele>
    <time>2020-04-06T16:28:49Z</time>
   </trkpt>
   <trkpt lat="51.1206650" lon="-0.5814580">
    <ele>53.5</ele>
    <time>2020-04-06T16:28:50Z</time>
   </trkpt>
   <trkpt lat="51.1206740" lon="-0.5815370">
    <ele>53.3</ele>
    <time>2020-04-06T16:28:52Z</time>
   </trkpt>
   <trkpt lat="51.1206770" lon="-0.5815660">
    <ele>53.2</ele>
    <time>2020-04-06T16:28:53Z</time>
   </trkpt>
   <trkpt lat="51.1206790" lon="-0.5815950">
    <ele>53.1</ele>
    <time>2020-04-06T16:28:54Z</time>
   </trkpt>
   <trkpt lat="51.1206820" lon="-0.5816540">
    <ele>52.9</ele>
    <time>2020-04-06T16:28:55Z</time>
   </trkpt>
   <trkpt lat="51.1206820" lon="-0.5816750">
    <ele>52.9</ele>
    <time>2020-04-06T16:28:56Z</time>
   </trkpt>
   <trkpt lat="51.1206850" lon="-0.5817330">
    <ele>52.6</ele>
    <time>2020-04-06T16:28:58Z</time>
   </trkpt>
   <trkpt lat="51.1206900" lon="-0.5818000">
    <ele>52.4</ele>
    <time>2020-04-06T16:28:59Z</time>
   </trkpt>
   <trkpt lat="51.1206910" lon="-0.5818250">
    <ele>52.3</ele>
    <time>2020-04-06T16:29:00Z</time>
   </trkpt>
   <trkpt lat="51.1206950" lon="-0.5818700">
    <ele>52.1</ele>
    <time>2020-04-06T16:29:01Z</time>
   </trkpt>
   <trkpt lat="51.1206960" lon="-0.5819170">
    <ele>51.9</ele>
    <time>2020-04-06T16:29:02Z</time>
   </trkpt>
   <trkpt lat="51.1207020" lon="-0.5819620">
    <ele>51.7</ele>
    <time>2020-04-06T16:29:03Z</time>
   </trkpt>
   <trkpt lat="51.1207090" lon="-0.5820050">
    <ele>51.5</ele>
    <time>2020-04-06T16:29:04Z</time>
   </trkpt>
   <trkpt lat="51.1207200" lon="-0.5820610">
    <ele>51.3</ele>
    <time>2020-04-06T16:29:06Z</time>
   </trkpt>
   <trkpt lat="51.1207280" lon="-0.5821070">
    <ele>51.0</ele>
    <time>2020-04-06T16:29:07Z</time>
   </trkpt>
   <trkpt lat="51.1207350" lon="-0.5821570">
    <ele>50.8</ele>
    <time>2020-04-06T16:29:08Z</time>
   </trkpt>
   <trkpt lat="51.1207400" lon="-0.5822120">
    <ele>50.7</ele>
    <time>2020-04-06T16:29:09Z</time>
   </trkpt>
   <trkpt lat="51.1207390" lon="-0.5822600">
    <ele>50.6</ele>
    <time>2020-04-06T16:29:10Z</time>
   </trkpt>
   <trkpt lat="51.1207320" lon="-0.5823220">
    <ele>50.6</ele>
    <time>2020-04-06T16:29:11Z</time>
   </trkpt>
   <trkpt lat="51.1207270" lon="-0.5823430">
    <ele>50.6</ele>
    <time>2020-04-06T16:29:12Z</time>
   </trkpt>
   <trkpt lat="51.1207010" lon="-0.5823940">
    <ele>50.5</ele>
    <time>2020-04-06T16:29:14Z</time>
   </trkpt>
   <trkpt lat="51.1206740" lon="-0.5824300">
    <ele>50.5</ele>
    <time>2020-04-06T16:29:15Z</time>
   </trkpt>
   <trkpt lat="51.1206360" lon="-0.5824650">
    <ele>50.4</ele>
    <time>2020-04-06T16:29:16Z</time>
   </trkpt>
   <trkpt lat="51.1205900" lon="-0.5824950">
    <ele>50.3</ele>
    <time>2020-04-06T16:29:18Z</time>
   </trkpt>
   <trkpt lat="51.1205580" lon="-0.5825160">
    <ele>50.2</ele>
    <time>2020-04-06T16:29:19Z</time>
   </trkpt>
   <trkpt lat="51.1205280" lon="-0.5825320">
    <ele>50.1</ele>
    <time>2020-04-06T16:29:20Z</time>
   </trkpt>
   <trkpt lat="51.1205050" lon="-0.5825420">
    <ele>50.0</ele>
    <time>2020-04-06T16:29:21Z</time>
   </trkpt>
   <trkpt lat="51.1204600" lon="-0.5825640">
    <ele>49.8</ele>
    <time>2020-04-06T16:29:23Z</time>
   </trkpt>
   <trkpt lat="51.1204080" lon="-0.5825810">
    <ele>49.7</ele>
    <time>2020-04-06T16:29:25Z</time>
   </trkpt>
   <trkpt lat="51.1203550" lon="-0.5826020">
    <ele>49.5</ele>
    <time>2020-04-06T16:29:27Z</time>
   </trkpt>
   <trkpt lat="51.1203220" lon="-0.5826110">
    <ele>49.4</ele>
    <time>2020-04-06T16:29:28Z</time>
   </trkpt>
   <trkpt lat="51.1202950" lon="-0.5826240">
    <ele>49.4</ele>
    <time>2020-04-06T16:29:29Z</time>
   </trkpt>
   <trkpt lat="51.1202660" lon="-0.5826320">
    <ele>49.3</ele>
    <time>2020-04-06T16:29:31Z</time>
   </trkpt>
   <trkpt lat="51.1202340" lon="-0.5826410">
    <ele>49.2</ele>
    <time>2020-04-06T16:29:32Z</time>
   </trkpt>
   <trkpt lat="51.1202060" lon="-0.5826450">
    <ele>49.2</ele>
    <time>2020-04-06T16:29:33Z</time>
   </trkpt>
   <trkpt lat="51.1201760" lon="-0.5826480">
    <ele>49.1</ele>
    <time>2020-04-06T16:29:34Z</time>
   </trkpt>
   <trkpt lat="51.1201460" lon="-0.5826490">
    <ele>49.1</ele>
    <time>2020-04-06T16:29:35Z</time>
   </trkpt>
   <trkpt lat="51.1201130" lon="-0.5826530">
    <ele>49.0</ele>
    <time>2020-04-06T16:29:37Z</time>
   </trkpt>
   <trkpt lat="51.1200840" lon="-0.5826630">
    <ele>48.9</ele>
    <time>2020-04-06T16:29:38Z</time>
   </trkpt>
   <trkpt lat="51.1200570" lon="-0.5826770">
    <ele>48.8</ele>
    <time>2020-04-06T16:29:39Z</time>
   </trkpt>
   <trkpt lat="51.1200290" lon="-0.5826950">
    <ele>48.8</ele>
    <time>2020-04-06T16:29:40Z</time>
   </trkpt>
   <trkpt lat="51.1200220" lon="-0.5827170">
    <ele>48.7</ele>
    <time>2020-04-06T16:29:41Z</time>
   </trkpt>
   <trkpt lat="51.1200190" lon="-0.5827330">
    <ele>48.7</ele>
    <time>2020-04-06T16:29:42Z</time>
   </trkpt>
   <trkpt lat="51.1200340" lon="-0.5827310">
    <ele>48.7</ele>
    <time>2020-04-06T16:29:43Z</time>
   </trkpt>
   <trkpt lat="51.1200590" lon="-0.5827210">
    <ele>48.6</ele>
    <time>2020-04-06T16:29:44Z</time>
   </trkpt>
   <trkpt lat="51.1200880" lon="-0.5826990">
    <ele>48.7</ele>
    <time>2020-04-06T16:29:46Z</time>
   </trkpt>
   <trkpt lat="51.1201180" lon="-0.5826810">
    <ele>48.8</ele>
    <time>2020-04-06T16:29:47Z</time>
   </trkpt>
   <trkpt lat="51.1201440" lon="-0.5826670">
    <ele>48.9</ele>
    <time>2020-04-06T16:29:48Z</time>
   </trkpt>
   <trkpt lat="51.1201750" lon="-0.5826530">
    <ele>49.0</ele>
    <time>2020-04-06T16:29:49Z</time>
   </trkpt>
   <trkpt lat="51.1202060" lon="-0.5826380">
    <ele>49.1</ele>
    <time>2020-04-06T16:29:50Z</time>
   </trkpt>
   <trkpt lat="51.1202390" lon="-0.5826240">
    <ele>49.1</ele>
    <time>2020-04-06T16:29:51Z</time>
   </trkpt>
   <trkpt lat="51.1202690" lon="-0.5826130">
    <ele>49.2</ele>
    <time>2020-04-06T16:29:52Z</time>
   </trkpt>
   <trkpt lat="51.1203200" lon="-0.5825940">
    <ele>49.3</ele>
    <time>2020-04-06T16:29:54Z</time>
   </trkpt>
   <trkpt lat="51.1203500" lon="-0.5825820">
    <ele>49.4</ele>
    <time>2020-04-06T16:29:55Z</time>
   </trkpt>
   <trkpt lat="51.1203800" lon="-0.5825680">
    <ele>49.5</ele>
    <time>2020-04-06T16:29:56Z</time>
   </trkpt>
   <trkpt lat="51.1204090" lon="-0.5825540">
    <ele>49.6</ele>
    <time>2020-04-06T16:29:57Z</time>
   </trkpt>
   <trkpt lat="51.1204420" lon="-0.5825350">
    <ele>49.7</ele>
    <time>2020-04-06T16:29:59Z</time>
   </trkpt>
   <trkpt lat="51.1204720" lon="-0.5825190">
    <ele>49.8</ele>
    <time>2020-04-06T16:30:00Z</time>
   </trkpt>
   <trkpt lat="51.1205020" lon="-0.5825020">
    <ele>50.0</ele>
    <time>2020-04-06T16:30:01Z</time>
   </trkpt>
   <trkpt lat="51.1205340" lon="-0.5824790">
    <ele>50.1</ele>
    <time>2020-04-06T16:30:02Z</time>
   </trkpt>
   <trkpt lat="51.1205610" lon="-0.5824590">
    <ele>50.2</ele>
    <time>2020-04-06T16:30:03Z</time>
   </trkpt>
   <trkpt lat="51.1205860" lon="-0.5824390">
    <ele>50.3</ele>
    <time>2020-04-06T16:30:04Z</time>
   </trkpt>
   <trkpt lat="51.1206210" lon="-0.5824090">
    <ele>50.5</ele>
    <time>2020-04-06T16:30:06Z</time>
   </trkpt>
   <trkpt lat="51.1206450" lon="-0.5823840">
    <ele>50.5</ele>
    <time>2020-04-06T16:30:07Z</time>
   </trkpt>
   <trkpt lat="51.1206680" lon="-0.5823560">
    <ele>50.5</ele>
    <time>2020-04-06T16:30:08Z</time>
   </trkpt>
   <trkpt lat="51.1206930" lon="-0.5823250">
    <ele>50.6</ele>
    <time>2020-04-06T16:30:09Z</time>
   </trkpt>
   <trkpt lat="51.1207130" lon="-0.5822890">
    <ele>50.6</ele>
    <time>2020-04-06T16:30:10Z</time>
   </trkpt>
   <trkpt lat="51.1207280" lon="-0.5822500">
    <ele>50.6</ele>
    <time>2020-04-06T16:30:12Z</time>
   </trkpt>
   <trkpt lat="51.1207390" lon="-0.5822080">
    <ele>50.6</ele>
    <time>2020-04-06T16:30:13Z</time>
   </trkpt>
   <trkpt lat="51.1207450" lon="-0.5821620">
    <ele>50.7</ele>
    <time>2020-04-06T16:30:14Z</time>
   </trkpt>
   <trkpt lat="51.1207480" lon="-0.5821110">
    <ele>51.0</ele>
    <time>2020-04-06T16:30:15Z</time>
   </trkpt>
   <trkpt lat="51.1207470" lon="-0.5820660">
    <ele>51.2</ele>
    <time>2020-04-06T16:30:16Z</time>
   </trkpt>
   <trkpt lat="51.1207420" lon="-0.5820200">
    <ele>51.4</ele>
    <time>2020-04-06T16:30:17Z</time>
   </trkpt>
   <trkpt lat="51.1207350" lon="-0.5819750">
    <ele>51.6</ele>
    <time>2020-04-06T16:30:18Z</time>
   </trkpt>
   <trkpt lat="51.1207240" lon="-0.5819260">
    <ele>51.8</ele>
    <time>2020-04-06T16:30:20Z</time>
   </trkpt>
   <trkpt lat="51.1207150" lon="-0.5818790">
    <ele>52.0</ele>
    <time>2020-04-06T16:30:21Z</time>
   </trkpt>
   <trkpt lat="51.1207090" lon="-0.5818320">
    <ele>52.2</ele>
    <time>2020-04-06T16:30:22Z</time>
   </trkpt>
   <trkpt lat="51.1207040" lon="-0.5817820">
    <ele>52.4</ele>
    <time>2020-04-06T16:30:23Z</time>
   </trkpt>
   <trkpt lat="51.1206960" lon="-0.5817320">
    <ele>52.6</ele>
    <time>2020-04-06T16:30:24Z</time>
   </trkpt>
   <trkpt lat="51.1206890" lon="-0.5816840">
    <ele>52.8</ele>
    <time>2020-04-06T16:30:25Z</time>
   </trkpt>
   <trkpt lat="51.1206830" lon="-0.5816310">
    <ele>53.0</ele>
    <time>2020-04-06T16:30:26Z</time>
   </trkpt>
   <trkpt lat="51.1206780" lon="-0.5815810">
    <ele>53.2</ele>
    <time>2020-04-06T16:30:28Z</time>
   </trkpt>
   <trkpt lat="51.1206760" lon="-0.5815310">
    <ele>53.3</ele>
    <time>2020-04-06T16:30:29Z</time>
   </trkpt>
   <trkpt lat="51.1206730" lon="-0.5814820">
    <ele>53.4</ele>
    <time>2020-04-06T16:30:30Z</time>
   </trkpt>
   <trkpt lat="51.1206710" lon="-0.5814340">
    <ele>53.6</ele>
    <time>2020-04-06T16:30:31Z</time>
   </trkpt>
   <trkpt lat="51.1206680" lon="-0.5813680">
    <ele>53.7</ele>
    <time>2020-04-06T16:30:32Z</time>
   </trkpt>
   <trkpt lat="51.1206660" lon="-0.5813440">
    <ele>53.8</ele>
    <time>2020-04-06T16:30:33Z</time>
   </trkpt>
   <trkpt lat="51.1206630" lon="-0.5812990">
    <ele>53.8</ele>
    <time>2020-04-06T16:30:34Z</time>
   </trkpt>
   <trkpt lat="51.1206630" lon="-0.5812550">
    <ele>53.9</ele>
    <time>2020-04-06T16:30:35Z</time>
   </trkpt>
   <trkpt lat="51.1206640" lon="-0.5812030">
    <ele>54.0</ele>
    <time>2020-04-06T16:30:37Z</time>
   </trkpt>
   <trkpt lat="51.1206640" lon="-0.5811570">
    <ele>54.1</ele>
    <time>2020-04-06T16:30:38Z</time>
   </trkpt>
   <trkpt lat="51.1206620" lon="-0.5811140">
    <ele>54.2</ele>
    <time>2020-04-06T16:30:39Z</time>
   </trkpt>
   <trkpt lat="51.1206570" lon="-0.5810710">
    <ele>54.3</ele>
    <time>2020-04-06T16:30:40Z</time>
   </trkpt>
   <trkpt lat="51.1206490" lon="-0.5810100">
    <ele>54.4</ele>
    <time>2020-04-06T16:30:41Z</time>
   </trkpt>
   <trkpt lat="51.1206450" lon="-0.5809890">
    <ele>54.4</ele>
    <time>2020-04-06T16:30:42Z</time>
   </trkpt>
   <trkpt lat="51.1206410" lon="-0.5809480">
    <ele>54.5</ele>
    <time>2020-04-06T16:30:43Z</time>
   </trkpt>
   <trkpt lat="51.1206400" lon="-0.5809040">
    <ele>54.6</ele>
    <time>2020-04-06T16:30:45Z</time>
   </trkpt>
   <trkpt lat="51.1206360" lon="-0.5808420">
    <ele>54.6</ele>
    <time>2020-04-06T16:30:46Z</time>
   </trkpt>
   <trkpt lat="51.1206350" lon="-0.5808210">
    <ele>54.7</ele>
    <time>2020-04-06T16:30:47Z</time>
   </trkpt>
   <trkpt lat="51.1206290" lon="-0.5807590">
    <ele>54.7</ele>
    <time>2020-04-06T16:30:48Z</time>
   </trkpt>
   <trkpt lat="51.1206270" lon="-0.5807380">
    <ele>54.7</ele>
    <time>2020-04-06T16:30:49Z</time>
   </trkpt>
   <trkpt lat="51.1206210" lon="-0.5806930">
    <ele>54.7</ele>
    <time>2020-04-06T16:30:50Z</time>
   </trkpt>
   <trkpt lat="51.1206160" lon="-0.5806270">
    <ele>54.8</ele>
    <time>2020-04-06T16:30:52Z</time>
   </trkpt>
   <trkpt lat="51.1206120" lon="-0.5805760">
    <ele>54.8</ele>
    <time>2020-04-06T16:30:53Z</time>
   </trkpt>
   <trkpt lat="51.1206080" lon="-0.5805230">
    <ele>54.8</ele>
    <time>2020-04-06T16:30:54Z</time>
   </trkpt>
   <trkpt lat="51.1206040" lon="-0.5804690">
    <ele>54.9</ele>
    <time>2020-04-06T16:30:55Z</time>
   </trkpt>
   <trkpt lat="51.1205990" lon="-0.5804160">
    <ele>54.9</ele>
    <time>2020-04-06T16:30:57Z</time>
   </trkpt>
   <trkpt lat="51.1205940" lon="-0.5803560">
    <ele>54.9</ele>
    <time>2020-04-06T16:30:58Z</time>
   </trkpt>
   <trkpt lat="51.1205890" lon="-0.5803040">
    <ele>55.0</ele>
    <time>2020-04-06T16:30:59Z</time>
   </trkpt>
   <trkpt lat="51.1205830" lon="-0.5802490">
    <ele>55.1</ele>
    <time>2020-04-06T16:31:00Z</time>
   </trkpt>
   <trkpt lat="51.1205790" lon="-0.5801990">
    <ele>55.1</ele>
    <time>2020-04-06T16:31:01Z</time>
   </trkpt>
   <trkpt lat="51.1205740" lon="-0.5801470">
    <ele>55.2</ele>
    <time>2020-04-06T16:31:02Z</time>
   </trkpt>
   <trkpt lat="51.1205700" lon="-0.5800950">
    <ele>55.2</ele>
    <time>2020-04-06T16:31:03Z</time>
   </trkpt>
   <trkpt lat="51.1205690" lon="-0.5800400">
    <ele>55.3</ele>
    <time>2020-04-06T16:31:05Z</time>
   </trkpt>
   <trkpt lat="51.1205650" lon="-0.5799870">
    <ele>55.3</ele>
    <time>2020-04-06T16:31:06Z</time>
   </trkpt>
   <trkpt lat="51.1205600" lon="-0.5799290">
    <ele>55.4</ele>
    <time>2020-04-06T16:31:07Z</time>
   </trkpt>
   <trkpt lat="51.1205580" lon="-0.5798730">
    <ele>55.4</ele>
    <time>2020-04-06T16:31:08Z</time>
   </trkpt>
   <trkpt lat="51.1205560" lon="-0.5798230">
    <ele>55.4</ele>
    <time>2020-04-06T16:31:09Z</time>
   </trkpt>
   <trkpt lat="51.1205530" lon="-0.5797790">
    <ele>55.5</ele>
    <time>2020-04-06T16:31:10Z</time>
   </trkpt>
   <trkpt lat="51.1205500" lon="-0.5797330">
    <ele>55.5</ele>
    <time>2020-04-06T16:31:11Z</time>
   </trkpt>
   <trkpt lat="51.1205470" lon="-0.5796860">
    <ele>55.5</ele>
    <time>2020-04-06T16:31:13Z</time>
   </trkpt>
   <trkpt lat="51.1205430" lon="-0.5796420">
    <ele>55.6</ele>
    <time>2020-04-06T16:31:14Z</time>
   </trkpt>
   <trkpt lat="51.1205390" lon="-0.5795970">
    <ele>55.6</ele>
    <time>2020-04-06T16:31:15Z</time>
   </trkpt>
   <trkpt lat="51.1205340" lon="-0.5795500">
    <ele>55.7</ele>
    <time>2020-04-06T16:31:16Z</time>
   </trkpt>
   <trkpt lat="51.1205290" lon="-0.5795070">
    <ele>55.8</ele>
    <time>2020-04-06T16:31:17Z</time>
   </trkpt>
   <trkpt lat="51.1205240" lon="-0.5794620">
    <ele>55.9</ele>
    <time>2020-04-06T16:31:18Z</time>
   </trkpt>
   <trkpt lat="51.1205170" lon="-0.5794220">
    <ele>56.0</ele>
    <time>2020-04-06T16:31:19Z</time>
   </trkpt>
   <trkpt lat="51.1205050" lon="-0.5793660">
    <ele>56.1</ele>
    <time>2020-04-06T16:31:21Z</time>
   </trkpt>
   <trkpt lat="51.1204910" lon="-0.5793040">
    <ele>56.3</ele>
    <time>2020-04-06T16:31:22Z</time>
   </trkpt>
   <trkpt lat="51.1204870" lon="-0.5792820">
    <ele>56.3</ele>
    <time>2020-04-06T16:31:23Z</time>
   </trkpt>
   <trkpt lat="51.1204790" lon="-0.5792410">
    <ele>56.4</ele>
    <time>2020-04-06T16:31:24Z</time>
   </trkpt>
   <trkpt lat="51.1204720" lon="-0.5791920">
    <ele>56.5</ele>
    <time>2020-04-06T16:31:25Z</time>
   </trkpt>
   <trkpt lat="51.1204650" lon="-0.5791310">
    <ele>56.7</ele>
    <time>2020-04-06T16:31:26Z</time>
   </trkpt>
   <trkpt lat="51.1204630" lon="-0.5791120">
    <ele>56.8</ele>
    <time>2020-04-06T16:31:27Z</time>
   </trkpt>
   <trkpt lat="51.1204530" lon="-0.5790370">
    <ele>56.9</ele>
    <time>2020-04-06T16:31:29Z</time>
   </trkpt>
   <trkpt lat="51.1204500" lon="-0.5790100">
    <ele>57.0</ele>
    <time>2020-04-06T16:31:30Z</time>
   </trkpt>
   <trkpt lat="51.1204460" lon="-0.5789820">
    <ele>57.0</ele>
    <time>2020-04-06T16:31:31Z</time>
   </trkpt>
   <trkpt lat="51.1204400" lon="-0.5789380">
    <ele>57.1</ele>
    <time>2020-04-06T16:31:32Z</time>
   </trkpt>
   <trkpt lat="51.1204330" lon="-0.5788950">
    <ele>57.2</ele>
    <time>2020-04-06T16:31:33Z</time>
   </trkpt>
   <trkpt lat="51.1204290" lon="-0.5788540">
    <ele>57.4</ele>
    <time>2020-04-06T16:31:34Z</time>
   </trkpt>
   <trkpt lat="51.1204210" lon="-0.5787870">
    <ele>57.6</ele>
    <time>2020-04-06T16:31:36Z</time>
   </trkpt>
   <trkpt lat="51.1204160" lon="-0.5787430">
    <ele>57.7</ele>
    <time>2020-04-06T16:31:37Z</time>
   </trkpt>
   <trkpt lat="51.1204090" lon="-0.5786970">
    <ele>57.8</ele>
    <time>2020-04-06T16:31:38Z</time>
   </trkpt>
   <trkpt lat="51.1204030" lon="-0.5786560">
    <ele>57.9</ele>
    <time>2020-04-06T16:31:39Z</time>
   </trkpt>
   <trkpt lat="51.1203940" lon="-0.5785910">
    <ele>58.0</ele>
    <time>2020-04-06T16:31:41Z</time>
   </trkpt>
   <trkpt lat="51.1203860" lon="-0.5785300">
    <ele>58.2</ele>
    <time>2020-04-06T16:31:42Z</time>
   </trkpt>
   <trkpt lat="51.1203830" lon="-0.5785100">
    <ele>58.2</ele>
    <time>2020-04-06T16:31:43Z</time>
   </trkpt>
   <trkpt lat="51.1203770" lon="-0.5784720">
    <ele>58.7</ele>
    <time>2020-04-06T16:31:44Z</time>
   </trkpt>
   <trkpt lat="51.1203690" lon="-0.5784250">
    <ele>58.8</ele>
    <time>2020-04-06T16:31:46Z</time>
   </trkpt>
   <trkpt lat="51.1203660" lon="-0.5783770">
    <ele>59.0</ele>
    <time>2020-04-06T16:31:47Z</time>
   </trkpt>
   <trkpt lat="51.1203650" lon="-0.5783320">
    <ele>59.1</ele>
    <time>2020-04-06T16:31:48Z</time>
   </trkpt>
   <trkpt lat="51.1203660" lon="-0.5782850">
    <ele>59.2</ele>
    <time>2020-04-06T16:31:49Z</time>
   </trkpt>
   <trkpt lat="51.1203670" lon="-0.5782420">
    <ele>59.3</ele>
    <time>2020-04-06T16:31:50Z</time>
   </trkpt>
   <trkpt lat="51.1203690" lon="-0.5781960">
    <ele>59.4</ele>
    <time>2020-04-06T16:31:51Z</time>
   </trkpt>
   <trkpt lat="51.1203700" lon="-0.5781560">
    <ele>59.6</ele>
    <time>2020-04-06T16:31:52Z</time>
   </trkpt>
   <trkpt lat="51.1203700" lon="-0.5781020">
    <ele>59.7</ele>
    <time>2020-04-06T16:31:54Z</time>
   </trkpt>
   <trkpt lat="51.1203720" lon="-0.5780400">
    <ele>59.8</ele>
    <time>2020-04-06T16:31:55Z</time>
   </trkpt>
   <trkpt lat="51.1203720" lon="-0.5780180">
    <ele>59.9</ele>
    <time>2020-04-06T16:31:56Z</time>
   </trkpt>
   <trkpt lat="51.1203740" lon="-0.5779570">
    <ele>60.0</ele>
    <time>2020-04-06T16:31:57Z</time>
   </trkpt>
   <trkpt lat="51.1203740" lon="-0.5779360">
    <ele>60.1</ele>
    <time>2020-04-06T16:31:58Z</time>
   </trkpt>
   <trkpt lat="51.1203760" lon="-0.5778950">
    <ele>60.2</ele>
    <time>2020-04-06T16:31:59Z</time>
   </trkpt>
   <trkpt lat="51.1203760" lon="-0.5778360">
    <ele>60.3</ele>
    <time>2020-04-06T16:32:01Z</time>
   </trkpt>
   <trkpt lat="51.1203760" lon="-0.5777920">
    <ele>60.5</ele>
    <time>2020-04-06T16:32:02Z</time>
   </trkpt>
   <trkpt lat="51.1203730" lon="-0.5777290">
    <ele>60.6</ele>
    <time>2020-04-06T16:32:03Z</time>
   </trkpt>
   <trkpt lat="51.1203710" lon="-0.5777070">
    <ele>60.7</ele>
    <time>2020-04-06T16:32:04Z</time>
   </trkpt>
   <trkpt lat="51.1203640" lon="-0.5776440">
    <ele>60.9</ele>
    <time>2020-04-06T16:32:06Z</time>
   </trkpt>
   <trkpt lat="51.1203620" lon="-0.5776220">
    <ele>60.9</ele>
    <time>2020-04-06T16:32:07Z</time>
   </trkpt>
   <trkpt lat="51.1203560" lon="-0.5775790">
    <ele>61.1</ele>
    <time>2020-04-06T16:32:08Z</time>
   </trkpt>
   <trkpt lat="51.1203510" lon="-0.5775360">
    <ele>61.2</ele>
    <time>2020-04-06T16:32:09Z</time>
   </trkpt>
   <trkpt lat="51.1203480" lon="-0.5774930">
    <ele>61.4</ele>
    <time>2020-04-06T16:32:10Z</time>
   </trkpt>
   <trkpt lat="51.1203470" lon="-0.5774500">
    <ele>61.5</ele>
    <time>2020-04-06T16:32:11Z</time>
   </trkpt>
   <trkpt lat="51.1203480" lon="-0.5774040">
    <ele>61.7</ele>
    <time>2020-04-06T16:32:12Z</time>
   </trkpt>
   <trkpt lat="51.1203480" lon="-0.5773600">
    <ele>61.9</ele>
    <time>2020-04-06T16:32:14Z</time>
   </trkpt>
   <trkpt lat="51.1203480" lon="-0.5773140">
    <ele>62.0</ele>
    <time>2020-04-06T16:32:15Z</time>
   </trkpt>
   <trkpt lat="51.1203480" lon="-0.5772670">
    <ele>62.2</ele>
    <time>2020-04-06T16:32:16Z</time>
   </trkpt>
   <trkpt lat="51.1203490" lon="-0.5772170">
    <ele>62.4</ele>
    <time>2020-04-06T16:32:17Z</time>
   </trkpt>
   <trkpt lat="51.1203480" lon="-0.5771730">
    <ele>62.5</ele>
    <time>2020-04-06T16:32:18Z</time>
   </trkpt>
   <trkpt lat="51.1203490" lon="-0.5771290">
    <ele>62.7</ele>
    <time>2020-04-06T16:32:19Z</time>
   </trkpt>
   <trkpt lat="51.1203560" lon="-0.5770700">
    <ele>62.8</ele>
    <time>2020-04-06T16:32:20Z</time>
   </trkpt>
   <trkpt lat="51.1203580" lon="-0.5770500">
    <ele>62.9</ele>
    <time>2020-04-06T16:32:21Z</time>
   </trkpt>
   <trkpt lat="51.1203670" lon="-0.5769780">
    <ele>63.1</ele>
    <time>2020-04-06T16:32:23Z</time>
   </trkpt>
   <trkpt lat="51.1203700" lon="-0.5769510">
    <ele>63.2</ele>
    <time>2020-04-06T16:32:24Z</time>
   </trkpt>
   <trkpt lat="51.1203720" lon="-0.5769250">
    <ele>63.3</ele>
    <time>2020-04-06T16:32:25Z</time>
   </trkpt>
   <trkpt lat="51.1203740" lon="-0.5768980">
    <ele>63.4</ele>
    <time>2020-04-06T16:32:26Z</time>
   </trkpt>
   <trkpt lat="51.1203780" lon="-0.5768620">
    <ele>63.5</ele>
    <time>2020-04-06T16:32:28Z</time>
   </trkpt>
   <trkpt lat="51.1203850" lon="-0.5768030">
    <ele>63.6</ele>
    <time>2020-04-06T16:32:29Z</time>
   </trkpt>
   <trkpt lat="51.1203880" lon="-0.5767830">
    <ele>63.7</ele>
    <time>2020-04-06T16:32:30Z</time>
   </trkpt>
   <trkpt lat="51.1203960" lon="-0.5767410">
    <ele>63.8</ele>
    <time>2020-04-06T16:32:31Z</time>
   </trkpt>
   <trkpt lat="51.1204080" lon="-0.5766850">
    <ele>64.0</ele>
    <time>2020-04-06T16:32:32Z</time>
   </trkpt>
   <trkpt lat="51.1204120" lon="-0.5766660">
    <ele>64.0</ele>
    <time>2020-04-06T16:32:33Z</time>
   </trkpt>
   <trkpt lat="51.1204210" lon="-0.5766270">
    <ele>64.1</ele>
    <time>2020-04-06T16:32:34Z</time>
   </trkpt>
   <trkpt lat="51.1204330" lon="-0.5765910">
    <ele>64.2</ele>
    <time>2020-04-06T16:32:36Z</time>
   </trkpt>
   <trkpt lat="51.1204490" lon="-0.5765380">
    <ele>64.3</ele>
    <time>2020-04-06T16:32:37Z</time>
   </trkpt>
   <trkpt lat="51.1204530" lon="-0.5765220">
    <ele>64.4</ele>
    <time>2020-04-06T16:32:38Z</time>
   </trkpt>
   <trkpt lat="51.1204630" lon="-0.5764840">
    <ele>64.5</ele>
    <time>2020-04-06T16:32:39Z</time>
   </trkpt>
   <trkpt lat="51.1204750" lon="-0.5764280">
    <ele>64.6</ele>
    <time>2020-04-06T16:32:41Z</time>
   </trkpt>
   <trkpt lat="51.1204890" lon="-0.5763740">
    <ele>64.7</ele>
    <time>2020-04-06T16:32:42Z</time>
   </trkpt>
   <trkpt lat="51.1204930" lon="-0.5763570">
    <ele>64.7</ele>
    <time>2020-04-06T16:32:43Z</time>
   </trkpt>
   <trkpt lat="51.1205090" lon="-0.5763030">
    <ele>64.8</ele>
    <time>2020-04-06T16:32:44Z</time>
   </trkpt>
   <trkpt lat="51.1205140" lon="-0.5762830">
    <ele>64.8</ele>
    <time>2020-04-06T16:32:45Z</time>
   </trkpt>
   <trkpt lat="51.1205260" lon="-0.5762510">
    <ele>64.8</ele>
    <time>2020-04-06T16:32:46Z</time>
   </trkpt>
   <trkpt lat="51.1205420" lon="-0.5762030">
    <ele>64.9</ele>
    <time>2020-04-06T16:32:48Z</time>
   </trkpt>
   <trkpt lat="51.1205580" lon="-0.5761530">
    <ele>64.9</ele>
    <time>2020-04-06T16:32:49Z</time>
   </trkpt>
   <trkpt lat="51.1205620" lon="-0.5761350">
    <ele>64.9</ele>
    <time>2020-04-06T16:32:50Z</time>
   </trkpt>
   <trkpt lat="51.1205780" lon="-0.5760800">
    <ele>64.9</ele>
    <time>2020-04-06T16:32:51Z</time>
   </trkpt>
   <trkpt lat="51.1205820" lon="-0.5760630">
    <ele>64.9</ele>
    <time>2020-04-06T16:32:52Z</time>
   </trkpt>
   <trkpt lat="51.1206020" lon="-0.5759940">
    <ele>64.9</ele>
    <time>2020-04-06T16:32:54Z</time>
   </trkpt>
   <trkpt lat="51.1206100" lon="-0.5759690">
    <ele>64.9</ele>
    <time>2020-04-06T16:32:55Z</time>
   </trkpt>
   <trkpt lat="51.1206180" lon="-0.5759440">
    <ele>64.9</ele>
    <time>2020-04-06T16:32:56Z</time>
   </trkpt>
   <trkpt lat="51.1206350" lon="-0.5758880">
    <ele>64.9</ele>
    <time>2020-04-06T16:32:57Z</time>
   </trkpt>
   <trkpt lat="51.1206400" lon="-0.5758680">
    <ele>64.9</ele>
    <time>2020-04-06T16:32:58Z</time>
   </trkpt>
   <trkpt lat="51.1206500" lon="-0.5758320">
    <ele>64.9</ele>
    <time>2020-04-06T16:32:59Z</time>
   </trkpt>
   <trkpt lat="51.1206660" lon="-0.5757740">
    <ele>64.8</ele>
    <time>2020-04-06T16:33:01Z</time>
   </trkpt>
   <trkpt lat="51.1206780" lon="-0.5757150">
    <ele>64.7</ele>
    <time>2020-04-06T16:33:02Z</time>
   </trkpt>
   <trkpt lat="51.1206820" lon="-0.5756940">
    <ele>64.7</ele>
    <time>2020-04-06T16:33:03Z</time>
   </trkpt>
   <trkpt lat="51.1206890" lon="-0.5756420">
    <ele>64.7</ele>
    <time>2020-04-06T16:33:04Z</time>
   </trkpt>
   <trkpt lat="51.1206930" lon="-0.5756260">
    <ele>64.6</ele>
    <time>2020-04-06T16:33:05Z</time>
   </trkpt>
   <trkpt lat="51.1207010" lon="-0.5755760">
    <ele>64.6</ele>
    <time>2020-04-06T16:33:07Z</time>
   </trkpt>
   <trkpt lat="51.1207080" lon="-0.5755300">
    <ele>64.5</ele>
    <time>2020-04-06T16:33:08Z</time>
   </trkpt>
   <trkpt lat="51.1207120" lon="-0.5754860">
    <ele>64.5</ele>
    <time>2020-04-06T16:33:09Z</time>
   </trkpt>
   <trkpt lat="51.1207180" lon="-0.5754390">
    <ele>64.4</ele>
    <time>2020-04-06T16:33:10Z</time>
   </trkpt>
   <trkpt lat="51.1207230" lon="-0.5753930">
    <ele>64.3</ele>
    <time>2020-04-06T16:33:11Z</time>
   </trkpt>
   <trkpt lat="51.1207340" lon="-0.5753300">
    <ele>64.2</ele>
    <time>2020-04-06T16:33:13Z</time>
   </trkpt>
   <trkpt lat="51.1207420" lon="-0.5752770">
    <ele>64.1</ele>
    <time>2020-04-06T16:33:14Z</time>
   </trkpt>
   <trkpt lat="51.1207480" lon="-0.5752290">
    <ele>64.0</ele>
    <time>2020-04-06T16:33:15Z</time>
   </trkpt>
   <trkpt lat="51.1207540" lon="-0.5751790">
    <ele>63.9</ele>
    <time>2020-04-06T16:33:16Z</time>
   </trkpt>
   <trkpt lat="51.1207590" lon="-0.5751300">
    <ele>63.8</ele>
    <time>2020-04-06T16:33:17Z</time>
   </trkpt>
   <trkpt lat="51.1207620" lon="-0.5750720">
    <ele>63.7</ele>
    <time>2020-04-06T16:33:19Z</time>
   </trkpt>
   <trkpt lat="51.1207660" lon="-0.5750220">
    <ele>63.6</ele>
    <time>2020-04-06T16:33:20Z</time>
   </trkpt>
   <trkpt lat="51.1207700" lon="-0.5749680">
    <ele>63.5</ele>
    <time>2020-04-06T16:33:21Z</time>
   </trkpt>
   <trkpt lat="51.1207720" lon="-0.5749250">
    <ele>63.4</ele>
    <time>2020-04-06T16:33:22Z</time>
   </trkpt>
   <trkpt lat="51.1207790" lon="-0.5748620">
    <ele>63.3</ele>
    <time>2020-04-06T16:33:24Z</time>
   </trkpt>
   <trkpt lat="51.1207850" lon="-0.5748200">
    <ele>63.2</ele>
    <time>2020-04-06T16:33:25Z</time>
   </trkpt>
   <trkpt lat="51.1207890" lon="-0.5747730">
    <ele>63.1</ele>
    <time>2020-04-06T16:33:26Z</time>
   </trkpt>
   <trkpt lat="51.1207920" lon="-0.5747260">
    <ele>63.0</ele>
    <time>2020-04-06T16:33:27Z</time>
   </trkpt>
   <trkpt lat="51.1207960" lon="-0.5746740">
    <ele>62.9</ele>
    <time>2020-04-06T16:33:28Z</time>
   </trkpt>
   <trkpt lat="51.1207990" lon="-0.5746230">
    <ele>62.8</ele>
    <time>2020-04-06T16:33:29Z</time>
   </trkpt>
   <trkpt lat="51.1208040" lon="-0.5745750">
    <ele>62.7</ele>
    <time>2020-04-06T16:33:30Z</time>
   </trkpt>
   <trkpt lat="51.1208080" lon="-0.5744970">
    <ele>62.6</ele>
    <time>2020-04-06T16:33:32Z</time>
   </trkpt>
   <trkpt lat="51.1208120" lon="-0.5744450">
    <ele>62.5</ele>
    <time>2020-04-06T16:33:33Z</time>
   </trkpt>
   <trkpt lat="51.1208160" lon="-0.5743900">
    <ele>62.5</ele>
    <time>2020-04-06T16:33:34Z</time>
   </trkpt>
   <trkpt lat="51.1208220" lon="-0.5743360">
    <ele>62.4</ele>
    <time>2020-04-06T16:33:35Z</time>
   </trkpt>
   <trkpt lat="51.1208310" lon="-0.5742800">
    <ele>62.3</ele>
    <time>2020-04-06T16:33:37Z</time>
   </trkpt>
   <trkpt lat="51.1208410" lon="-0.5742260">
    <ele>62.2</ele>
    <time>2020-04-06T16:33:38Z</time>
   </trkpt>
   <trkpt lat="51.1208490" lon="-0.5741750">
    <ele>62.1</ele>
    <time>2020-04-06T16:33:39Z</time>
   </trkpt>
   <trkpt lat="51.1208560" lon="-0.5741250">
    <ele>62.0</ele>
    <time>2020-04-06T16:33:40Z</time>
   </trkpt>
   <trkpt lat="51.1208620" lon="-0.5740660">
    <ele>61.9</ele>
    <time>2020-04-06T16:33:41Z</time>
   </trkpt>
   <trkpt lat="51.1208680" lon="-0.5740150">
    <ele>61.8</ele>
    <time>2020-04-06T16:33:42Z</time>
   </trkpt>
   <trkpt lat="51.1208750" lon="-0.5739620">
    <ele>61.8</ele>
    <time>2020-04-06T16:33:43Z</time>
   </trkpt>
   <trkpt lat="51.1208810" lon="-0.5739140">
    <ele>61.7</ele>
    <time>2020-04-06T16:33:44Z</time>
   </trkpt>
   <trkpt lat="51.1208930" lon="-0.5738380">
    <ele>61.5</ele>
    <time>2020-04-06T16:33:46Z</time>
   </trkpt>
   <trkpt lat="51.1209000" lon="-0.5737880">
    <ele>61.4</ele>
    <time>2020-04-06T16:33:47Z</time>
   </trkpt>
   <trkpt lat="51.1209080" lon="-0.5737400">
    <ele>61.3</ele>
    <time>2020-04-06T16:33:48Z</time>
   </trkpt>
   <trkpt lat="51.1209170" lon="-0.5736870">
    <ele>61.2</ele>
    <time>2020-04-06T16:33:49Z</time>
   </trkpt>
   <trkpt lat="51.1209250" lon="-0.5736390">
    <ele>61.1</ele>
    <time>2020-04-06T16:33:51Z</time>
   </trkpt>
   <trkpt lat="51.1209350" lon="-0.5735920">
    <ele>61.0</ele>
    <time>2020-04-06T16:33:52Z</time>
   </trkpt>
   <trkpt lat="51.1209430" lon="-0.5735470">
    <ele>60.9</ele>
    <time>2020-04-06T16:33:53Z</time>
   </trkpt>
   <trkpt lat="51.1209510" lon="-0.5735040">
    <ele>60.8</ele>
    <time>2020-04-06T16:33:54Z</time>
   </trkpt>
   <trkpt lat="51.1209600" lon="-0.5734570">
    <ele>60.6</ele>
    <time>2020-04-06T16:33:55Z</time>
   </trkpt>
   <trkpt lat="51.1209670" lon="-0.5734090">
    <ele>60.5</ele>
    <time>2020-04-06T16:33:56Z</time>
   </trkpt>
   <trkpt lat="51.1209720" lon="-0.5733600">
    <ele>60.4</ele>
    <time>2020-04-06T16:33:57Z</time>
   </trkpt>
   <trkpt lat="51.1209780" lon="-0.5733190">
    <ele>60.3</ele>
    <time>2020-04-06T16:33:58Z</time>
   </trkpt>
   <trkpt lat="51.1209920" lon="-0.5732710">
    <ele>60.1</ele>
    <time>2020-04-06T16:34:00Z</time>
   </trkpt>
   <trkpt lat="51.1210040" lon="-0.5732280">
    <ele>59.9</ele>
    <time>2020-04-06T16:34:01Z</time>
   </trkpt>
   <trkpt lat="51.1210170" lon="-0.5731830">
    <ele>59.8</ele>
    <time>2020-04-06T16:34:02Z</time>
   </trkpt>
   <trkpt lat="51.1210260" lon="-0.5731380">
    <ele>59.6</ele>
    <time>2020-04-06T16:34:03Z</time>
   </trkpt>
   <trkpt lat="51.1210340" lon="-0.5730900">
    <ele>59.4</ele>
    <time>2020-04-06T16:34:04Z</time>
   </trkpt>
   <trkpt lat="51.1210440" lon="-0.5730320">
    <ele>59.2</ele>
    <time>2020-04-06T16:34:06Z</time>
   </trkpt>
   <trkpt lat="51.1210560" lon="-0.5729710">
    <ele>59.0</ele>
    <time>2020-04-06T16:34:07Z</time>
   </trkpt>
   <trkpt lat="51.1210590" lon="-0.5729500">
    <ele>58.9</ele>
    <time>2020-04-06T16:34:08Z</time>
   </trkpt>
   <trkpt lat="51.1210670" lon="-0.5729060">
    <ele>58.6</ele>
    <time>2020-04-06T16:34:09Z</time>
   </trkpt>
   <trkpt lat="51.1210780" lon="-0.5728500">
    <ele>58.4</ele>
    <time>2020-04-06T16:34:10Z</time>
   </trkpt>
   <trkpt lat="51.1210810" lon="-0.5728330">
    <ele>58.4</ele>
    <time>2020-04-06T16:34:11Z</time>
   </trkpt>
   <trkpt lat="51.1210920" lon="-0.5727690">
    <ele>58.2</ele>
    <time>2020-04-06T16:34:13Z</time>
   </trkpt>
   <trkpt lat="51.1211000" lon="-0.5727280">
    <ele>58.0</ele>
    <time>2020-04-06T16:34:14Z</time>
   </trkpt>
   <trkpt lat="51.1211120" lon="-0.5726730">
    <ele>57.8</ele>
    <time>2020-04-06T16:34:15Z</time>
   </trkpt>
   <trkpt lat="51.1211150" lon="-0.5726560">
    <ele>57.8</ele>
    <time>2020-04-06T16:34:16Z</time>
   </trkpt>
   <trkpt lat="51.1211210" lon="-0.5725830">
    <ele>57.5</ele>
    <time>2020-04-06T16:34:18Z</time>
   </trkpt>
   <trkpt lat="51.1211220" lon="-0.5725550">
    <ele>57.4</ele>
    <time>2020-04-06T16:34:19Z</time>
   </trkpt>
   <trkpt lat="51.1211240" lon="-0.5725270">
    <ele>57.3</ele>
    <time>2020-04-06T16:34:20Z</time>
   </trkpt>
   <trkpt lat="51.1211280" lon="-0.5724820">
    <ele>57.1</ele>
    <time>2020-04-06T16:34:21Z</time>
   </trkpt>
   <trkpt lat="51.1211330" lon="-0.5724360">
    <ele>57.0</ele>
    <time>2020-04-06T16:34:22Z</time>
   </trkpt>
   <trkpt lat="51.1211430" lon="-0.5723760">
    <ele>56.8</ele>
    <time>2020-04-06T16:34:24Z</time>
   </trkpt>
   <trkpt lat="51.1211530" lon="-0.5723260">
    <ele>56.7</ele>
    <time>2020-04-06T16:34:25Z</time>
   </trkpt>
   <trkpt lat="51.1211570" lon="-0.5722780">
    <ele>56.5</ele>
    <time>2020-04-06T16:34:26Z</time>
   </trkpt>
   <trkpt lat="51.1211530" lon="-0.5722280">
    <ele>56.4</ele>
    <time>2020-04-06T16:34:27Z</time>
   </trkpt>
   <trkpt lat="51.1211440" lon="-0.5721880">
    <ele>56.3</ele>
    <time>2020-04-06T16:34:28Z</time>
   </trkpt>
   <trkpt lat="51.1211300" lon="-0.5721290">
    <ele>56.1</ele>
    <time>2020-04-06T16:34:30Z</time>
   </trkpt>
   <trkpt lat="51.1211230" lon="-0.5720870">
    <ele>56.0</ele>
    <time>2020-04-06T16:34:31Z</time>
   </trkpt>
   <trkpt lat="51.1211160" lon="-0.5720450">
    <ele>56.2</ele>
    <time>2020-04-06T16:34:32Z</time>
   </trkpt>
   <trkpt lat="51.1211070" lon="-0.5720060">
    <ele>56.2</ele>
    <time>2020-04-06T16:34:33Z</time>
   </trkpt>
   <trkpt lat="51.1210910" lon="-0.5719740">
    <ele>56.3</ele>
    <time>2020-04-06T16:34:35Z</time>
   </trkpt>
   <trkpt lat="51.1210620" lon="-0.5719400">
    <ele>56.4</ele>
    <time>2020-04-06T16:34:36Z</time>
   </trkpt>
   <trkpt lat="51.1210500" lon="-0.5719290">
    <ele>56.4</ele>
    <time>2020-04-06T16:34:37Z</time>
   </trkpt>
   <trkpt lat="51.1210140" lon="-0.5718950">
    <ele>56.5</ele>
    <time>2020-04-06T16:34:38Z</time>
   </trkpt>
   <trkpt lat="51.1210010" lon="-0.5718840">
    <ele>56.5</ele>
    <time>2020-04-06T16:34:39Z</time>
   </trkpt>
   <trkpt lat="51.1209770" lon="-0.5718710">
    <ele>56.6</ele>
    <time>2020-04-06T16:34:40Z</time>
   </trkpt>
   <trkpt lat="51.1209420" lon="-0.5718560">
    <ele>56.6</ele>
    <time>2020-04-06T16:34:42Z</time>
   </trkpt>
   <trkpt lat="51.1209130" lon="-0.5718490">
    <ele>56.7</ele>
    <time>2020-04-06T16:34:43Z</time>
   </trkpt>
   <trkpt lat="51.1208860" lon="-0.5718390">
    <ele>56.8</ele>
    <time>2020-04-06T16:34:44Z</time>
   </trkpt>
   <trkpt lat="51.1208600" lon="-0.5718250">
    <ele>56.8</ele>
    <time>2020-04-06T16:34:45Z</time>
   </trkpt>
   <trkpt lat="51.1208380" lon="-0.5718140">
    <ele>56.9</ele>
    <time>2020-04-06T16:34:46Z</time>
   </trkpt>
   <trkpt lat="51.1208090" lon="-0.5718010">
    <ele>56.8</ele>
    <time>2020-04-06T16:34:48Z</time>
   </trkpt>
   <trkpt lat="51.1207720" lon="-0.5717790">
    <ele>56.8</ele>
    <time>2020-04-06T16:34:49Z</time>
   </trkpt>
   <trkpt lat="51.1207600" lon="-0.5717720">
    <ele>56.7</ele>
    <time>2020-04-06T16:34:50Z</time>
   </trkpt>
   <trkpt lat="51.1207280" lon="-0.5717450">
    <ele>56.7</ele>
    <time>2020-04-06T16:34:51Z</time>
   </trkpt>
   <trkpt lat="51.1207160" lon="-0.5717340">
    <ele>56.7</ele>
    <time>2020-04-06T16:34:52Z</time>
   </trkpt>
   <trkpt lat="51.1206690" lon="-0.5716990">
    <ele>56.6</ele>
    <time>2020-04-06T16:34:54Z</time>
   </trkpt>
   <trkpt lat="51.1206510" lon="-0.5716890">
    <ele>56.5</ele>
    <time>2020-04-06T16:34:55Z</time>
   </trkpt>
   <trkpt lat="51.1206340" lon="-0.5716800">
    <ele>56.5</ele>
    <time>2020-04-06T16:34:56Z</time>
   </trkpt>
   <trkpt lat="51.1206000" lon="-0.5716630">
    <ele>56.4</ele>
    <time>2020-04-06T16:34:57Z</time>
   </trkpt>
   <trkpt lat="51.1205690" lon="-0.5716530">
    <ele>56.3</ele>
    <time>2020-04-06T16:34:58Z</time>
   </trkpt>
   <trkpt lat="51.1205270" lon="-0.5716380">
    <ele>56.1</ele>
    <time>2020-04-06T16:35:00Z</time>
   </trkpt>
   <trkpt lat="51.1204930" lon="-0.5716280">
    <ele>56.0</ele>
    <time>2020-04-06T16:35:01Z</time>
   </trkpt>
   <trkpt lat="51.1204610" lon="-0.5716190">
    <ele>55.9</ele>
    <time>2020-04-06T16:35:02Z</time>
   </trkpt>
   <trkpt lat="51.1204330" lon="-0.5716110">
    <ele>55.8</ele>
    <time>2020-04-06T16:35:03Z</time>
   </trkpt>
   <trkpt lat="51.1203940" lon="-0.5716020">
    <ele>55.6</ele>
    <time>2020-04-06T16:35:05Z</time>
   </trkpt>
   <trkpt lat="51.1203650" lon="-0.5715980">
    <ele>55.5</ele>
    <time>2020-04-06T16:35:06Z</time>
   </trkpt>
   <trkpt lat="51.1203350" lon="-0.5715920">
    <ele>55.3</ele>
    <time>2020-04-06T16:35:07Z</time>
   </trkpt>
   <trkpt lat="51.1203010" lon="-0.5715840">
    <ele>55.2</ele>
    <time>2020-04-06T16:35:08Z</time>
   </trkpt>
   <trkpt lat="51.1202570" lon="-0.5715680">
    <ele>55.0</ele>
    <time>2020-04-06T16:35:10Z</time>
   </trkpt>
   <trkpt lat="51.1202250" lon="-0.5715530">
    <ele>54.8</ele>
    <time>2020-04-06T16:35:11Z</time>
   </trkpt>
   <trkpt lat="51.1201970" lon="-0.5715430">
    <ele>54.7</ele>
    <time>2020-04-06T16:35:12Z</time>
   </trkpt>
   <trkpt lat="51.1201720" lon="-0.5715300">
    <ele>54.6</ele>
    <time>2020-04-06T16:35:13Z</time>
   </trkpt>
   <trkpt lat="51.1201430" lon="-0.5715120">
    <ele>54.4</ele>
    <time>2020-04-06T16:35:14Z</time>
   </trkpt>
   <trkpt lat="51.1201070" lon="-0.5714890">
    <ele>54.2</ele>
    <time>2020-04-06T16:35:16Z</time>
   </trkpt>
   <trkpt lat="51.1200740" lon="-0.5714770">
    <ele>54.1</ele>
    <time>2020-04-06T16:35:17Z</time>
   </trkpt>
   <trkpt lat="51.1200400" lon="-0.5714690">
    <ele>53.9</ele>
    <time>2020-04-06T16:35:18Z</time>
   </trkpt>
   <trkpt lat="51.1200090" lon="-0.5714620">
    <ele>53.8</ele>
    <time>2020-04-06T16:35:19Z</time>
   </trkpt>
   <trkpt lat="51.1199780" lon="-0.5714510">
    <ele>53.6</ele>
    <time>2020-04-06T16:35:20Z</time>
   </trkpt>
   <trkpt lat="51.1199480" lon="-0.5714410">
    <ele>53.5</ele>
    <time>2020-04-06T16:35:21Z</time>
   </trkpt>
   <trkpt lat="51.1199200" lon="-0.5714350">
    <ele>53.4</ele>
    <time>2020-04-06T16:35:22Z</time>
   </trkpt>
   <trkpt lat="51.1198850" lon="-0.5714210">
    <ele>53.2</ele>
    <time>2020-04-06T16:35:24Z</time>
   </trkpt>
   <trkpt lat="51.1198530" lon="-0.5714080">
    <ele>53.1</ele>
    <time>2020-04-06T16:35:25Z</time>
   </trkpt>
   <trkpt lat="51.1198410" lon="-0.5714030">
    <ele>53.1</ele>
    <time>2020-04-06T16:35:26Z</time>
   </trkpt>
   <trkpt lat="51.1198030" lon="-0.5713860">
    <ele>52.9</ele>
    <time>2020-04-06T16:35:27Z</time>
   </trkpt>
   <trkpt lat="51.1197900" lon="-0.5713810">
    <ele>52.9</ele>
    <time>2020-04-06T16:35:28Z</time>
   </trkpt>
   <trkpt lat="51.1197540" lon="-0.5713870">
    <ele>52.7</ele>
    <time>2020-04-06T16:35:29Z</time>
   </trkpt>
   <trkpt lat="51.1197420" lon="-0.5713910">
    <ele>52.7</ele>
    <time>2020-04-06T16:35:30Z</time>
   </trkpt>
   <trkpt lat="51.1197120" lon="-0.5714030">
    <ele>52.6</ele>
    <time>2020-04-06T16:35:32Z</time>
   </trkpt>
   <trkpt lat="51.1196850" lon="-0.5714110">
    <ele>52.5</ele>
    <time>2020-04-06T16:35:33Z</time>
   </trkpt>
   <trkpt lat="51.1196410" lon="-0.5714230">
    <ele>52.3</ele>
    <time>2020-04-06T16:35:34Z</time>
   </trkpt>
   <trkpt lat="51.1196230" lon="-0.5714270">
    <ele>52.2</ele>
    <time>2020-04-06T16:35:35Z</time>
   </trkpt>
   <trkpt lat="51.1195910" lon="-0.5714340">
    <ele>52.1</ele>
    <time>2020-04-06T16:35:36Z</time>
   </trkpt>
   <trkpt lat="51.1195500" lon="-0.5714400">
    <ele>52.0</ele>
    <time>2020-04-06T16:35:37Z</time>
   </trkpt>
   <trkpt lat="51.1195350" lon="-0.5714420">
    <ele>51.9</ele>
    <time>2020-04-06T16:35:38Z</time>
   </trkpt>
   <trkpt lat="51.1194990" lon="-0.5714530">
    <ele>51.8</ele>
    <time>2020-04-06T16:35:40Z</time>
   </trkpt>
   <trkpt lat="51.1194670" lon="-0.5714620">
    <ele>51.6</ele>
    <time>2020-04-06T16:35:41Z</time>
   </trkpt>
   <trkpt lat="51.1194350" lon="-0.5714690">
    <ele>51.5</ele>
    <time>2020-04-06T16:35:42Z</time>
   </trkpt>
   <trkpt lat="51.1194030" lon="-0.5714650">
    <ele>51.3</ele>
    <time>2020-04-06T16:35:43Z</time>
   </trkpt>
   <trkpt lat="51.1193590" lon="-0.5714610">
    <ele>51.1</ele>
    <time>2020-04-06T16:35:45Z</time>
   </trkpt>
   <trkpt lat="51.1193290" lon="-0.5714580">
    <ele>51.0</ele>
    <time>2020-04-06T16:35:46Z</time>
   </trkpt>
   <trkpt lat="51.1192950" lon="-0.5714630">
    <ele>50.8</ele>
    <time>2020-04-06T16:35:47Z</time>
   </trkpt>
   <trkpt lat="51.1192650" lon="-0.5714760">
    <ele>50.6</ele>
    <time>2020-04-06T16:35:48Z</time>
   </trkpt>
   <trkpt lat="51.1192370" lon="-0.5715010">
    <ele>50.5</ele>
    <time>2020-04-06T16:35:49Z</time>
   </trkpt>
   <trkpt lat="51.1192150" lon="-0.5715340">
    <ele>50.0</ele>
    <time>2020-04-06T16:35:50Z</time>
   </trkpt>
   <trkpt lat="51.1191980" lon="-0.5715760">
    <ele>49.9</ele>
    <time>2020-04-06T16:35:51Z</time>
   </trkpt>
   <trkpt lat="51.1191820" lon="-0.5716330">
    <ele>49.8</ele>
    <time>2020-04-06T16:35:53Z</time>
   </trkpt>
   <trkpt lat="51.1191730" lon="-0.5716820">
    <ele>49.7</ele>
    <time>2020-04-06T16:35:54Z</time>
   </trkpt>
   <trkpt lat="51.1191650" lon="-0.5717370">
    <ele>49.7</ele>
    <time>2020-04-06T16:35:55Z</time>
   </trkpt>
   <trkpt lat="51.1191590" lon="-0.5718000">
    <ele>49.6</ele>
    <time>2020-04-06T16:35:56Z</time>
   </trkpt>
   <trkpt lat="51.1191560" lon="-0.5718540">
    <ele>49.6</ele>
    <time>2020-04-06T16:35:57Z</time>
   </trkpt>
   <trkpt lat="51.1191570" lon="-0.5719070">
    <ele>49.6</ele>
    <time>2020-04-06T16:35:58Z</time>
   </trkpt>
   <trkpt lat="51.1191580" lon="-0.5719890">
    <ele>49.5</ele>
    <time>2020-04-06T16:36:00Z</time>
   </trkpt>
   <trkpt lat="51.1191600" lon="-0.5720410">
    <ele>49.5</ele>
    <time>2020-04-06T16:36:01Z</time>
   </trkpt>
   <trkpt lat="51.1191620" lon="-0.5720940">
    <ele>49.5</ele>
    <time>2020-04-06T16:36:02Z</time>
   </trkpt>
   <trkpt lat="51.1191680" lon="-0.5721460">
    <ele>49.5</ele>
    <time>2020-04-06T16:36:03Z</time>
   </trkpt>
   <trkpt lat="51.1191740" lon="-0.5722110">
    <ele>49.4</ele>
    <time>2020-04-06T16:36:05Z</time>
   </trkpt>
   <trkpt lat="51.1191790" lon="-0.5722730">
    <ele>49.4</ele>
    <time>2020-04-06T16:36:06Z</time>
   </trkpt>
   <trkpt lat="51.1191860" lon="-0.5723270">
    <ele>49.4</ele>
    <time>2020-04-06T16:36:07Z</time>
   </trkpt>
   <trkpt lat="51.1191940" lon="-0.5723830">
    <ele>49.3</ele>
    <time>2020-04-06T16:36:08Z</time>
   </trkpt>
   <trkpt lat="51.1191990" lon="-0.5724320">
    <ele>49.3</ele>
    <time>2020-04-06T16:36:09Z</time>
   </trkpt>
   <trkpt lat="51.1191960" lon="-0.5724860">
    <ele>49.2</ele>
    <time>2020-04-06T16:36:10Z</time>
   </trkpt>
   <trkpt lat="51.1191940" lon="-0.5725020">
    <ele>49.2</ele>
    <time>2020-04-06T16:36:11Z</time>
   </trkpt>
   <trkpt lat="51.1191810" lon="-0.5725480">
    <ele>49.2</ele>
    <time>2020-04-06T16:36:13Z</time>
   </trkpt>
   <trkpt lat="51.1191670" lon="-0.5725960">
    <ele>49.1</ele>
    <time>2020-04-06T16:36:14Z</time>
   </trkpt>
   <trkpt lat="51.1191550" lon="-0.5726510">
    <ele>49.1</ele>
    <time>2020-04-06T16:36:15Z</time>
   </trkpt>
   <trkpt lat="51.1191440" lon="-0.5727090">
    <ele>49.0</ele>
    <time>2020-04-06T16:36:16Z</time>
   </trkpt>
   <trkpt lat="51.1191330" lon="-0.5727640">
    <ele>49.0</ele>
    <time>2020-04-06T16:36:17Z</time>
   </trkpt>
   <trkpt lat="51.1191180" lon="-0.5728200">
    <ele>48.9</ele>
    <time>2020-04-06T16:36:18Z</time>
   </trkpt>
   <trkpt lat="51.1191040" lon="-0.5728730">
    <ele>48.8</ele>
    <time>2020-04-06T16:36:19Z</time>
   </trkpt>
   <trkpt lat="51.1190870" lon="-0.5729230">
    <ele>48.7</ele>
    <time>2020-04-06T16:36:20Z</time>
   </trkpt>
   <trkpt lat="51.1190720" lon="-0.5729750">
    <ele>48.7</ele>
    <time>2020-04-06T16:36:22Z</time>
   </trkpt>
   <trkpt lat="51.1190570" lon="-0.5730210">
    <ele>48.6</ele>
    <time>2020-04-06T16:36:23Z</time>
   </trkpt>
   <trkpt lat="51.1190420" lon="-0.5730600">
    <ele>48.5</ele>
    <time>2020-04-06T16:36:24Z</time>
   </trkpt>
   <trkpt lat="51.1190200" lon="-0.5730940">
    <ele>48.5</ele>
    <time>2020-04-06T16:36:25Z</time>
   </trkpt>
   <trkpt lat="51.1189900" lon="-0.5731220">
    <ele>48.4</ele>
    <time>2020-04-06T16:36:26Z</time>
   </trkpt>
   <trkpt lat="51.1189590" lon="-0.5731530">
    <ele>48.3</ele>
    <time>2020-04-06T16:36:27Z</time>
   </trkpt>
   <trkpt lat="51.1189290" lon="-0.5731770">
    <ele>48.2</ele>
    <time>2020-04-06T16:36:28Z</time>
   </trkpt>
   <trkpt lat="51.1189030" lon="-0.5731980">
    <ele>48.2</ele>
    <time>2020-04-06T16:36:30Z</time>
   </trkpt>
   <trkpt lat="51.1188750" lon="-0.5732280">
    <ele>48.2</ele>
    <time>2020-04-06T16:36:31Z</time>
   </trkpt>
   <trkpt lat="51.1188480" lon="-0.5732580">
    <ele>48.2</ele>
    <time>2020-04-06T16:36:32Z</time>
   </trkpt>
   <trkpt lat="51.1188200" lon="-0.5732880">
    <ele>48.2</ele>
    <time>2020-04-06T16:36:33Z</time>
   </trkpt>
   <trkpt lat="51.1187920" lon="-0.5733120">
    <ele>48.3</ele>
    <time>2020-04-06T16:36:34Z</time>
   </trkpt>
   <trkpt lat="51.1187620" lon="-0.5733350">
    <ele>48.3</ele>
    <time>2020-04-06T16:36:35Z</time>
   </trkpt>
   <trkpt lat="51.1187300" lon="-0.5733570">
    <ele>48.4</ele>
    <time>2020-04-06T16:36:36Z</time>
   </trkpt>
   <trkpt lat="51.1187000" lon="-0.5733810">
    <ele>48.4</ele>
    <time>2020-04-06T16:36:38Z</time>
   </trkpt>
   <trkpt lat="51.1186720" lon="-0.5734110">
    <ele>48.5</ele>
    <time>2020-04-06T16:36:39Z</time>
   </trkpt>
   <trkpt lat="51.1186460" lon="-0.5734410">
    <ele>48.5</ele>
    <time>2020-04-06T16:36:40Z</time>
   </trkpt>
   <trkpt lat="51.1186210" lon="-0.5734680">
    <ele>48.6</ele>
    <time>2020-04-06T16:36:41Z</time>
   </trkpt>
   <trkpt lat="51.1185950" lon="-0.5734960">
    <ele>48.6</ele>
    <time>2020-04-06T16:36:42Z</time>
   </trkpt>
   <trkpt lat="51.1185680" lon="-0.5735230">
    <ele>48.7</ele>
    <time>2020-04-06T16:36:43Z</time>
   </trkpt>
   <trkpt lat="51.1185470" lon="-0.5735440">
    <ele>48.7</ele>
    <time>2020-04-06T16:36:44Z</time>
   </trkpt>
   <trkpt lat="51.1185130" lon="-0.5735830">
    <ele>48.8</ele>
    <time>2020-04-06T16:36:46Z</time>
   </trkpt>
   <trkpt lat="51.1184850" lon="-0.5736130">
    <ele>48.9</ele>
    <time>2020-04-06T16:36:48Z</time>
   </trkpt>
  </trkseg>
 </trk>
</gpx>
