<?xml version="1.0" encoding="UTF-8"?>
<gpx creator="StravaGPX" version="1.1" xmlns="http://www.topografix.com/GPX/1/1" xmlns:xsi="http://www.w3.org/2001/XMLSchema-instance" xsi:schemaLocation="http://www.topografix.com/GPX/1/1 http://www.topografix.com/GPX/1/1/gpx.xsd">
 <metadata>
  <time>2021-04-16T05:50:08Z</time>
 </metadata>
 <trk>
  <name>City bike comparison</name>
  <type>cycling</type>
  <trkseg>
   <trkpt lat="52.0787250" lon="4.3147360">
    <ele>5.2</ele>
    <time>2021-04-16T05:50:08Z</time>
   </trkpt>
   <trkpt lat="52.0787370" lon="4.3147270">
    <ele>5.2</ele>
    <time>2021-04-16T05:50:10Z</time>
   </trkpt>
   <trkpt lat="52.0787360" lon="4.3148020">
    <ele>5.2</ele>
    <time>2021-04-16T05:50:13Z</time>
   </trkpt>
   <trkpt lat="52.0787600" lon="4.3149870">
    <ele>5.3</ele>
    <time>2021-04-16T05:50:15Z</time>
   </trkpt>
   <trkpt lat="52.0787440" lon="4.3149450">
    <ele>5.3</ele>
    <time>2021-04-16T05:50:17Z</time>
   </trkpt>
   <trkpt lat="52.0787250" lon="4.3148940">
    <ele>5.3</ele>
    <time>2021-04-16T05:50:18Z</time>
   </trkpt>
   <trkpt lat="52.0786980" lon="4.3147910">
    <ele>5.3</ele>
    <time>2021-04-16T05:50:20Z</time>
   </trkpt>
   <trkpt lat="52.0787040" lon="4.3147870">
    <ele>5.3</ele>
    <time>2021-04-16T05:50:22Z</time>
   </trkpt>
   <trkpt lat="52.0787070" lon="4.3147700">
    <ele>5.3</ele>
    <time>2021-04-16T05:50:23Z</time>
   </trkpt>
   <trkpt lat="52.0787080" lon="4.3146710">
    <ele>5.3</ele>
    <time>2021-04-16T05:50:25Z</time>
   </trkpt>
   <trkpt lat="52.0787110" lon="4.3146490">
    <ele>5.3</ele>
    <time>2021-04-16T05:50:26Z</time>
   </trkpt>
   <trkpt lat="52.0787210" lon="4.3146520">
    <ele>5.3</ele>
    <time>2021-04-16T05:50:28Z</time>
   </trkpt>
   <trkpt lat="52.0787360" lon="4.3146620">
    <ele>5.3</ele>
    <time>2021-04-16T05:50:29Z</time>
   </trkpt>
   <trkpt lat="52.0787460" lon="4.3146660">
    <ele>5.3</ele>
    <time>2021-04-16T05:50:30Z</time>
   </trkpt>
   <trkpt lat="52.0787520" lon="4.3146680">
    <ele>5.3</ele>
    <time>2021-04-16T05:50:31Z</time>
   </trkpt>
   <trkpt lat="52.0787660" lon="4.3146910">
    <ele>5.3</ele>
    <time>2021-04-16T05:50:32Z</time>
   </trkpt>
   <trkpt lat="52.0787960" lon="4.3147300">
    <ele>5.3</ele>
    <time>2021-04-16T05:50:34Z</time>
   </trkpt>
   <trkpt lat="52.0788100" lon="4.3147450">
    <ele>5.3</ele>
    <time>2021-04-16T05:50:35Z</time>
   </trkpt>
   <trkpt lat="52.0788890" lon="4.3148830">
    <ele>5.3</ele>
    <time>2021-04-16T05:50:37Z</time>
   </trkpt>
   <trkpt lat="52.0789220" lon="4.3149060">
    <ele>5.3</ele>
    <time>2021-04-16T05:50:38Z</time>
   </trkpt>
   <trkpt lat="52.0789550" lon="4.3149540">
    <ele>5.3</ele>
    <time>2021-04-16T05:50:39Z</time>
   </trkpt>
   <trkpt lat="52.0789690" lon="4.3149750">
    <ele>5.3</ele>
    <time>2021-04-16T05:50:41Z</time>
   </trkpt>
   <trkpt lat="52.0789930" lon="4.3150150">
    <ele>5.3</ele>
    <time>2021-04-16T05:50:43Z</time>
   </trkpt>
   <trkpt lat="52.0790100" lon="4.3150430">
    <ele>5.3</ele>
    <time>2021-04-16T05:50:44Z</time>
   </trkpt>
   <trkpt lat="52.0790190" lon="4.3150550">
    <ele>5.3</ele>
    <time>2021-04-16T05:50:45Z</time>
   </trkpt>
   <trkpt lat="52.0790280" lon="4.3150670">
    <ele>5.3</ele>
    <time>2021-04-16T05:50:46Z</time>
   </trkpt>
   <trkpt lat="52.0790720" lon="4.3151930">
    <ele>5.3</ele>
    <time>2021-04-16T05:50:48Z</time>
   </trkpt>
   <trkpt lat="52.0790930" lon="4.3152470">
    <ele>5.3</ele>
    <time>2021-04-16T05:50:49Z</time>
   </trkpt>
   <trkpt lat="52.0791080" lon="4.3152980">
    <ele>5.3</ele>
    <time>2021-04-16T05:50:50Z</time>
   </trkpt>
   <trkpt lat="52.0791100" lon="4.3153240">
    <ele>5.3</ele>
    <time>2021-04-16T05:50:51Z</time>
   </trkpt>
   <trkpt lat="52.0791210" lon="4.3153500">
    <ele>5.3</ele>
    <time>2021-04-16T05:50:53Z</time>
   </trkpt>
   <trkpt lat="52.0791320" lon="4.3153770">
    <ele>5.3</ele>
    <time>2021-04-16T05:50:54Z</time>
   </trkpt>
   <trkpt lat="52.0791540" lon="4.3154380">
    <ele>5.3</ele>
    <time>2021-04-16T05:50:55Z</time>
   </trkpt>
   <trkpt lat="52.0791690" lon="4.3154510">
    <ele>5.3</ele>
    <time>2021-04-16T05:50:56Z</time>
   </trkpt>
   <trkpt lat="52.0792070" lon="4.3155650">
    <ele>5.3</ele>
    <time>2021-04-16T05:50:58Z</time>
   </trkpt>
   <trkpt lat="52.0792170" lon="4.3156210">
    <ele>5.3</ele>
    <time>2021-04-16T05:50:59Z</time>
   </trkpt>
   <trkpt lat="52.0792260" lon="4.3156690">
    <ele>5.3</ele>
    <time>2021-04-16T05:51:00Z</time>
   </trkpt>
   <trkpt lat="52.0792310" lon="4.3157040">
    <ele>5.3</ele>
    <time>2021-04-16T05:51:02Z</time>
   </trkpt>
   <trkpt lat="52.0792280" lon="4.3157190">
    <ele>5.3</ele>
    <time>2021-04-16T05:51:03Z</time>
   </trkpt>
   <trkpt lat="52.0792760" lon="4.3158370">
    <ele>5.3</ele>
    <time>2021-04-16T05:51:04Z</time>
   </trkpt>
   <trkpt lat="52.0793280" lon="4.3159520">
    <ele>5.2</ele>
    <time>2021-04-16T05:51:06Z</time>
   </trkpt>
   <trkpt lat="52.0793800" lon="4.3160680">
    <ele>5.2</ele>
    <time>2021-04-16T05:51:07Z</time>
   </trkpt>
   <trkpt lat="52.0793830" lon="4.3161070">
    <ele>5.2</ele>
    <time>2021-04-16T05:51:08Z</time>
   </trkpt>
   <trkpt lat="52.0793790" lon="4.3161720">
    <ele>5.2</ele>
    <time>2021-04-16T05:51:10Z</time>
   </trkpt>
   <trkpt lat="52.0793780" lon="4.3162030">
    <ele>5.2</ele>
    <time>2021-04-16T05:51:11Z</time>
   </trkpt>
   <trkpt lat="52.0793890" lon="4.3163080">
    <ele>5.2</ele>
    <time>2021-04-16T05:51:13Z</time>
   </trkpt>
   <trkpt lat="52.0794710" lon="4.3164210">
    <ele>5.2</ele>
    <time>2021-04-16T05:51:14Z</time>
   </trkpt>
   <trkpt lat="52.0795460" lon="4.3165090">
    <ele>5.3</ele>
    <time>2021-04-16T05:51:15Z</time>
   </trkpt>
   <trkpt lat="52.0796200" lon="4.3165980">
    <ele>5.3</ele>
    <time>2021-04-16T05:51:16Z</time>
   </trkpt>
   <trkpt lat="52.0797480" lon="4.3167760">
    <ele>5.5</ele>
    <time>2021-04-16T05:51:18Z</time>
   </trkpt>
   <trkpt lat="52.0798050" lon="4.3168460">
    <ele>5.5</ele>
    <time>2021-04-16T05:51:19Z</time>
   </trkpt>
   <trkpt lat="52.0798380" lon="4.3169050">
    <ele>5.5</ele>
    <time>2021-04-16T05:51:20Z</time>
   </trkpt>
   <trkpt lat="52.0798890" lon="4.3170870">
    <ele>5.4</ele>
    <time>2021-04-16T05:51:22Z</time>
   </trkpt>
   <trkpt lat="52.0799210" lon="4.3171690">
    <ele>5.4</ele>
    <time>2021-04-16T05:51:24Z</time>
   </trkpt>
   <trkpt lat="52.0799410" lon="4.3172210">
    <ele>5.3</ele>
    <time>2021-04-16T05:51:25Z</time>
   </trkpt>
   <trkpt lat="52.0799500" lon="4.3172450">
    <ele>5.3</ele>
    <time>2021-04-16T05:51:26Z</time>
   </trkpt>
   <trkpt lat="52.0799680" lon="4.3172890">
    <ele>5.3</ele>
    <time>2021-04-16T05:51:27Z</time>
   </trkpt>
   <trkpt lat="52.0799850" lon="4.3173370">
    <ele>5.3</ele>
    <time>2021-04-16T05:51:29Z</time>
   </trkpt>
   <trkpt lat="52.0800150" lon="4.3174120">
    <ele>5.3</ele>
    <time>2021-04-16T05:51:31Z</time>
   </trkpt>
   <trkpt lat="52.0800340" lon="4.3174780">
    <ele>5.3</ele>
    <time>2021-04-16T05:51:32Z</time>
   </trkpt>
   <trkpt lat="52.0800540" lon="4.3175430">
    <ele>5.2</ele>
    <time>2021-04-16T05:51:34Z</time>
   </trkpt>
   <trkpt lat="52.0800880" lon="4.3176210">
    <ele>5.2</ele>
    <time>2021-04-16T05:51:35Z</time>
   </trkpt>
   <trkpt lat="52.0801080" lon="4.3176670">
    <ele>5.2</ele>
    <time>2021-04-16T05:51:36Z</time>
   </trkpt>
   <trkpt lat="52.0801620" lon="4.3177830">
    <ele>5.1</ele>
    <time>2021-04-16T05:51:38Z</time>
   </trkpt>
   <trkpt lat="52.0801880" lon="4.3178450">
    <ele>5.1</ele>
    <time>2021-04-16T05:51:39Z</time>
   </trkpt>
   <trkpt lat="52.0802090" lon="4.3178980">
    <ele>5.0</ele>
    <time>2021-04-16T05:51:40Z</time>
   </trkpt>
   <trkpt lat="52.0802380" lon="4.3179510">
    <ele>5.0</ele>
    <time>2021-04-16T05:51:42Z</time>
   </trkpt>
   <trkpt lat="52.0802530" lon="4.3179740">
    <ele>5.0</ele>
    <time>2021-04-16T05:51:43Z</time>
   </trkpt>
   <trkpt lat="52.0802760" lon="4.3180100">
    <ele>5.0</ele>
    <time>2021-04-16T05:51:44Z</time>
   </trkpt>
   <trkpt lat="52.0803070" lon="4.3180650">
    <ele>5.0</ele>
    <time>2021-04-16T05:51:45Z</time>
   </trkpt>
   <trkpt lat="52.0803480" lon="4.3181480">
    <ele>4.9</ele>
    <time>2021-04-16T05:51:47Z</time>
   </trkpt>
   <trkpt lat="52.0803900" lon="4.3182440">
    <ele>4.8</ele>
    <time>2021-04-16T05:51:48Z</time>
   </trkpt>
   <trkpt lat="52.0804960" lon="4.3184450">
    <ele>3.9</ele>
    <time>2021-04-16T05:51:50Z</time>
   </trkpt>
   <trkpt lat="52.0806070" lon="4.3186990">
    <ele>3.8</ele>
    <time>2021-04-16T05:51:52Z</time>
   </trkpt>
   <trkpt lat="52.0807040" lon="4.3189460">
    <ele>3.8</ele>
    <time>2021-04-16T05:51:54Z</time>
   </trkpt>
   <trkpt lat="52.0807550" lon="4.3190570">
    <ele>3.8</ele>
    <time>2021-04-16T05:51:55Z</time>
   </trkpt>
   <trkpt lat="52.0808090" lon="4.3191540">
    <ele>3.9</ele>
    <time>2021-04-16T05:51:56Z</time>
   </trkpt>
   <trkpt lat="52.0809170" lon="4.3193420">
    <ele>4.0</ele>
    <time>2021-04-16T05:51:58Z</time>
   </trkpt>
   <trkpt lat="52.0809650" lon="4.3194300">
    <ele>4.0</ele>
    <time>2021-04-16T05:51:59Z</time>
   </trkpt>
   <trkpt lat="52.0810480" lon="4.3195740">
    <ele>4.1</ele>
    <time>2021-04-16T05:52:01Z</time>
   </trkpt>
   <trkpt lat="52.0811170" lon="4.3196980">
    <ele>4.2</ele>
    <time>2021-04-16T05:52:03Z</time>
   </trkpt>
   <trkpt lat="52.0811680" lon="4.3198250">
    <ele>4.3</ele>
    <time>2021-04-16T05:52:05Z</time>
   </trkpt>
   <trkpt lat="52.0812260" lon="4.3199380">
    <ele>4.5</ele>
    <time>2021-04-16T05:52:07Z</time>
   </trkpt>
   <trkpt lat="52.0812920" lon="4.3200620">
    <ele>4.6</ele>
    <time>2021-04-16T05:52:09Z</time>
   </trkpt>
   <trkpt lat="52.0813190" lon="4.3201400">
    <ele>4.7</ele>
    <time>2021-04-16T05:52:10Z</time>
   </trkpt>
   <trkpt lat="52.0813490" lon="4.3203030">
    <ele>4.8</ele>
    <time>2021-04-16T05:52:12Z</time>
   </trkpt>
   <trkpt lat="52.0813640" lon="4.3203810">
    <ele>4.8</ele>
    <time>2021-04-16T05:52:13Z</time>
   </trkpt>
   <trkpt lat="52.0813830" lon="4.3204560">
    <ele>4.7</ele>
    <time>2021-04-16T05:52:14Z</time>
   </trkpt>
   <trkpt lat="52.0814250" lon="4.3205790">
    <ele>4.6</ele>
    <time>2021-04-16T05:52:16Z</time>
   </trkpt>
   <trkpt lat="52.0814650" lon="4.3206850">
    <ele>4.6</ele>
    <time>2021-04-16T05:52:18Z</time>
   </trkpt>
   <trkpt lat="52.0815090" lon="4.3207960">
    <ele>4.5</ele>
    <time>2021-04-16T05:52:20Z</time>
   </trkpt>
   <trkpt lat="52.0815380" lon="4.3208500">
    <ele>4.4</ele>
    <time>2021-04-16T05:52:21Z</time>
   </trkpt>
   <trkpt lat="52.0816030" lon="4.3209540">
    <ele>4.3</ele>
    <time>2021-04-16T05:52:23Z</time>
   </trkpt>
   <trkpt lat="52.0816320" lon="4.3210110">
    <ele>4.2</ele>
    <time>2021-04-16T05:52:24Z</time>
   </trkpt>
   <trkpt lat="52.0816620" lon="4.3210620">
    <ele>4.2</ele>
    <time>2021-04-16T05:52:25Z</time>
   </trkpt>
   <trkpt lat="52.0817360" lon="4.3211430">
    <ele>4.1</ele>
    <time>2021-04-16T05:52:27Z</time>
   </trkpt>
   <trkpt lat="52.0818220" lon="4.3212310">
    <ele>4.1</ele>
    <time>2021-04-16T05:52:29Z</time>
   </trkpt>
   <trkpt lat="52.0818580" lon="4.3212940">
    <ele>4.1</ele>
    <time>2021-04-16T05:52:30Z</time>
   </trkpt>
   <trkpt lat="52.0819040" lon="4.3214520">
    <ele>3.8</ele>
    <time>2021-04-16T05:52:32Z</time>
   </trkpt>
   <trkpt lat="52.0819360" lon="4.3216220">
    <ele>3.8</ele>
    <time>2021-04-16T05:52:34Z</time>
   </trkpt>
   <trkpt lat="52.0819560" lon="4.3217120">
    <ele>3.8</ele>
    <time>2021-04-16T05:52:35Z</time>
   </trkpt>
   <trkpt lat="52.0819770" lon="4.3218770">
    <ele>3.9</ele>
    <time>2021-04-16T05:52:37Z</time>
   </trkpt>
   <trkpt lat="52.0819850" lon="4.3219520">
    <ele>3.9</ele>
    <time>2021-04-16T05:52:38Z</time>
   </trkpt>
   <trkpt lat="52.0820040" lon="4.3220950">
    <ele>3.9</ele>
    <time>2021-04-16T05:52:40Z</time>
   </trkpt>
   <trkpt lat="52.0820180" lon="4.3221620">
    <ele>3.9</ele>
    <time>2021-04-16T05:52:41Z</time>
   </trkpt>
   <trkpt lat="52.0820520" lon="4.3222750">
    <ele>3.8</ele>
    <time>2021-04-16T05:52:42Z</time>
   </trkpt>
   <trkpt lat="52.0820750" lon="4.3223250">
    <ele>3.8</ele>
    <time>2021-04-16T05:52:43Z</time>
   </trkpt>
   <trkpt lat="52.0821170" lon="4.3223670">
    <ele>3.7</ele>
    <time>2021-04-16T05:52:44Z</time>
   </trkpt>
   <trkpt lat="52.0821410" lon="4.3224810">
    <ele>3.6</ele>
    <time>2021-04-16T05:52:46Z</time>
   </trkpt>
   <trkpt lat="52.0821590" lon="4.3225790">
    <ele>3.6</ele>
    <time>2021-04-16T05:52:47Z</time>
   </trkpt>
   <trkpt lat="52.0822180" lon="4.3227880">
    <ele>3.5</ele>
    <time>2021-04-16T05:52:49Z</time>
   </trkpt>
   <trkpt lat="52.0822970" lon="4.3229600">
    <ele>3.4</ele>
    <time>2021-04-16T05:52:51Z</time>
   </trkpt>
   <trkpt lat="52.0823430" lon="4.3230290">
    <ele>3.3</ele>
    <time>2021-04-16T05:52:52Z</time>
   </trkpt>
   <trkpt lat="52.0824220" lon="4.3231800">
    <ele>3.3</ele>
    <time>2021-04-16T05:52:54Z</time>
   </trkpt>
   <trkpt lat="52.0824490" lon="4.3232710">
    <ele>3.2</ele>
    <time>2021-04-16T05:52:55Z</time>
   </trkpt>
   <trkpt lat="52.0824770" lon="4.3233600">
    <ele>3.2</ele>
    <time>2021-04-16T05:52:56Z</time>
   </trkpt>
   <trkpt lat="52.0825390" lon="4.3235200">
    <ele>3.2</ele>
    <time>2021-04-16T05:52:58Z</time>
   </trkpt>
   <trkpt lat="52.0825690" lon="4.3235920">
    <ele>3.2</ele>
    <time>2021-04-16T05:52:59Z</time>
   </trkpt>
   <trkpt lat="52.0826200" lon="4.3237170">
    <ele>3.2</ele>
    <time>2021-04-16T05:53:01Z</time>
   </trkpt>
   <trkpt lat="52.0826410" lon="4.3237750">
    <ele>3.2</ele>
    <time>2021-04-16T05:53:02Z</time>
   </trkpt>
   <trkpt lat="52.0826810" lon="4.3238880">
    <ele>3.3</ele>
    <time>2021-04-16T05:53:04Z</time>
   </trkpt>
   <trkpt lat="52.0827060" lon="4.3239350">
    <ele>3.3</ele>
    <time>2021-04-16T05:53:05Z</time>
   </trkpt>
   <trkpt lat="52.0827640" lon="4.3240160">
    <ele>3.3</ele>
    <time>2021-04-16T05:53:07Z</time>
   </trkpt>
   <trkpt lat="52.0828190" lon="4.3241250">
    <ele>3.2</ele>
    <time>2021-04-16T05:53:09Z</time>
   </trkpt>
   <trkpt lat="52.0828700" lon="4.3242480">
    <ele>3.3</ele>
    <time>2021-04-16T05:53:11Z</time>
   </trkpt>
   <trkpt lat="52.0829190" lon="4.3243670">
    <ele>3.3</ele>
    <time>2021-04-16T05:53:13Z</time>
   </trkpt>
   <trkpt lat="52.0829430" lon="4.3244180">
    <ele>3.3</ele>
    <time>2021-04-16T05:53:14Z</time>
   </trkpt>
   <trkpt lat="52.0829930" lon="4.3245400">
    <ele>3.3</ele>
    <time>2021-04-16T05:53:16Z</time>
   </trkpt>
   <trkpt lat="52.0830280" lon="4.3246190">
    <ele>3.3</ele>
    <time>2021-04-16T05:53:17Z</time>
   </trkpt>
   <trkpt lat="52.0830970" lon="4.3248040">
    <ele>3.3</ele>
    <time>2021-04-16T05:53:19Z</time>
   </trkpt>
   <trkpt lat="52.0831260" lon="4.3249090">
    <ele>3.4</ele>
    <time>2021-04-16T05:53:20Z</time>
   </trkpt>
   <trkpt lat="52.0831790" lon="4.3251000">
    <ele>3.5</ele>
    <time>2021-04-16T05:53:22Z</time>
   </trkpt>
   <trkpt lat="52.0832130" lon="4.3251840">
    <ele>3.5</ele>
    <time>2021-04-16T05:53:23Z</time>
   </trkpt>
   <trkpt lat="52.0832700" lon="4.3253380">
    <ele>3.6</ele>
    <time>2021-04-16T05:53:25Z</time>
   </trkpt>
   <trkpt lat="52.0832880" lon="4.3254140">
    <ele>3.6</ele>
    <time>2021-04-16T05:53:26Z</time>
   </trkpt>
   <trkpt lat="52.0833050" lon="4.3254850">
    <ele>3.6</ele>
    <time>2021-04-16T05:53:27Z</time>
   </trkpt>
   <trkpt lat="52.0833370" lon="4.3256050">
    <ele>3.7</ele>
    <time>2021-04-16T05:53:29Z</time>
   </trkpt>
   <trkpt lat="52.0833550" lon="4.3256630">
    <ele>3.7</ele>
    <time>2021-04-16T05:53:30Z</time>
   </trkpt>
   <trkpt lat="52.0833970" lon="4.3257640">
    <ele>3.7</ele>
    <time>2021-04-16T05:53:32Z</time>
   </trkpt>
   <trkpt lat="52.0834560" lon="4.3258250">
    <ele>3.7</ele>
    <time>2021-04-16T05:53:34Z</time>
   </trkpt>
   <trkpt lat="52.0835170" lon="4.3258760">
    <ele>3.7</ele>
    <time>2021-04-16T05:53:36Z</time>
   </trkpt>
   <trkpt lat="52.0835180" lon="4.3258640">
    <ele>3.7</ele>
    <time>2021-04-16T05:53:37Z</time>
   </trkpt>
   <trkpt lat="52.0835180" lon="4.3257980">
    <ele>3.7</ele>
    <time>2021-04-16T05:53:39Z</time>
   </trkpt>
   <trkpt lat="52.0835170" lon="4.3257780">
    <ele>3.7</ele>
    <time>2021-04-16T05:53:41Z</time>
   </trkpt>
   <trkpt lat="52.0835150" lon="4.3257650">
    <ele>3.7</ele>
    <time>2021-04-16T05:53:43Z</time>
   </trkpt>
   <trkpt lat="52.0835160" lon="4.3257630">
    <ele>3.8</ele>
    <time>2021-04-16T05:53:44Z</time>
   </trkpt>
   <trkpt lat="52.0835170" lon="4.3257610">
    <ele>3.8</ele>
    <time>2021-04-16T05:53:46Z</time>
   </trkpt>
   <trkpt lat="52.0835150" lon="4.3257340">
    <ele>3.8</ele>
    <time>2021-04-16T05:53:48Z</time>
   </trkpt>
   <trkpt lat="52.0835350" lon="4.3257670">
    <ele>3.8</ele>
    <time>2021-04-16T05:53:49Z</time>
   </trkpt>
   <trkpt lat="52.0835660" lon="4.3258230">
    <ele>3.8</ele>
    <time>2021-04-16T05:53:51Z</time>
   </trkpt>
   <trkpt lat="52.0837250" lon="4.3261290">
    <ele>3.9</ele>
    <time>2021-04-16T05:53:52Z</time>
   </trkpt>
   <trkpt lat="52.0837540" lon="4.3261870">
    <ele>3.9</ele>
    <time>2021-04-16T05:53:53Z</time>
   </trkpt>
   <trkpt lat="52.0838510" lon="4.3263840">
    <ele>4.1</ele>
    <time>2021-04-16T05:53:55Z</time>
   </trkpt>
   <trkpt lat="52.0839340" lon="4.3265550">
    <ele>4.1</ele>
    <time>2021-04-16T05:53:57Z</time>
   </trkpt>
   <trkpt lat="52.0839600" lon="4.3266220">
    <ele>4.1</ele>
    <time>2021-04-16T05:53:58Z</time>
   </trkpt>
   <trkpt lat="52.0839600" lon="4.3265330">
    <ele>4.1</ele>
    <time>2021-04-16T05:54:00Z</time>
   </trkpt>
   <trkpt lat="52.0839910" lon="4.3265530">
    <ele>4.1</ele>
    <time>2021-04-16T05:54:02Z</time>
   </trkpt>
   <trkpt lat="52.0840160" lon="4.3265970">
    <ele>4.1</ele>
    <time>2021-04-16T05:54:03Z</time>
   </trkpt>
   <trkpt lat="52.0840410" lon="4.3266400">
    <ele>4.1</ele>
    <time>2021-04-16T05:54:04Z</time>
   </trkpt>
   <trkpt lat="52.0841200" lon="4.3268240">
    <ele>4.1</ele>
    <time>2021-04-16T05:54:05Z</time>
   </trkpt>
   <trkpt lat="52.0842770" lon="4.3271970">
    <ele>3.8</ele>
    <time>2021-04-16T05:54:07Z</time>
   </trkpt>
   <trkpt lat="52.0843910" lon="4.3274500">
    <ele>3.6</ele>
    <time>2021-04-16T05:54:09Z</time>
   </trkpt>
   <trkpt lat="52.0844400" lon="4.3275490">
    <ele>3.6</ele>
    <time>2021-04-16T05:54:10Z</time>
   </trkpt>
   <trkpt lat="52.0844800" lon="4.3276440">
    <ele>3.6</ele>
    <time>2021-04-16T05:54:11Z</time>
   </trkpt>
   <trkpt lat="52.0845480" lon="4.3278120">
    <ele>3.5</ele>
    <time>2021-04-16T05:54:13Z</time>
   </trkpt>
   <trkpt lat="52.0846350" lon="4.3280040">
    <ele>3.5</ele>
    <time>2021-04-16T05:54:15Z</time>
   </trkpt>
   <trkpt lat="52.0847310" lon="4.3281500">
    <ele>3.4</ele>
    <time>2021-04-16T05:54:17Z</time>
   </trkpt>
   <trkpt lat="52.0847960" lon="4.3282960">
    <ele>3.4</ele>
    <time>2021-04-16T05:54:19Z</time>
   </trkpt>
   <trkpt lat="52.0848540" lon="4.3284350">
    <ele>3.4</ele>
    <time>2021-04-16T05:54:21Z</time>
   </trkpt>
   <trkpt lat="52.0848830" lon="4.3284990">
    <ele>3.4</ele>
    <time>2021-04-16T05:54:22Z</time>
   </trkpt>
   <trkpt lat="52.0849500" lon="4.3286940">
    <ele>3.4</ele>
    <time>2021-04-16T05:54:24Z</time>
   </trkpt>
   <trkpt lat="52.0850010" lon="4.3287550">
    <ele>3.3</ele>
    <time>2021-04-16T05:54:25Z</time>
   </trkpt>
   <trkpt lat="52.0851120" lon="4.3289330">
    <ele>3.3</ele>
    <time>2021-04-16T05:54:27Z</time>
   </trkpt>
   <trkpt lat="52.0851530" lon="4.3290310">
    <ele>3.3</ele>
    <time>2021-04-16T05:54:28Z</time>
   </trkpt>
   <trkpt lat="52.0852120" lon="4.3292110">
    <ele>3.2</ele>
    <time>2021-04-16T05:54:30Z</time>
   </trkpt>
   <trkpt lat="52.0852350" lon="4.3292950">
    <ele>3.2</ele>
    <time>2021-04-16T05:54:31Z</time>
   </trkpt>
   <trkpt lat="52.0852740" lon="4.3294400">
    <ele>3.2</ele>
    <time>2021-04-16T05:54:33Z</time>
   </trkpt>
   <trkpt lat="52.0853340" lon="4.3295790">
    <ele>3.3</ele>
    <time>2021-04-16T05:54:35Z</time>
   </trkpt>
   <trkpt lat="52.0853660" lon="4.3296520">
    <ele>3.3</ele>
    <time>2021-04-16T05:54:36Z</time>
   </trkpt>
   <trkpt lat="52.0854220" lon="4.3297640">
    <ele>3.3</ele>
    <time>2021-04-16T05:54:38Z</time>
   </trkpt>
   <trkpt lat="52.0854480" lon="4.3298370">
    <ele>3.3</ele>
    <time>2021-04-16T05:54:39Z</time>
   </trkpt>
   <trkpt lat="52.0854600" lon="4.3298800">
    <ele>3.3</ele>
    <time>2021-04-16T05:54:40Z</time>
   </trkpt>
   <trkpt lat="52.0855110" lon="4.3300430">
    <ele>3.2</ele>
    <time>2021-04-16T05:54:42Z</time>
   </trkpt>
   <trkpt lat="52.0855480" lon="4.3301370">
    <ele>3.2</ele>
    <time>2021-04-16T05:54:43Z</time>
   </trkpt>
   <trkpt lat="52.0856230" lon="4.3303210">
    <ele>3.2</ele>
    <time>2021-04-16T05:54:45Z</time>
   </trkpt>
   <trkpt lat="52.0856740" lon="4.3304540">
    <ele>3.2</ele>
    <time>2021-04-16T05:54:47Z</time>
   </trkpt>
   <trkpt lat="52.0857060" lon="4.3305220">
    <ele>3.2</ele>
    <time>2021-04-16T05:54:48Z</time>
   </trkpt>
   <trkpt lat="52.0857470" lon="4.3305900">
    <ele>3.2</ele>
    <time>2021-04-16T05:54:49Z</time>
   </trkpt>
   <trkpt lat="52.0857970" lon="4.3306680">
    <ele>3.2</ele>
    <time>2021-04-16T05:54:50Z</time>
   </trkpt>
   <trkpt lat="52.0858820" lon="4.3308140">
    <ele>3.3</ele>
    <time>2021-04-16T05:54:52Z</time>
   </trkpt>
   <trkpt lat="52.0859100" lon="4.3308840">
    <ele>3.3</ele>
    <time>2021-04-16T05:54:53Z</time>
   </trkpt>
   <trkpt lat="52.0859540" lon="4.3310160">
    <ele>3.3</ele>
    <time>2021-04-16T05:54:55Z</time>
   </trkpt>
   <trkpt lat="52.0859500" lon="4.3311010">
    <ele>3.4</ele>
    <time>2021-04-16T05:54:56Z</time>
   </trkpt>
   <trkpt lat="52.0859680" lon="4.3311890">
    <ele>3.4</ele>
    <time>2021-04-16T05:54:57Z</time>
   </trkpt>
   <trkpt lat="52.0859720" lon="4.3312320">
    <ele>3.4</ele>
    <time>2021-04-16T05:54:58Z</time>
   </trkpt>
   <trkpt lat="52.0859920" lon="4.3312980">
    <ele>3.4</ele>
    <time>2021-04-16T05:55:00Z</time>
   </trkpt>
   <trkpt lat="52.0859940" lon="4.3313330">
    <ele>3.4</ele>
    <time>2021-04-16T05:55:01Z</time>
   </trkpt>
   <trkpt lat="52.0860090" lon="4.3313470">
    <ele>3.4</ele>
    <time>2021-04-16T05:55:03Z</time>
   </trkpt>
   <trkpt lat="52.0860530" lon="4.3313800">
    <ele>3.4</ele>
    <time>2021-04-16T05:55:05Z</time>
   </trkpt>
   <trkpt lat="52.0860960" lon="4.3314250">
    <ele>3.4</ele>
    <time>2021-04-16T05:55:06Z</time>
   </trkpt>
   <trkpt lat="52.0861760" lon="4.3315070">
    <ele>3.3</ele>
    <time>2021-04-16T05:55:07Z</time>
   </trkpt>
   <trkpt lat="52.0862490" lon="4.3315800">
    <ele>3.3</ele>
    <time>2021-04-16T05:55:09Z</time>
   </trkpt>
   <trkpt lat="52.0862700" lon="4.3316350">
    <ele>3.3</ele>
    <time>2021-04-16T05:55:10Z</time>
   </trkpt>
   <trkpt lat="52.0862510" lon="4.3316670">
    <ele>3.3</ele>
    <time>2021-04-16T05:55:12Z</time>
   </trkpt>
   <trkpt lat="52.0862480" lon="4.3317070">
    <ele>3.2</ele>
    <time>2021-04-16T05:55:13Z</time>
   </trkpt>
   <trkpt lat="52.0862740" lon="4.3317980">
    <ele>3.2</ele>
    <time>2021-04-16T05:55:15Z</time>
   </trkpt>
   <trkpt lat="52.0863070" lon="4.3318950">
    <ele>3.2</ele>
    <time>2021-04-16T05:55:16Z</time>
   </trkpt>
   <trkpt lat="52.0863300" lon="4.3319650">
    <ele>3.1</ele>
    <time>2021-04-16T05:55:18Z</time>
   </trkpt>
   <trkpt lat="52.0863530" lon="4.3320270">
    <ele>3.1</ele>
    <time>2021-04-16T05:55:19Z</time>
   </trkpt>
   <trkpt lat="52.0863870" lon="4.3321120">
    <ele>3.1</ele>
    <time>2021-04-16T05:55:20Z</time>
   </trkpt>
   <trkpt lat="52.0864300" lon="4.3322120">
    <ele>3.1</ele>
    <time>2021-04-16T05:55:22Z</time>
   </trkpt>
   <trkpt lat="52.0864660" lon="4.3322990">
    <ele>3.0</ele>
    <time>2021-04-16T05:55:23Z</time>
   </trkpt>
   <trkpt lat="52.0865200" lon="4.3324150">
    <ele>3.0</ele>
    <time>2021-04-16T05:55:24Z</time>
   </trkpt>
   <trkpt lat="52.0865720" lon="4.3325230">
    <ele>3.0</ele>
    <time>2021-04-16T05:55:26Z</time>
   </trkpt>
   <trkpt lat="52.0866110" lon="4.3326080">
    <ele>3.0</ele>
    <time>2021-04-16T05:55:27Z</time>
   </trkpt>
   <trkpt lat="52.0867070" lon="4.3329490">
    <ele>3.0</ele>
    <time>2021-04-16T05:55:28Z</time>
   </trkpt>
   <trkpt lat="52.0867060" lon="4.3330160">
    <ele>3.0</ele>
    <time>2021-04-16T05:55:29Z</time>
   </trkpt>
   <trkpt lat="52.0867190" lon="4.3331690">
    <ele>3.0</ele>
    <time>2021-04-16T05:55:31Z</time>
   </trkpt>
   <trkpt lat="52.0868080" lon="4.3333690">
    <ele>2.9</ele>
    <time>2021-04-16T05:55:33Z</time>
   </trkpt>
   <trkpt lat="52.0868950" lon="4.3335640">
    <ele>2.9</ele>
    <time>2021-04-16T05:55:35Z</time>
   </trkpt>
   <trkpt lat="52.0869150" lon="4.3336060">
    <ele>2.9</ele>
    <time>2021-04-16T05:55:36Z</time>
   </trkpt>
   <trkpt lat="52.0870410" lon="4.3336620">
    <ele>2.9</ele>
    <time>2021-04-16T05:55:38Z</time>
   </trkpt>
   <trkpt lat="52.0870750" lon="4.3336650">
    <ele>2.9</ele>
    <time>2021-04-16T05:55:39Z</time>
   </trkpt>
   <trkpt lat="52.0871050" lon="4.3336830">
    <ele>2.9</ele>
    <time>2021-04-16T05:55:40Z</time>
   </trkpt>
   <trkpt lat="52.0871210" lon="4.3337030">
    <ele>2.9</ele>
    <time>2021-04-16T05:55:41Z</time>
   </trkpt>
   <trkpt lat="52.0871660" lon="4.3337510">
    <ele>3.0</ele>
    <time>2021-04-16T05:55:43Z</time>
   </trkpt>
   <trkpt lat="52.0872310" lon="4.3338240">
    <ele>3.0</ele>
    <time>2021-04-16T05:55:44Z</time>
   </trkpt>
   <trkpt lat="52.0873660" lon="4.3339790">
    <ele>3.0</ele>
    <time>2021-04-16T05:55:46Z</time>
   </trkpt>
   <trkpt lat="52.0874720" lon="4.3341370">
    <ele>3.0</ele>
    <time>2021-04-16T05:55:48Z</time>
   </trkpt>
   <trkpt lat="52.0876350" lon="4.3343880">
    <ele>3.1</ele>
    <time>2021-04-16T05:55:50Z</time>
   </trkpt>
   <trkpt lat="52.0876690" lon="4.3344470">
    <ele>3.2</ele>
    <time>2021-04-16T05:55:51Z</time>
   </trkpt>
   <trkpt lat="52.0878130" lon="4.3346250">
    <ele>3.4</ele>
    <time>2021-04-16T05:55:53Z</time>
   </trkpt>
   <trkpt lat="52.0878690" lon="4.3347370">
    <ele>3.4</ele>
    <time>2021-04-16T05:55:54Z</time>
   </trkpt>
   <trkpt lat="52.0879200" lon="4.3348070">
    <ele>3.5</ele>
    <time>2021-04-16T05:55:56Z</time>
   </trkpt>
   <trkpt lat="52.0879260" lon="4.3348270">
    <ele>3.5</ele>
    <time>2021-04-16T05:55:57Z</time>
   </trkpt>
   <trkpt lat="52.0879400" lon="4.3348510">
    <ele>3.5</ele>
    <time>2021-04-16T05:55:58Z</time>
   </trkpt>
   <trkpt lat="52.0879460" lon="4.3348750">
    <ele>3.5</ele>
    <time>2021-04-16T05:56:00Z</time>
   </trkpt>
   <trkpt lat="52.0879450" lon="4.3348810">
    <ele>3.5</ele>
    <time>2021-04-16T05:56:02Z</time>
   </trkpt>
   <trkpt lat="52.0879440" lon="4.3348860">
    <ele>3.5</ele>
    <time>2021-04-16T05:56:04Z</time>
   </trkpt>
   <trkpt lat="52.0879430" lon="4.3348910">
    <ele>3.5</ele>
    <time>2021-04-16T05:56:06Z</time>
   </trkpt>
   <trkpt lat="52.0879410" lon="4.3348960">
    <ele>3.5</ele>
    <time>2021-04-16T05:56:07Z</time>
   </trkpt>
   <trkpt lat="52.0879400" lon="4.3349020">
    <ele>3.5</ele>
    <time>2021-04-16T05:56:09Z</time>
   </trkpt>
   <trkpt lat="52.0879390" lon="4.3349070">
    <ele>3.5</ele>
    <time>2021-04-16T05:56:10Z</time>
   </trkpt>
   <trkpt lat="52.0879380" lon="4.3349120">
    <ele>3.5</ele>
    <time>2021-04-16T05:56:12Z</time>
   </trkpt>
   <trkpt lat="52.0879370" lon="4.3349170">
    <ele>3.5</ele>
    <time>2021-04-16T05:56:13Z</time>
   </trkpt>
   <trkpt lat="52.0879360" lon="4.3349230">
    <ele>3.5</ele>
    <time>2021-04-16T05:56:14Z</time>
   </trkpt>
   <trkpt lat="52.0879350" lon="4.3349280">
    <ele>3.5</ele>
    <time>2021-04-16T05:56:15Z</time>
   </trkpt>
   <trkpt lat="52.0879340" lon="4.3349330">
    <ele>3.5</ele>
    <time>2021-04-16T05:56:17Z</time>
   </trkpt>
   <trkpt lat="52.0879320" lon="4.3349380">
    <ele>3.5</ele>
    <time>2021-04-16T05:56:18Z</time>
   </trkpt>
   <trkpt lat="52.0879310" lon="4.3349440">
    <ele>3.5</ele>
    <time>2021-04-16T05:56:19Z</time>
   </trkpt>
   <trkpt lat="52.0879300" lon="4.3349490">
    <ele>3.5</ele>
    <time>2021-04-16T05:56:21Z</time>
   </trkpt>
   <trkpt lat="52.0879290" lon="4.3349540">
    <ele>3.5</ele>
    <time>2021-04-16T05:56:22Z</time>
   </trkpt>
   <trkpt lat="52.0879710" lon="4.3349400">
    <ele>3.5</ele>
    <time>2021-04-16T05:56:23Z</time>
   </trkpt>
   <trkpt lat="52.0880120" lon="4.3349030">
    <ele>3.5</ele>
    <time>2021-04-16T05:56:24Z</time>
   </trkpt>
   <trkpt lat="52.0880860" lon="4.3349850">
    <ele>3.3</ele>
    <time>2021-04-16T05:56:26Z</time>
   </trkpt>
   <trkpt lat="52.0881290" lon="4.3349850">
    <ele>3.4</ele>
    <time>2021-04-16T05:56:27Z</time>
   </trkpt>
   <trkpt lat="52.0881710" lon="4.3349640">
    <ele>3.5</ele>
    <time>2021-04-16T05:56:28Z</time>
   </trkpt>
   <trkpt lat="52.0882150" lon="4.3349400">
    <ele>3.5</ele>
    <time>2021-04-16T05:56:29Z</time>
   </trkpt>
   <trkpt lat="52.0882620" lon="4.3348720">
    <ele>3.5</ele>
    <time>2021-04-16T05:56:31Z</time>
   </trkpt>
   <trkpt lat="52.0882930" lon="4.3348160">
    <ele>3.6</ele>
    <time>2021-04-16T05:56:32Z</time>
   </trkpt>
   <trkpt lat="52.0883270" lon="4.3347680">
    <ele>3.6</ele>
    <time>2021-04-16T05:56:33Z</time>
   </trkpt>
   <trkpt lat="52.0883900" lon="4.3346810">
    <ele>3.7</ele>
    <time>2021-04-16T05:56:35Z</time>
   </trkpt>
   <trkpt lat="52.0884090" lon="4.3346590">
    <ele>3.7</ele>
    <time>2021-04-16T05:56:36Z</time>
   </trkpt>
   <trkpt lat="52.0884170" lon="4.3346550">
    <ele>3.7</ele>
    <time>2021-04-16T05:56:37Z</time>
   </trkpt>
   <trkpt lat="52.0884250" lon="4.3346500">
    <ele>3.7</ele>
    <time>2021-04-16T05:56:38Z</time>
   </trkpt>
   <trkpt lat="52.0884610" lon="4.3346230">
    <ele>3.7</ele>
    <time>2021-04-16T05:56:40Z</time>
   </trkpt>
   <trkpt lat="52.0884810" lon="4.3346070">
    <ele>3.7</ele>
    <time>2021-04-16T05:56:41Z</time>
   </trkpt>
   <trkpt lat="52.0885880" lon="4.3345200">
    <ele>3.8</ele>
    <time>2021-04-16T05:56:43Z</time>
   </trkpt>
   <trkpt lat="52.0886450" lon="4.3344790">
    <ele>3.9</ele>
    <time>2021-04-16T05:56:44Z</time>
   </trkpt>
   <trkpt lat="52.0888510" lon="4.3342750">
    <ele>4.0</ele>
    <time>2021-04-16T05:56:46Z</time>
   </trkpt>
   <trkpt lat="52.0889440" lon="4.3341960">
    <ele>3.8</ele>
    <time>2021-04-16T05:56:47Z</time>
   </trkpt>
   <trkpt lat="52.0890000" lon="4.3341740">
    <ele>3.8</ele>
    <time>2021-04-16T05:56:48Z</time>
   </trkpt>
   <trkpt lat="52.0890280" lon="4.3341130">
    <ele>3.8</ele>
    <time>2021-04-16T05:56:50Z</time>
   </trkpt>
   <trkpt lat="52.0891160" lon="4.3341300">
    <ele>3.7</ele>
    <time>2021-04-16T05:56:52Z</time>
   </trkpt>
   <trkpt lat="52.0891730" lon="4.3339940">
    <ele>3.7</ele>
    <time>2021-04-16T05:56:54Z</time>
   </trkpt>
   <trkpt lat="52.0892110" lon="4.3338960">
    <ele>3.8</ele>
    <time>2021-04-16T05:56:56Z</time>
   </trkpt>
   <trkpt lat="52.0892550" lon="4.3337580">
    <ele>3.9</ele>
    <time>2021-04-16T05:56:58Z</time>
   </trkpt>
   <trkpt lat="52.0893710" lon="4.3335940">
    <ele>4.0</ele>
    <time>2021-04-16T05:57:00Z</time>
   </trkpt>
   <trkpt lat="52.0894100" lon="4.3335640">
    <ele>4.0</ele>
    <time>2021-04-16T05:57:01Z</time>
   </trkpt>
   <trkpt lat="52.0894950" lon="4.3335050">
    <ele>4.1</ele>
    <time>2021-04-16T05:57:03Z</time>
   </trkpt>
   <trkpt lat="52.0896260" lon="4.3333910">
    <ele>4.2</ele>
    <time>2021-04-16T05:57:05Z</time>
   </trkpt>
   <trkpt lat="52.0896540" lon="4.3333640">
    <ele>4.2</ele>
    <time>2021-04-16T05:57:06Z</time>
   </trkpt>
   <trkpt lat="52.0896860" lon="4.3333420">
    <ele>4.2</ele>
    <time>2021-04-16T05:57:08Z</time>
   </trkpt>
   <trkpt lat="52.0897580" lon="4.3331960">
    <ele>4.3</ele>
    <time>2021-04-16T05:57:10Z</time>
   </trkpt>
   <trkpt lat="52.0898080" lon="4.3330840">
    <ele>4.3</ele>
    <time>2021-04-16T05:57:12Z</time>
   </trkpt>
   <trkpt lat="52.0898280" lon="4.3330500">
    <ele>4.4</ele>
    <time>2021-04-16T05:57:13Z</time>
   </trkpt>
   <trkpt lat="52.0899380" lon="4.3329050">
    <ele>4.4</ele>
    <time>2021-04-16T05:57:15Z</time>
   </trkpt>
   <trkpt lat="52.0900290" lon="4.3328000">
    <ele>4.4</ele>
    <time>2021-04-16T05:57:16Z</time>
   </trkpt>
   <trkpt lat="52.0901190" lon="4.3327090">
    <ele>4.5</ele>
    <time>2021-04-16T05:57:17Z</time>
   </trkpt>
   <trkpt lat="52.0902050" lon="4.3326450">
    <ele>4.5</ele>
    <time>2021-04-16T05:57:18Z</time>
   </trkpt>
   <trkpt lat="52.0903460" lon="4.3325150">
    <ele>4.6</ele>
    <time>2021-04-16T05:57:20Z</time>
   </trkpt>
   <trkpt lat="52.0904050" lon="4.3324570">
    <ele>4.7</ele>
    <time>2021-04-16T05:57:22Z</time>
   </trkpt>
   <trkpt lat="52.0904630" lon="4.3323930">
    <ele>4.7</ele>
    <time>2021-04-16T05:57:23Z</time>
   </trkpt>
   <trkpt lat="52.0905040" lon="4.3323440">
    <ele>4.7</ele>
    <time>2021-04-16T05:57:24Z</time>
   </trkpt>
   <trkpt lat="52.0905470" lon="4.3322950">
    <ele>4.8</ele>
    <time>2021-04-16T05:57:25Z</time>
   </trkpt>
   <trkpt lat="52.0906000" lon="4.3322140">
    <ele>4.8</ele>
    <time>2021-04-16T05:57:27Z</time>
   </trkpt>
   <trkpt lat="52.0906520" lon="4.3321420">
    <ele>4.8</ele>
    <time>2021-04-16T05:57:28Z</time>
   </trkpt>
   <trkpt lat="52.0907830" lon="4.3320000">
    <ele>5.0</ele>
    <time>2021-04-16T05:57:30Z</time>
   </trkpt>
   <trkpt lat="52.0908540" lon="4.3319400">
    <ele>5.1</ele>
    <time>2021-04-16T05:57:31Z</time>
   </trkpt>
   <trkpt lat="52.0909690" lon="4.3318210">
    <ele>5.3</ele>
    <time>2021-04-16T05:57:33Z</time>
   </trkpt>
   <trkpt lat="52.0910550" lon="4.3317030">
    <ele>5.5</ele>
    <time>2021-04-16T05:57:35Z</time>
   </trkpt>
   <trkpt lat="52.0911420" lon="4.3315880">
    <ele>5.7</ele>
    <time>2021-04-16T05:57:37Z</time>
   </trkpt>
   <trkpt lat="52.0911810" lon="4.3315270">
    <ele>5.7</ele>
    <time>2021-04-16T05:57:38Z</time>
   </trkpt>
   <trkpt lat="52.0912500" lon="4.3313910">
    <ele>5.9</ele>
    <time>2021-04-16T05:57:40Z</time>
   </trkpt>
   <trkpt lat="52.0912860" lon="4.3313290">
    <ele>5.9</ele>
    <time>2021-04-16T05:57:41Z</time>
   </trkpt>
   <trkpt lat="52.0913650" lon="4.3312400">
    <ele>6.0</ele>
    <time>2021-04-16T05:57:43Z</time>
   </trkpt>
   <trkpt lat="52.0914120" lon="4.3311990">
    <ele>6.0</ele>
    <time>2021-04-16T05:57:44Z</time>
   </trkpt>
   <trkpt lat="52.0915110" lon="4.3311270">
    <ele>5.8</ele>
    <time>2021-04-16T05:57:46Z</time>
   </trkpt>
   <trkpt lat="52.0915780" lon="4.3310570">
    <ele>5.7</ele>
    <time>2021-04-16T05:57:48Z</time>
   </trkpt>
   <trkpt lat="52.0915900" lon="4.3309470">
    <ele>5.6</ele>
    <time>2021-04-16T05:57:50Z</time>
   </trkpt>
   <trkpt lat="52.0916320" lon="4.3309340">
    <ele>5.5</ele>
    <time>2021-04-16T05:57:51Z</time>
   </trkpt>
   <trkpt lat="52.0917150" lon="4.3309210">
    <ele>5.4</ele>
    <time>2021-04-16T05:57:53Z</time>
   </trkpt>
   <trkpt lat="52.0918280" lon="4.3308660">
    <ele>5.2</ele>
    <time>2021-04-16T05:57:55Z</time>
   </trkpt>
   <trkpt lat="52.0918760" lon="4.3308330">
    <ele>5.2</ele>
    <time>2021-04-16T05:57:56Z</time>
   </trkpt>
   <trkpt lat="52.0919840" lon="4.3307260">
    <ele>5.0</ele>
    <time>2021-04-16T05:57:58Z</time>
   </trkpt>
   <trkpt lat="52.0920190" lon="4.3306880">
    <ele>5.0</ele>
    <time>2021-04-16T05:57:59Z</time>
   </trkpt>
   <trkpt lat="52.0920670" lon="4.3306760">
    <ele>4.9</ele>
    <time>2021-04-16T05:58:01Z</time>
   </trkpt>
   <trkpt lat="52.0921380" lon="4.3306550">
    <ele>4.7</ele>
    <time>2021-04-16T05:58:02Z</time>
   </trkpt>
   <trkpt lat="52.0921850" lon="4.3306460">
    <ele>4.6</ele>
    <time>2021-04-16T05:58:03Z</time>
   </trkpt>
   <trkpt lat="52.0922230" lon="4.3306220">
    <ele>4.5</ele>
    <time>2021-04-16T05:58:04Z</time>
   </trkpt>
   <trkpt lat="52.0922810" lon="4.3306280">
    <ele>4.4</ele>
    <time>2021-04-16T05:58:06Z</time>
   </trkpt>
   <trkpt lat="52.0923710" lon="4.3305560">
    <ele>4.3</ele>
    <time>2021-04-16T05:58:08Z</time>
   </trkpt>
   <trkpt lat="52.0924180" lon="4.3305250">
    <ele>4.3</ele>
    <time>2021-04-16T05:58:09Z</time>
   </trkpt>
   <trkpt lat="52.0925160" lon="4.3304630">
    <ele>4.2</ele>
    <time>2021-04-16T05:58:11Z</time>
   </trkpt>
   <trkpt lat="52.0926170" lon="4.3303850">
    <ele>4.1</ele>
    <time>2021-04-16T05:58:13Z</time>
   </trkpt>
   <trkpt lat="52.0926780" lon="4.3303540">
    <ele>4.0</ele>
    <time>2021-04-16T05:58:14Z</time>
   </trkpt>
   <trkpt lat="52.0927840" lon="4.3302750">
    <ele>3.8</ele>
    <time>2021-04-16T05:58:16Z</time>
   </trkpt>
   <trkpt lat="52.0928380" lon="4.3302290">
    <ele>3.8</ele>
    <time>2021-04-16T05:58:17Z</time>
   </trkpt>
   <trkpt lat="52.0928890" lon="4.3301790">
    <ele>3.7</ele>
    <time>2021-04-16T05:58:18Z</time>
   </trkpt>
   <trkpt lat="52.0929910" lon="4.3300740">
    <ele>3.6</ele>
    <time>2021-04-16T05:58:20Z</time>
   </trkpt>
   <trkpt lat="52.0930430" lon="4.3300180">
    <ele>3.6</ele>
    <time>2021-04-16T05:58:21Z</time>
   </trkpt>
   <trkpt lat="52.0931460" lon="4.3299200">
    <ele>3.5</ele>
    <time>2021-04-16T05:58:23Z</time>
   </trkpt>
   <trkpt lat="52.0931950" lon="4.3298670">
    <ele>3.5</ele>
    <time>2021-04-16T05:58:24Z</time>
   </trkpt>
   <trkpt lat="52.0932480" lon="4.3298140">
    <ele>3.5</ele>
    <time>2021-04-16T05:58:25Z</time>
   </trkpt>
   <trkpt lat="52.0932970" lon="4.3297650">
    <ele>3.5</ele>
    <time>2021-04-16T05:58:26Z</time>
   </trkpt>
   <trkpt lat="52.0933840" lon="4.3296520">
    <ele>3.5</ele>
    <time>2021-04-16T05:58:28Z</time>
   </trkpt>
   <trkpt lat="52.0934710" lon="4.3295570">
    <ele>3.4</ele>
    <time>2021-04-16T05:58:30Z</time>
   </trkpt>
   <trkpt lat="52.0935130" lon="4.3295020">
    <ele>3.4</ele>
    <time>2021-04-16T05:58:31Z</time>
   </trkpt>
   <trkpt lat="52.0936080" lon="4.3294090">
    <ele>3.4</ele>
    <time>2021-04-16T05:58:33Z</time>
   </trkpt>
   <trkpt lat="52.0936580" lon="4.3293580">
    <ele>3.4</ele>
    <time>2021-04-16T05:58:34Z</time>
   </trkpt>
   <trkpt lat="52.0937480" lon="4.3292710">
    <ele>3.4</ele>
    <time>2021-04-16T05:58:36Z</time>
   </trkpt>
   <trkpt lat="52.0937980" lon="4.3292230">
    <ele>3.4</ele>
    <time>2021-04-16T05:58:37Z</time>
   </trkpt>
   <trkpt lat="52.0938440" lon="4.3291760">
    <ele>3.4</ele>
    <time>2021-04-16T05:58:38Z</time>
   </trkpt>
   <trkpt lat="52.0938850" lon="4.3291280">
    <ele>3.4</ele>
    <time>2021-04-16T05:58:39Z</time>
   </trkpt>
   <trkpt lat="52.0939340" lon="4.3290730">
    <ele>3.4</ele>
    <time>2021-04-16T05:58:40Z</time>
   </trkpt>
   <trkpt lat="52.0940210" lon="4.3289720">
    <ele>3.4</ele>
    <time>2021-04-16T05:58:42Z</time>
   </trkpt>
   <trkpt lat="52.0941180" lon="4.3288770">
    <ele>3.4</ele>
    <time>2021-04-16T05:58:44Z</time>
   </trkpt>
   <trkpt lat="52.0942090" lon="4.3287680">
    <ele>3.4</ele>
    <time>2021-04-16T05:58:46Z</time>
   </trkpt>
   <trkpt lat="52.0943040" lon="4.3286660">
    <ele>3.4</ele>
    <time>2021-04-16T05:58:48Z</time>
   </trkpt>
   <trkpt lat="52.0943530" lon="4.3286150">
    <ele>3.4</ele>
    <time>2021-04-16T05:58:49Z</time>
   </trkpt>
   <trkpt lat="52.0944510" lon="4.3285160">
    <ele>3.4</ele>
    <time>2021-04-16T05:58:51Z</time>
   </trkpt>
   <trkpt lat="52.0945450" lon="4.3284140">
    <ele>3.4</ele>
    <time>2021-04-16T05:58:53Z</time>
   </trkpt>
   <trkpt lat="52.0946340" lon="4.3283020">
    <ele>3.4</ele>
    <time>2021-04-16T05:58:55Z</time>
   </trkpt>
   <trkpt lat="52.0946830" lon="4.3282480">
    <ele>3.4</ele>
    <time>2021-04-16T05:58:56Z</time>
   </trkpt>
   <trkpt lat="52.0947340" lon="4.3281940">
    <ele>3.4</ele>
    <time>2021-04-16T05:58:57Z</time>
   </trkpt>
   <trkpt lat="52.0948300" lon="4.3280940">
    <ele>3.3</ele>
    <time>2021-04-16T05:58:59Z</time>
   </trkpt>
   <trkpt lat="52.0949230" lon="4.3280040">
    <ele>3.3</ele>
    <time>2021-04-16T05:59:01Z</time>
   </trkpt>
   <trkpt lat="52.0950140" lon="4.3279040">
    <ele>3.4</ele>
    <time>2021-04-16T05:59:03Z</time>
   </trkpt>
   <trkpt lat="52.0951000" lon="4.3277980">
    <ele>3.4</ele>
    <time>2021-04-16T05:59:05Z</time>
   </trkpt>
   <trkpt lat="52.0951860" lon="4.3276960">
    <ele>3.4</ele>
    <time>2021-04-16T05:59:07Z</time>
   </trkpt>
   <trkpt lat="52.0952750" lon="4.3276040">
    <ele>3.5</ele>
    <time>2021-04-16T05:59:09Z</time>
   </trkpt>
   <trkpt lat="52.0953620" lon="4.3275270">
    <ele>3.5</ele>
    <time>2021-04-16T05:59:11Z</time>
   </trkpt>
   <trkpt lat="52.0954500" lon="4.3274210">
    <ele>3.5</ele>
    <time>2021-04-16T05:59:13Z</time>
   </trkpt>
   <trkpt lat="52.0954810" lon="4.3273480">
    <ele>3.5</ele>
    <time>2021-04-16T05:59:14Z</time>
   </trkpt>
   <trkpt lat="52.0955680" lon="4.3272410">
    <ele>3.4</ele>
    <time>2021-04-16T05:59:16Z</time>
   </trkpt>
   <trkpt lat="52.0956150" lon="4.3271910">
    <ele>3.4</ele>
    <time>2021-04-16T05:59:17Z</time>
   </trkpt>
   <trkpt lat="52.0957160" lon="4.3271030">
    <ele>3.3</ele>
    <time>2021-04-16T05:59:19Z</time>
   </trkpt>
   <trkpt lat="52.0957660" lon="4.3270510">
    <ele>3.3</ele>
    <time>2021-04-16T05:59:20Z</time>
   </trkpt>
   <trkpt lat="52.0958120" lon="4.3269980">
    <ele>3.3</ele>
    <time>2021-04-16T05:59:21Z</time>
   </trkpt>
   <trkpt lat="52.0958990" lon="4.3268920">
    <ele>3.3</ele>
    <time>2021-04-16T05:59:23Z</time>
   </trkpt>
   <trkpt lat="52.0959450" lon="4.3268400">
    <ele>3.3</ele>
    <time>2021-04-16T05:59:24Z</time>
   </trkpt>
   <trkpt lat="52.0959880" lon="4.3267820">
    <ele>3.3</ele>
    <time>2021-04-16T05:59:25Z</time>
   </trkpt>
   <trkpt lat="52.0960740" lon="4.3266760">
    <ele>3.4</ele>
    <time>2021-04-16T05:59:27Z</time>
   </trkpt>
   <trkpt lat="52.0961160" lon="4.3266220">
    <ele>3.4</ele>
    <time>2021-04-16T05:59:28Z</time>
   </trkpt>
   <trkpt lat="52.0962040" lon="4.3265060">
    <ele>3.4</ele>
    <time>2021-04-16T05:59:30Z</time>
   </trkpt>
   <trkpt lat="52.0962910" lon="4.3264120">
    <ele>3.5</ele>
    <time>2021-04-16T05:59:32Z</time>
   </trkpt>
   <trkpt lat="52.0963360" lon="4.3263620">
    <ele>3.5</ele>
    <time>2021-04-16T05:59:33Z</time>
   </trkpt>
   <trkpt lat="52.0963790" lon="4.3263090">
    <ele>3.5</ele>
    <time>2021-04-16T05:59:34Z</time>
   </trkpt>
   <trkpt lat="52.0964270" lon="4.3262550">
    <ele>3.5</ele>
    <time>2021-04-16T05:59:35Z</time>
   </trkpt>
   <trkpt lat="52.0965120" lon="4.3261540">
    <ele>3.5</ele>
    <time>2021-04-16T05:59:37Z</time>
   </trkpt>
   <trkpt lat="52.0965640" lon="4.3260980">
    <ele>3.5</ele>
    <time>2021-04-16T05:59:38Z</time>
   </trkpt>
   <trkpt lat="52.0966550" lon="4.3260060">
    <ele>3.5</ele>
    <time>2021-04-16T05:59:40Z</time>
   </trkpt>
   <trkpt lat="52.0967020" lon="4.3259540">
    <ele>3.5</ele>
    <time>2021-04-16T05:59:41Z</time>
   </trkpt>
   <trkpt lat="52.0967960" lon="4.3258640">
    <ele>3.4</ele>
    <time>2021-04-16T05:59:43Z</time>
   </trkpt>
   <trkpt lat="52.0968450" lon="4.3258080">
    <ele>3.4</ele>
    <time>2021-04-16T05:59:44Z</time>
   </trkpt>
   <trkpt lat="52.0969320" lon="4.3256950">
    <ele>3.4</ele>
    <time>2021-04-16T05:59:46Z</time>
   </trkpt>
   <trkpt lat="52.0969770" lon="4.3256380">
    <ele>3.4</ele>
    <time>2021-04-16T05:59:47Z</time>
   </trkpt>
   <trkpt lat="52.0970650" lon="4.3255300">
    <ele>3.4</ele>
    <time>2021-04-16T05:59:49Z</time>
   </trkpt>
   <trkpt lat="52.0971500" lon="4.3254200">
    <ele>3.4</ele>
    <time>2021-04-16T05:59:51Z</time>
   </trkpt>
   <trkpt lat="52.0971920" lon="4.3253640">
    <ele>3.4</ele>
    <time>2021-04-16T05:59:52Z</time>
   </trkpt>
   <trkpt lat="52.0972730" lon="4.3252520">
    <ele>3.5</ele>
    <time>2021-04-16T05:59:54Z</time>
   </trkpt>
   <trkpt lat="52.0973200" lon="4.3252020">
    <ele>3.5</ele>
    <time>2021-04-16T05:59:55Z</time>
   </trkpt>
   <trkpt lat="52.0973650" lon="4.3251450">
    <ele>3.5</ele>
    <time>2021-04-16T05:59:56Z</time>
   </trkpt>
   <trkpt lat="52.0974620" lon="4.3250640">
    <ele>3.5</ele>
    <time>2021-04-16T05:59:58Z</time>
   </trkpt>
   <trkpt lat="52.0975050" lon="4.3250240">
    <ele>3.5</ele>
    <time>2021-04-16T05:59:59Z</time>
   </trkpt>
   <trkpt lat="52.0975460" lon="4.3249680">
    <ele>3.5</ele>
    <time>2021-04-16T06:00:00Z</time>
   </trkpt>
   <trkpt lat="52.0976360" lon="4.3248550">
    <ele>3.5</ele>
    <time>2021-04-16T06:00:02Z</time>
   </trkpt>
   <trkpt lat="52.0977180" lon="4.3247540">
    <ele>3.6</ele>
    <time>2021-04-16T06:00:04Z</time>
   </trkpt>
   <trkpt lat="52.0978050" lon="4.3246590">
    <ele>3.6</ele>
    <time>2021-04-16T06:00:06Z</time>
   </trkpt>
   <trkpt lat="52.0978440" lon="4.3246030">
    <ele>3.6</ele>
    <time>2021-04-16T06:00:07Z</time>
   </trkpt>
   <trkpt lat="52.0979300" lon="4.3245070">
    <ele>3.7</ele>
    <time>2021-04-16T06:00:09Z</time>
   </trkpt>
   <trkpt lat="52.0980170" lon="4.3244080">
    <ele>3.7</ele>
    <time>2021-04-16T06:00:11Z</time>
   </trkpt>
   <trkpt lat="52.0981070" lon="4.3243170">
    <ele>3.7</ele>
    <time>2021-04-16T06:00:13Z</time>
   </trkpt>
   <trkpt lat="52.0981790" lon="4.3242310">
    <ele>3.6</ele>
    <time>2021-04-16T06:00:15Z</time>
   </trkpt>
   <trkpt lat="52.0982670" lon="4.3241320">
    <ele>3.6</ele>
    <time>2021-04-16T06:00:17Z</time>
   </trkpt>
   <trkpt lat="52.0983700" lon="4.3240320">
    <ele>3.6</ele>
    <time>2021-04-16T06:00:19Z</time>
   </trkpt>
   <trkpt lat="52.0984150" lon="4.3239780">
    <ele>3.6</ele>
    <time>2021-04-16T06:00:20Z</time>
   </trkpt>
   <trkpt lat="52.0984570" lon="4.3239250">
    <ele>3.6</ele>
    <time>2021-04-16T06:00:21Z</time>
   </trkpt>
   <trkpt lat="52.0985620" lon="4.3238050">
    <ele>3.7</ele>
    <time>2021-04-16T06:00:23Z</time>
   </trkpt>
   <trkpt lat="52.0986010" lon="4.3237540">
    <ele>3.7</ele>
    <time>2021-04-16T06:00:24Z</time>
   </trkpt>
   <trkpt lat="52.0986430" lon="4.3236980">
    <ele>3.7</ele>
    <time>2021-04-16T06:00:25Z</time>
   </trkpt>
   <trkpt lat="52.0987260" lon="4.3235920">
    <ele>3.7</ele>
    <time>2021-04-16T06:00:27Z</time>
   </trkpt>
   <trkpt lat="52.0987740" lon="4.3235500">
    <ele>3.7</ele>
    <time>2021-04-16T06:00:28Z</time>
   </trkpt>
   <trkpt lat="52.0988730" lon="4.3234700">
    <ele>3.7</ele>
    <time>2021-04-16T06:00:30Z</time>
   </trkpt>
   <trkpt lat="52.0989640" lon="4.3233680">
    <ele>3.7</ele>
    <time>2021-04-16T06:00:32Z</time>
   </trkpt>
   <trkpt lat="52.0990110" lon="4.3233060">
    <ele>3.7</ele>
    <time>2021-04-16T06:00:33Z</time>
   </trkpt>
   <trkpt lat="52.0990480" lon="4.3232400">
    <ele>3.7</ele>
    <time>2021-04-16T06:00:34Z</time>
   </trkpt>
   <trkpt lat="52.0990910" lon="4.3231770">
    <ele>3.7</ele>
    <time>2021-04-16T06:00:35Z</time>
   </trkpt>
   <trkpt lat="52.0991700" lon="4.3230650">
    <ele>3.7</ele>
    <time>2021-04-16T06:00:37Z</time>
   </trkpt>
   <trkpt lat="52.0991910" lon="4.3230010">
    <ele>3.7</ele>
    <time>2021-04-16T06:00:39Z</time>
   </trkpt>
   <trkpt lat="52.0992150" lon="4.3229530">
    <ele>3.7</ele>
    <time>2021-04-16T06:00:41Z</time>
   </trkpt>
   <trkpt lat="52.0993330" lon="4.3228080">
    <ele>3.7</ele>
    <time>2021-04-16T06:00:43Z</time>
   </trkpt>
   <trkpt lat="52.0994710" lon="4.3226540">
    <ele>3.6</ele>
    <time>2021-04-16T06:00:45Z</time>
   </trkpt>
   <trkpt lat="52.0995870" lon="4.3225250">
    <ele>3.6</ele>
    <time>2021-04-16T06:00:47Z</time>
   </trkpt>
   <trkpt lat="52.0996400" lon="4.3224640">
    <ele>3.6</ele>
    <time>2021-04-16T06:00:48Z</time>
   </trkpt>
   <trkpt lat="52.0997440" lon="4.3223480">
    <ele>3.6</ele>
    <time>2021-04-16T06:00:50Z</time>
   </trkpt>
   <trkpt lat="52.0997670" lon="4.3223220">
    <ele>3.6</ele>
    <time>2021-04-16T06:00:51Z</time>
   </trkpt>
   <trkpt lat="52.0997830" lon="4.3223040">
    <ele>3.6</ele>
    <time>2021-04-16T06:00:53Z</time>
   </trkpt>
   <trkpt lat="52.0997990" lon="4.3222850">
    <ele>3.6</ele>
    <time>2021-04-16T06:00:54Z</time>
   </trkpt>
   <trkpt lat="52.0998150" lon="4.3222670">
    <ele>3.6</ele>
    <time>2021-04-16T06:00:55Z</time>
   </trkpt>
   <trkpt lat="52.0998550" lon="4.3222210">
    <ele>3.6</ele>
    <time>2021-04-16T06:00:57Z</time>
   </trkpt>
   <trkpt lat="52.0998940" lon="4.3221780">
    <ele>3.6</ele>
    <time>2021-04-16T06:00:59Z</time>
   </trkpt>
   <trkpt lat="52.0999260" lon="4.3221360">
    <ele>3.6</ele>
    <time>2021-04-16T06:01:00Z</time>
   </trkpt>
   <trkpt lat="52.0999770" lon="4.3220660">
    <ele>3.6</ele>
    <time>2021-04-16T06:01:01Z</time>
   </trkpt>
   <trkpt lat="52.1000220" lon="4.3220060">
    <ele>3.6</ele>
    <time>2021-04-16T06:01:02Z</time>
   </trkpt>
   <trkpt lat="52.1000540" lon="4.3219030">
    <ele>3.6</ele>
    <time>2021-04-16T06:01:04Z</time>
   </trkpt>
   <trkpt lat="52.1001120" lon="4.3218370">
    <ele>3.6</ele>
    <time>2021-04-16T06:01:05Z</time>
   </trkpt>
   <trkpt lat="52.1001750" lon="4.3217620">
    <ele>3.6</ele>
    <time>2021-04-16T06:01:07Z</time>
   </trkpt>
   <trkpt lat="52.1002080" lon="4.3217210">
    <ele>3.6</ele>
    <time>2021-04-16T06:01:08Z</time>
   </trkpt>
   <trkpt lat="52.1002710" lon="4.3216460">
    <ele>3.6</ele>
    <time>2021-04-16T06:01:10Z</time>
   </trkpt>
   <trkpt lat="52.1003670" lon="4.3215630">
    <ele>3.7</ele>
    <time>2021-04-16T06:01:12Z</time>
   </trkpt>
   <trkpt lat="52.1004490" lon="4.3214920">
    <ele>3.7</ele>
    <time>2021-04-16T06:01:14Z</time>
   </trkpt>
   <trkpt lat="52.1004910" lon="4.3214490">
    <ele>3.7</ele>
    <time>2021-04-16T06:01:15Z</time>
   </trkpt>
   <trkpt lat="52.1005420" lon="4.3213960">
    <ele>3.7</ele>
    <time>2021-04-16T06:01:16Z</time>
   </trkpt>
   <trkpt lat="52.1006970" lon="4.3212220">
    <ele>3.6</ele>
    <time>2021-04-16T06:01:18Z</time>
   </trkpt>
   <trkpt lat="52.1008330" lon="4.3210850">
    <ele>3.6</ele>
    <time>2021-04-16T06:01:20Z</time>
   </trkpt>
   <trkpt lat="52.1009380" lon="4.3209660">
    <ele>3.5</ele>
    <time>2021-04-16T06:01:22Z</time>
   </trkpt>
   <trkpt lat="52.1009850" lon="4.3209190">
    <ele>3.5</ele>
    <time>2021-04-16T06:01:23Z</time>
   </trkpt>
   <trkpt lat="52.1010330" lon="4.3208820">
    <ele>3.5</ele>
    <time>2021-04-16T06:01:24Z</time>
   </trkpt>
   <trkpt lat="52.1011270" lon="4.3207770">
    <ele>3.5</ele>
    <time>2021-04-16T06:01:26Z</time>
   </trkpt>
   <trkpt lat="52.1012150" lon="4.3206760">
    <ele>3.5</ele>
    <time>2021-04-16T06:01:28Z</time>
   </trkpt>
   <trkpt lat="52.1012550" lon="4.3206270">
    <ele>3.6</ele>
    <time>2021-04-16T06:01:29Z</time>
   </trkpt>
   <trkpt lat="52.1012970" lon="4.3205710">
    <ele>3.6</ele>
    <time>2021-04-16T06:01:30Z</time>
   </trkpt>
   <trkpt lat="52.1013420" lon="4.3205120">
    <ele>3.6</ele>
    <time>2021-04-16T06:01:31Z</time>
   </trkpt>
   <trkpt lat="52.1014250" lon="4.3204170">
    <ele>3.6</ele>
    <time>2021-04-16T06:01:33Z</time>
   </trkpt>
   <trkpt lat="52.1014650" lon="4.3203610">
    <ele>3.6</ele>
    <time>2021-04-16T06:01:34Z</time>
   </trkpt>
   <trkpt lat="52.1015650" lon="4.3202560">
    <ele>3.6</ele>
    <time>2021-04-16T06:01:36Z</time>
   </trkpt>
   <trkpt lat="52.1016240" lon="4.3201950">
    <ele>3.7</ele>
    <time>2021-04-16T06:01:37Z</time>
   </trkpt>
   <trkpt lat="52.1017310" lon="4.3200500">
    <ele>3.8</ele>
    <time>2021-04-16T06:01:39Z</time>
   </trkpt>
   <trkpt lat="52.1017830" lon="4.3199820">
    <ele>3.8</ele>
    <time>2021-04-16T06:01:40Z</time>
   </trkpt>
   <trkpt lat="52.1018380" lon="4.3199200">
    <ele>3.9</ele>
    <time>2021-04-16T06:01:41Z</time>
   </trkpt>
   <trkpt lat="52.1019520" lon="4.3198000">
    <ele>4.0</ele>
    <time>2021-04-16T06:01:43Z</time>
   </trkpt>
   <trkpt lat="52.1020700" lon="4.3197090">
    <ele>4.1</ele>
    <time>2021-04-16T06:01:45Z</time>
   </trkpt>
   <trkpt lat="52.1021730" lon="4.3195990">
    <ele>4.3</ele>
    <time>2021-04-16T06:01:47Z</time>
   </trkpt>
   <trkpt lat="52.1022570" lon="4.3194750">
    <ele>4.4</ele>
    <time>2021-04-16T06:01:49Z</time>
   </trkpt>
   <trkpt lat="52.1023010" lon="4.3194240">
    <ele>4.4</ele>
    <time>2021-04-16T06:01:50Z</time>
   </trkpt>
   <trkpt lat="52.1023460" lon="4.3193710">
    <ele>4.5</ele>
    <time>2021-04-16T06:01:51Z</time>
   </trkpt>
   <trkpt lat="52.1023890" lon="4.3193200">
    <ele>4.5</ele>
    <time>2021-04-16T06:01:52Z</time>
   </trkpt>
   <trkpt lat="52.1024720" lon="4.3192260">
    <ele>4.6</ele>
    <time>2021-04-16T06:01:54Z</time>
   </trkpt>
   <trkpt lat="52.1025520" lon="4.3191420">
    <ele>4.7</ele>
    <time>2021-04-16T06:01:56Z</time>
   </trkpt>
   <trkpt lat="52.1026330" lon="4.3190460">
    <ele>4.8</ele>
    <time>2021-04-16T06:01:58Z</time>
   </trkpt>
   <trkpt lat="52.1026700" lon="4.3189910">
    <ele>4.8</ele>
    <time>2021-04-16T06:01:59Z</time>
   </trkpt>
   <trkpt lat="52.1027490" lon="4.3188850">
    <ele>4.9</ele>
    <time>2021-04-16T06:02:01Z</time>
   </trkpt>
   <trkpt lat="52.1028340" lon="4.3187970">
    <ele>5.0</ele>
    <time>2021-04-16T06:02:03Z</time>
   </trkpt>
   <trkpt lat="52.1028790" lon="4.3187470">
    <ele>5.0</ele>
    <time>2021-04-16T06:02:04Z</time>
   </trkpt>
   <trkpt lat="52.1029660" lon="4.3186400">
    <ele>5.1</ele>
    <time>2021-04-16T06:02:06Z</time>
   </trkpt>
   <trkpt lat="52.1030520" lon="4.3185390">
    <ele>5.2</ele>
    <time>2021-04-16T06:02:08Z</time>
   </trkpt>
   <trkpt lat="52.1030950" lon="4.3184910">
    <ele>5.2</ele>
    <time>2021-04-16T06:02:09Z</time>
   </trkpt>
   <trkpt lat="52.1031740" lon="4.3183940">
    <ele>5.3</ele>
    <time>2021-04-16T06:02:11Z</time>
   </trkpt>
   <trkpt lat="52.1032440" lon="4.3183080">
    <ele>5.4</ele>
    <time>2021-04-16T06:02:13Z</time>
   </trkpt>
   <trkpt lat="52.1032810" lon="4.3182540">
    <ele>5.5</ele>
    <time>2021-04-16T06:02:14Z</time>
   </trkpt>
   <trkpt lat="52.1033180" lon="4.3182020">
    <ele>5.5</ele>
    <time>2021-04-16T06:02:15Z</time>
   </trkpt>
   <trkpt lat="52.1033980" lon="4.3181190">
    <ele>5.7</ele>
    <time>2021-04-16T06:02:17Z</time>
   </trkpt>
   <trkpt lat="52.1034730" lon="4.3180480">
    <ele>5.8</ele>
    <time>2021-04-16T06:02:19Z</time>
   </trkpt>
   <trkpt lat="52.1034990" lon="4.3180070">
    <ele>5.9</ele>
    <time>2021-04-16T06:02:20Z</time>
   </trkpt>
   <trkpt lat="52.1035700" lon="4.3179430">
    <ele>6.0</ele>
    <time>2021-04-16T06:02:22Z</time>
   </trkpt>
   <trkpt lat="52.1036030" lon="4.3179910">
    <ele>6.1</ele>
    <time>2021-04-16T06:02:23Z</time>
   </trkpt>
   <trkpt lat="52.1036410" lon="4.3179710">
    <ele>6.2</ele>
    <time>2021-04-16T06:02:24Z</time>
   </trkpt>
   <trkpt lat="52.1036790" lon="4.3179180">
    <ele>6.2</ele>
    <time>2021-04-16T06:02:25Z</time>
   </trkpt>
   <trkpt lat="52.1037160" lon="4.3178600">
    <ele>6.3</ele>
    <time>2021-04-16T06:02:26Z</time>
   </trkpt>
   <trkpt lat="52.1037510" lon="4.3178090">
    <ele>6.4</ele>
    <time>2021-04-16T06:02:28Z</time>
   </trkpt>
   <trkpt lat="52.1038070" lon="4.3177330">
    <ele>6.6</ele>
    <time>2021-04-16T06:02:30Z</time>
   </trkpt>
   <trkpt lat="52.1038300" lon="4.3177040">
    <ele>6.7</ele>
    <time>2021-04-16T06:02:31Z</time>
   </trkpt>
   <trkpt lat="52.1038560" lon="4.3176670">
    <ele>6.7</ele>
    <time>2021-04-16T06:02:32Z</time>
   </trkpt>
   <trkpt lat="52.1038880" lon="4.3176200">
    <ele>6.9</ele>
    <time>2021-04-16T06:02:34Z</time>
   </trkpt>
   <trkpt lat="52.1039190" lon="4.3175930">
    <ele>7.0</ele>
    <time>2021-04-16T06:02:36Z</time>
   </trkpt>
   <trkpt lat="52.1039330" lon="4.3175820">
    <ele>7.0</ele>
    <time>2021-04-16T06:02:37Z</time>
   </trkpt>
   <trkpt lat="52.1039430" lon="4.3175750">
    <ele>7.0</ele>
    <time>2021-04-16T06:02:38Z</time>
   </trkpt>
   <trkpt lat="52.1039430" lon="4.3175570">
    <ele>7.1</ele>
    <time>2021-04-16T06:02:40Z</time>
   </trkpt>
   <trkpt lat="52.1039420" lon="4.3175470">
    <ele>7.1</ele>
    <time>2021-04-16T06:02:42Z</time>
   </trkpt>
   <trkpt lat="52.1039450" lon="4.3175400">
    <ele>7.1</ele>
    <time>2021-04-16T06:02:44Z</time>
   </trkpt>
   <trkpt lat="52.1039410" lon="4.3175340">
    <ele>7.1</ele>
    <time>2021-04-16T06:02:45Z</time>
   </trkpt>
   <trkpt lat="52.1039350" lon="4.3175220">
    <ele>7.1</ele>
    <time>2021-04-16T06:02:47Z</time>
   </trkpt>
   <trkpt lat="52.1039360" lon="4.3175190">
    <ele>7.1</ele>
    <time>2021-04-16T06:02:49Z</time>
   </trkpt>
   <trkpt lat="52.1039350" lon="4.3175130">
    <ele>7.1</ele>
    <time>2021-04-16T06:02:50Z</time>
   </trkpt>
   <trkpt lat="52.1039700" lon="4.3175100">
    <ele>7.2</ele>
    <time>2021-04-16T06:02:51Z</time>
   </trkpt>
   <trkpt lat="52.1040240" lon="4.3174790">
    <ele>7.3</ele>
    <time>2021-04-16T06:02:53Z</time>
   </trkpt>
   <trkpt lat="52.1040540" lon="4.3174580">
    <ele>7.4</ele>
    <time>2021-04-16T06:02:54Z</time>
   </trkpt>
   <trkpt lat="52.1040970" lon="4.3174110">
    <ele>7.5</ele>
    <time>2021-04-16T06:02:56Z</time>
   </trkpt>
   <trkpt lat="52.1041210" lon="4.3173800">
    <ele>7.5</ele>
    <time>2021-04-16T06:02:57Z</time>
   </trkpt>
   <trkpt lat="52.1041680" lon="4.3173230">
    <ele>7.6</ele>
    <time>2021-04-16T06:02:58Z</time>
   </trkpt>
   <trkpt lat="52.1041900" lon="4.3172900">
    <ele>7.7</ele>
    <time>2021-04-16T06:03:00Z</time>
   </trkpt>
   <trkpt lat="52.1042150" lon="4.3172570">
    <ele>7.6</ele>
    <time>2021-04-16T06:03:01Z</time>
   </trkpt>
   <trkpt lat="52.1042710" lon="4.3172560">
    <ele>7.4</ele>
    <time>2021-04-16T06:03:03Z</time>
   </trkpt>
   <trkpt lat="52.1043190" lon="4.3173070">
    <ele>7.2</ele>
    <time>2021-04-16T06:03:04Z</time>
   </trkpt>
   <trkpt lat="52.1043440" lon="4.3173470">
    <ele>7.2</ele>
    <time>2021-04-16T06:03:06Z</time>
   </trkpt>
   <trkpt lat="52.1043890" lon="4.3174220">
    <ele>7.1</ele>
    <time>2021-04-16T06:03:08Z</time>
   </trkpt>
   <trkpt lat="52.1044340" lon="4.3175020">
    <ele>7.0</ele>
    <time>2021-04-16T06:03:09Z</time>
   </trkpt>
   <trkpt lat="52.1044670" lon="4.3175640">
    <ele>7.0</ele>
    <time>2021-04-16T06:03:10Z</time>
   </trkpt>
   <trkpt lat="52.1044960" lon="4.3176130">
    <ele>7.0</ele>
    <time>2021-04-16T06:03:11Z</time>
   </trkpt>
   <trkpt lat="52.1045540" lon="4.3177360">
    <ele>7.0</ele>
    <time>2021-04-16T06:03:13Z</time>
   </trkpt>
   <trkpt lat="52.1045900" lon="4.3177890">
    <ele>7.0</ele>
    <time>2021-04-16T06:03:14Z</time>
   </trkpt>
   <trkpt lat="52.1046080" lon="4.3178440">
    <ele>7.0</ele>
    <time>2021-04-16T06:03:15Z</time>
   </trkpt>
   <trkpt lat="52.1046290" lon="4.3178950">
    <ele>7.0</ele>
    <time>2021-04-16T06:03:16Z</time>
   </trkpt>
   <trkpt lat="52.1046630" lon="4.3179470">
    <ele>7.1</ele>
    <time>2021-04-16T06:03:17Z</time>
   </trkpt>
   <trkpt lat="52.1047150" lon="4.3180150">
    <ele>7.1</ele>
    <time>2021-04-16T06:03:18Z</time>
   </trkpt>
   <trkpt lat="52.1047900" lon="4.3181120">
    <ele>7.2</ele>
    <time>2021-04-16T06:03:20Z</time>
   </trkpt>
   <trkpt lat="52.1048300" lon="4.3181720">
    <ele>7.2</ele>
    <time>2021-04-16T06:03:22Z</time>
   </trkpt>
   <trkpt lat="52.1048740" lon="4.3182360">
    <ele>7.1</ele>
    <time>2021-04-16T06:03:23Z</time>
   </trkpt>
   <trkpt lat="52.1049130" lon="4.3183030">
    <ele>7.1</ele>
    <time>2021-04-16T06:03:24Z</time>
   </trkpt>
   <trkpt lat="52.1049470" lon="4.3183600">
    <ele>7.1</ele>
    <time>2021-04-16T06:03:25Z</time>
   </trkpt>
   <trkpt lat="52.1049790" lon="4.3184210">
    <ele>7.1</ele>
    <time>2021-04-16T06:03:26Z</time>
   </trkpt>
   <trkpt lat="52.1050390" lon="4.3185400">
    <ele>7.1</ele>
    <time>2021-04-16T06:03:29Z</time>
   </trkpt>
   <trkpt lat="52.1051070" lon="4.3186470">
    <ele>7.1</ele>
    <time>2021-04-16T06:03:30Z</time>
   </trkpt>
   <trkpt lat="52.1051470" lon="4.3187120">
    <ele>7.1</ele>
    <time>2021-04-16T06:03:31Z</time>
   </trkpt>
   <trkpt lat="52.1052240" lon="4.3188280">
    <ele>7.1</ele>
    <time>2021-04-16T06:03:33Z</time>
   </trkpt>
   <trkpt lat="52.1052690" lon="4.3188840">
    <ele>7.0</ele>
    <time>2021-04-16T06:03:34Z</time>
   </trkpt>
   <trkpt lat="52.1053280" lon="4.3189890">
    <ele>7.0</ele>
    <time>2021-04-16T06:03:36Z</time>
   </trkpt>
   <trkpt lat="52.1053520" lon="4.3189470">
    <ele>7.0</ele>
    <time>2021-04-16T06:03:37Z</time>
   </trkpt>
   <trkpt lat="52.1054200" lon="4.3191130">
    <ele>7.0</ele>
    <time>2021-04-16T06:03:39Z</time>
   </trkpt>
   <trkpt lat="52.1054440" lon="4.3191810">
    <ele>7.0</ele>
    <time>2021-04-16T06:03:40Z</time>
   </trkpt>
   <trkpt lat="52.1055060" lon="4.3193550">
    <ele>7.0</ele>
    <time>2021-04-16T06:03:42Z</time>
   </trkpt>
   <trkpt lat="52.1055350" lon="4.3194340">
    <ele>7.0</ele>
    <time>2021-04-16T06:03:43Z</time>
   </trkpt>
   <trkpt lat="52.1055970" lon="4.3195850">
    <ele>7.0</ele>
    <time>2021-04-16T06:03:45Z</time>
   </trkpt>
   <trkpt lat="52.1056200" lon="4.3196550">
    <ele>7.0</ele>
    <time>2021-04-16T06:03:46Z</time>
   </trkpt>
   <trkpt lat="52.1056810" lon="4.3197720">
    <ele>7.0</ele>
    <time>2021-04-16T06:03:48Z</time>
   </trkpt>
   <trkpt lat="52.1057110" lon="4.3198390">
    <ele>7.0</ele>
    <time>2021-04-16T06:03:49Z</time>
   </trkpt>
   <trkpt lat="52.1057420" lon="4.3199080">
    <ele>7.0</ele>
    <time>2021-04-16T06:03:50Z</time>
   </trkpt>
   <trkpt lat="52.1057760" lon="4.3199680">
    <ele>7.1</ele>
    <time>2021-04-16T06:03:51Z</time>
   </trkpt>
   <trkpt lat="52.1058230" lon="4.3200430">
    <ele>7.1</ele>
    <time>2021-04-16T06:03:52Z</time>
   </trkpt>
   <trkpt lat="52.1058620" lon="4.3201170">
    <ele>7.1</ele>
    <time>2021-04-16T06:03:54Z</time>
   </trkpt>
   <trkpt lat="52.1058830" lon="4.3201940">
    <ele>7.1</ele>
    <time>2021-04-16T06:03:55Z</time>
   </trkpt>
   <trkpt lat="52.1059350" lon="4.3203460">
    <ele>7.1</ele>
    <time>2021-04-16T06:03:57Z</time>
   </trkpt>
   <trkpt lat="52.1059640" lon="4.3204300">
    <ele>7.1</ele>
    <time>2021-04-16T06:03:58Z</time>
   </trkpt>
   <trkpt lat="52.1060110" lon="4.3204690">
    <ele>7.1</ele>
    <time>2021-04-16T06:03:59Z</time>
   </trkpt>
   <trkpt lat="52.1060360" lon="4.3205040">
    <ele>7.2</ele>
    <time>2021-04-16T06:04:00Z</time>
   </trkpt>
   <trkpt lat="52.1060650" lon="4.3205810">
    <ele>7.2</ele>
    <time>2021-04-16T06:04:02Z</time>
   </trkpt>
   <trkpt lat="52.1060970" lon="4.3206640">
    <ele>7.2</ele>
    <time>2021-04-16T06:04:03Z</time>
   </trkpt>
   <trkpt lat="52.1061190" lon="4.3207240">
    <ele>7.2</ele>
    <time>2021-04-16T06:04:04Z</time>
   </trkpt>
   <trkpt lat="52.1061560" lon="4.3209060">
    <ele>7.1</ele>
    <time>2021-04-16T06:04:06Z</time>
   </trkpt>
   <trkpt lat="52.1061820" lon="4.3209710">
    <ele>7.1</ele>
    <time>2021-04-16T06:04:07Z</time>
   </trkpt>
   <trkpt lat="52.1062390" lon="4.3211320">
    <ele>7.1</ele>
    <time>2021-04-16T06:04:09Z</time>
   </trkpt>
   <trkpt lat="52.1062970" lon="4.3212810">
    <ele>7.0</ele>
    <time>2021-04-16T06:04:11Z</time>
   </trkpt>
   <trkpt lat="52.1063280" lon="4.3213510">
    <ele>7.0</ele>
    <time>2021-04-16T06:04:12Z</time>
   </trkpt>
   <trkpt lat="52.1063260" lon="4.3214290">
    <ele>7.0</ele>
    <time>2021-04-16T06:04:13Z</time>
   </trkpt>
   <trkpt lat="52.1063750" lon="4.3215490">
    <ele>7.1</ele>
    <time>2021-04-16T06:04:15Z</time>
   </trkpt>
   <trkpt lat="52.1064060" lon="4.3216040">
    <ele>7.1</ele>
    <time>2021-04-16T06:04:16Z</time>
   </trkpt>
   <trkpt lat="52.1064890" lon="4.3217440">
    <ele>7.1</ele>
    <time>2021-04-16T06:04:18Z</time>
   </trkpt>
   <trkpt lat="52.1065540" lon="4.3218570">
    <ele>7.1</ele>
    <time>2021-04-16T06:04:20Z</time>
   </trkpt>
   <trkpt lat="52.1065810" lon="4.3219120">
    <ele>7.2</ele>
    <time>2021-04-16T06:04:21Z</time>
   </trkpt>
   <trkpt lat="52.1066550" lon="4.3220490">
    <ele>7.2</ele>
    <time>2021-04-16T06:04:23Z</time>
   </trkpt>
   <trkpt lat="52.1067070" lon="4.3221800">
    <ele>7.3</ele>
    <time>2021-04-16T06:04:25Z</time>
   </trkpt>
   <trkpt lat="52.1067820" lon="4.3223120">
    <ele>7.4</ele>
    <time>2021-04-16T06:04:27Z</time>
   </trkpt>
   <trkpt lat="52.1068520" lon="4.3224080">
    <ele>7.5</ele>
    <time>2021-04-16T06:04:29Z</time>
   </trkpt>
   <trkpt lat="52.1068870" lon="4.3224740">
    <ele>7.5</ele>
    <time>2021-04-16T06:04:30Z</time>
   </trkpt>
   <trkpt lat="52.1069450" lon="4.3226090">
    <ele>7.7</ele>
    <time>2021-04-16T06:04:32Z</time>
   </trkpt>
   <trkpt lat="52.1069720" lon="4.3226730">
    <ele>7.7</ele>
    <time>2021-04-16T06:04:33Z</time>
   </trkpt>
   <trkpt lat="52.1070000" lon="4.3227340">
    <ele>7.8</ele>
    <time>2021-04-16T06:04:34Z</time>
   </trkpt>
   <trkpt lat="52.1070110" lon="4.3227740">
    <ele>7.8</ele>
    <time>2021-04-16T06:04:35Z</time>
   </trkpt>
   <trkpt lat="52.1070640" lon="4.3228620">
    <ele>7.9</ele>
    <time>2021-04-16T06:04:36Z</time>
   </trkpt>
   <trkpt lat="52.1070950" lon="4.3229310">
    <ele>8.0</ele>
    <time>2021-04-16T06:04:38Z</time>
   </trkpt>
   <trkpt lat="52.1071250" lon="4.3229940">
    <ele>8.0</ele>
    <time>2021-04-16T06:04:39Z</time>
   </trkpt>
   <trkpt lat="52.1071640" lon="4.3229820">
    <ele>8.0</ele>
    <time>2021-04-16T06:04:40Z</time>
   </trkpt>
   <trkpt lat="52.1071810" lon="4.3229840">
    <ele>8.0</ele>
    <time>2021-04-16T06:04:41Z</time>
   </trkpt>
   <trkpt lat="52.1072260" lon="4.3230130">
    <ele>8.0</ele>
    <time>2021-04-16T06:04:42Z</time>
   </trkpt>
   <trkpt lat="52.1072720" lon="4.3230240">
    <ele>8.0</ele>
    <time>2021-04-16T06:04:43Z</time>
   </trkpt>
   <trkpt lat="52.1073280" lon="4.3230220">
    <ele>8.0</ele>
    <time>2021-04-16T06:04:44Z</time>
   </trkpt>
   <trkpt lat="52.1073840" lon="4.3230470">
    <ele>8.0</ele>
    <time>2021-04-16T06:04:46Z</time>
   </trkpt>
   <trkpt lat="52.1074740" lon="4.3230030">
    <ele>7.9</ele>
    <time>2021-04-16T06:04:48Z</time>
   </trkpt>
   <trkpt lat="52.1074940" lon="4.3229890">
    <ele>7.9</ele>
    <time>2021-04-16T06:04:49Z</time>
   </trkpt>
   <trkpt lat="52.1075080" lon="4.3229780">
    <ele>7.9</ele>
    <time>2021-04-16T06:04:51Z</time>
   </trkpt>
   <trkpt lat="52.1075210" lon="4.3229680">
    <ele>7.9</ele>
    <time>2021-04-16T06:04:52Z</time>
   </trkpt>
   <trkpt lat="52.1075340" lon="4.3229570">
    <ele>7.9</ele>
    <time>2021-04-16T06:04:53Z</time>
   </trkpt>
   <trkpt lat="52.1076850" lon="4.3229130">
    <ele>7.9</ele>
    <time>2021-04-16T06:04:55Z</time>
   </trkpt>
   <trkpt lat="52.1077600" lon="4.3228850">
    <ele>7.6</ele>
    <time>2021-04-16T06:04:56Z</time>
   </trkpt>
   <trkpt lat="52.1078310" lon="4.3228630">
    <ele>7.6</ele>
    <time>2021-04-16T06:04:57Z</time>
   </trkpt>
   <trkpt lat="52.1079560" lon="4.3228230">
    <ele>7.5</ele>
    <time>2021-04-16T06:04:59Z</time>
   </trkpt>
   <trkpt lat="52.1080190" lon="4.3228160">
    <ele>7.5</ele>
    <time>2021-04-16T06:05:00Z</time>
   </trkpt>
   <trkpt lat="52.1080750" lon="4.3228160">
    <ele>7.4</ele>
    <time>2021-04-16T06:05:01Z</time>
   </trkpt>
   <trkpt lat="52.1081590" lon="4.3228190">
    <ele>7.4</ele>
    <time>2021-04-16T06:05:03Z</time>
   </trkpt>
   <trkpt lat="52.1082430" lon="4.3228580">
    <ele>7.3</ele>
    <time>2021-04-16T06:05:05Z</time>
   </trkpt>
   <trkpt lat="52.1082960" lon="4.3228720">
    <ele>7.3</ele>
    <time>2021-04-16T06:05:06Z</time>
   </trkpt>
   <trkpt lat="52.1083450" lon="4.3228810">
    <ele>7.3</ele>
    <time>2021-04-16T06:05:07Z</time>
   </trkpt>
   <trkpt lat="52.1083880" lon="4.3228920">
    <ele>7.3</ele>
    <time>2021-04-16T06:05:08Z</time>
   </trkpt>
   <trkpt lat="52.1084290" lon="4.3229150">
    <ele>7.2</ele>
    <time>2021-04-16T06:05:09Z</time>
   </trkpt>
   <trkpt lat="52.1084590" lon="4.3229620">
    <ele>7.2</ele>
    <time>2021-04-16T06:05:10Z</time>
   </trkpt>
   <trkpt lat="52.1084740" lon="4.3230380">
    <ele>7.2</ele>
    <time>2021-04-16T06:05:12Z</time>
   </trkpt>
   <trkpt lat="52.1084810" lon="4.3230850">
    <ele>7.2</ele>
    <time>2021-04-16T06:05:13Z</time>
   </trkpt>
   <trkpt lat="52.1084810" lon="4.3230960">
    <ele>7.2</ele>
    <time>2021-04-16T06:05:14Z</time>
   </trkpt>
   <trkpt lat="52.1084900" lon="4.3231410">
    <ele>7.2</ele>
    <time>2021-04-16T06:05:15Z</time>
   </trkpt>
   <trkpt lat="52.1084960" lon="4.3231630">
    <ele>7.1</ele>
    <time>2021-04-16T06:05:16Z</time>
   </trkpt>
   <trkpt lat="52.1085120" lon="4.3232500">
    <ele>7.1</ele>
    <time>2021-04-16T06:05:18Z</time>
   </trkpt>
   <trkpt lat="52.1085180" lon="4.3232960">
    <ele>7.1</ele>
    <time>2021-04-16T06:05:19Z</time>
   </trkpt>
   <trkpt lat="52.1085360" lon="4.3234710">
    <ele>7.0</ele>
    <time>2021-04-16T06:05:22Z</time>
   </trkpt>
   <trkpt lat="52.1085590" lon="4.3236530">
    <ele>6.9</ele>
    <time>2021-04-16T06:05:24Z</time>
   </trkpt>
   <trkpt lat="52.1085730" lon="4.3237990">
    <ele>6.9</ele>
    <time>2021-04-16T06:05:26Z</time>
   </trkpt>
   <trkpt lat="52.1085950" lon="4.3239290">
    <ele>6.9</ele>
    <time>2021-04-16T06:05:27Z</time>
   </trkpt>
   <trkpt lat="52.1086100" lon="4.3240020">
    <ele>6.9</ele>
    <time>2021-04-16T06:05:29Z</time>
   </trkpt>
   <trkpt lat="52.1086370" lon="4.3241230">
    <ele>6.9</ele>
    <time>2021-04-16T06:05:31Z</time>
   </trkpt>
   <trkpt lat="52.1086510" lon="4.3241640">
    <ele>6.9</ele>
    <time>2021-04-16T06:05:32Z</time>
   </trkpt>
   <trkpt lat="52.1086650" lon="4.3242110">
    <ele>6.9</ele>
    <time>2021-04-16T06:05:33Z</time>
   </trkpt>
   <trkpt lat="52.1086680" lon="4.3242240">
    <ele>6.9</ele>
    <time>2021-04-16T06:05:34Z</time>
   </trkpt>
   <trkpt lat="52.1086870" lon="4.3242680">
    <ele>6.9</ele>
    <time>2021-04-16T06:05:36Z</time>
   </trkpt>
   <trkpt lat="52.1086910" lon="4.3242860">
    <ele>6.9</ele>
    <time>2021-04-16T06:05:37Z</time>
   </trkpt>
   <trkpt lat="52.1086920" lon="4.3242900">
    <ele>6.9</ele>
    <time>2021-04-16T06:05:38Z</time>
   </trkpt>
   <trkpt lat="52.1086920" lon="4.3242850">
    <ele>6.9</ele>
    <time>2021-04-16T06:05:40Z</time>
   </trkpt>
   <trkpt lat="52.1086870" lon="4.3242680">
    <ele>6.9</ele>
    <time>2021-04-16T06:05:42Z</time>
   </trkpt>
   <trkpt lat="52.1086830" lon="4.3242540">
    <ele>6.9</ele>
    <time>2021-04-16T06:05:44Z</time>
   </trkpt>
   <trkpt lat="52.1086820" lon="4.3242530">
    <ele>6.9</ele>
    <time>2021-04-16T06:05:45Z</time>
   </trkpt>
   <trkpt lat="52.1086800" lon="4.3242550">
    <ele>6.9</ele>
    <time>2021-04-16T06:05:46Z</time>
   </trkpt>
   <trkpt lat="52.1086800" lon="4.3242530">
    <ele>6.9</ele>
    <time>2021-04-16T06:05:48Z</time>
   </trkpt>
   <trkpt lat="52.1086810" lon="4.3242550">
    <ele>6.9</ele>
    <time>2021-04-16T06:05:49Z</time>
   </trkpt>
   <trkpt lat="52.1086810" lon="4.3242570">
    <ele>6.9</ele>
    <time>2021-04-16T06:05:50Z</time>
   </trkpt>
   <trkpt lat="52.1086810" lon="4.3242640">
    <ele>6.9</ele>
    <time>2021-04-16T06:05:52Z</time>
   </trkpt>
   <trkpt lat="52.1086860" lon="4.3242610">
    <ele>6.9</ele>
    <time>2021-04-16T06:05:54Z</time>
   </trkpt>
   <trkpt lat="52.1086920" lon="4.3242660">
    <ele>6.9</ele>
    <time>2021-04-16T06:05:56Z</time>
   </trkpt>
   <trkpt lat="52.1087060" lon="4.3242510">
    <ele>6.9</ele>
    <time>2021-04-16T06:05:57Z</time>
   </trkpt>
   <trkpt lat="52.1087330" lon="4.3242250">
    <ele>6.9</ele>
    <time>2021-04-16T06:05:59Z</time>
   </trkpt>
   <trkpt lat="52.1087470" lon="4.3242280">
    <ele>6.9</ele>
    <time>2021-04-16T06:06:00Z</time>
   </trkpt>
   <trkpt lat="52.1087580" lon="4.3242220">
    <ele>6.9</ele>
    <time>2021-04-16T06:06:02Z</time>
   </trkpt>
   <trkpt lat="52.1087900" lon="4.3242240">
    <ele>6.9</ele>
    <time>2021-04-16T06:06:04Z</time>
   </trkpt>
   <trkpt lat="52.1088090" lon="4.3242230">
    <ele>6.9</ele>
    <time>2021-04-16T06:06:05Z</time>
   </trkpt>
   <trkpt lat="52.1088540" lon="4.3242510">
    <ele>6.9</ele>
    <time>2021-04-16T06:06:07Z</time>
   </trkpt>
   <trkpt lat="52.1088710" lon="4.3243330">
    <ele>6.9</ele>
    <time>2021-04-16T06:06:09Z</time>
   </trkpt>
   <trkpt lat="52.1088830" lon="4.3243980">
    <ele>6.9</ele>
    <time>2021-04-16T06:06:10Z</time>
   </trkpt>
   <trkpt lat="52.1088970" lon="4.3244330">
    <ele>6.9</ele>
    <time>2021-04-16T06:06:11Z</time>
   </trkpt>
   <trkpt lat="52.1089180" lon="4.3244910">
    <ele>6.9</ele>
    <time>2021-04-16T06:06:13Z</time>
   </trkpt>
   <trkpt lat="52.1089340" lon="4.3245540">
    <ele>6.9</ele>
    <time>2021-04-16T06:06:14Z</time>
   </trkpt>
   <trkpt lat="52.1089460" lon="4.3246070">
    <ele>6.9</ele>
    <time>2021-04-16T06:06:16Z</time>
   </trkpt>
   <trkpt lat="52.1089640" lon="4.3246420">
    <ele>6.9</ele>
    <time>2021-04-16T06:06:17Z</time>
   </trkpt>
   <trkpt lat="52.1089830" lon="4.3246910">
    <ele>6.8</ele>
    <time>2021-04-16T06:06:18Z</time>
   </trkpt>
   <trkpt lat="52.1089870" lon="4.3247090">
    <ele>6.8</ele>
    <time>2021-04-16T06:06:19Z</time>
   </trkpt>
   <trkpt lat="52.1090000" lon="4.3247620">
    <ele>6.8</ele>
    <time>2021-04-16T06:06:20Z</time>
   </trkpt>
   <trkpt lat="52.1090180" lon="4.3248350">
    <ele>6.8</ele>
    <time>2021-04-16T06:06:22Z</time>
   </trkpt>
   <trkpt lat="52.1090730" lon="4.3250090">
    <ele>6.7</ele>
    <time>2021-04-16T06:06:23Z</time>
   </trkpt>
   <trkpt lat="52.1092000" lon="4.3254540">
    <ele>6.6</ele>
    <time>2021-04-16T06:06:25Z</time>
   </trkpt>
   <trkpt lat="52.1092290" lon="4.3255410">
    <ele>6.5</ele>
    <time>2021-04-16T06:06:26Z</time>
   </trkpt>
   <trkpt lat="52.1092540" lon="4.3256040">
    <ele>6.5</ele>
    <time>2021-04-16T06:06:27Z</time>
   </trkpt>
   <trkpt lat="52.1092840" lon="4.3257090">
    <ele>6.4</ele>
    <time>2021-04-16T06:06:29Z</time>
   </trkpt>
   <trkpt lat="52.1093140" lon="4.3257990">
    <ele>6.4</ele>
    <time>2021-04-16T06:06:31Z</time>
   </trkpt>
   <trkpt lat="52.1093240" lon="4.3258270">
    <ele>6.4</ele>
    <time>2021-04-16T06:06:33Z</time>
   </trkpt>
   <trkpt lat="52.1093170" lon="4.3257790">
    <ele>6.4</ele>
    <time>2021-04-16T06:06:34Z</time>
   </trkpt>
   <trkpt lat="52.1093390" lon="4.3257910">
    <ele>6.3</ele>
    <time>2021-04-16T06:06:35Z</time>
   </trkpt>
   <trkpt lat="52.1093390" lon="4.3258300">
    <ele>6.3</ele>
    <time>2021-04-16T06:06:36Z</time>
   </trkpt>
   <trkpt lat="52.1093490" lon="4.3258900">
    <ele>6.3</ele>
    <time>2021-04-16T06:06:38Z</time>
   </trkpt>
   <trkpt lat="52.1093550" lon="4.3259130">
    <ele>6.3</ele>
    <time>2021-04-16T06:06:39Z</time>
   </trkpt>
   <trkpt lat="52.1093600" lon="4.3259280">
    <ele>6.3</ele>
    <time>2021-04-16T06:06:40Z</time>
   </trkpt>
   <trkpt lat="52.1093630" lon="4.3259310">
    <ele>6.3</ele>
    <time>2021-04-16T06:06:41Z</time>
   </trkpt>
   <trkpt lat="52.1093540" lon="4.3258560">
    <ele>6.3</ele>
    <time>2021-04-16T06:06:43Z</time>
   </trkpt>
   <trkpt lat="52.1093520" lon="4.3258410">
    <ele>6.3</ele>
    <time>2021-04-16T06:06:44Z</time>
   </trkpt>
   <trkpt lat="52.1093500" lon="4.3258440">
    <ele>6.3</ele>
    <time>2021-04-16T06:06:46Z</time>
   </trkpt>
   <trkpt lat="52.1093440" lon="4.3258560">
    <ele>6.3</ele>
    <time>2021-04-16T06:06:48Z</time>
   </trkpt>
   <trkpt lat="52.1093350" lon="4.3258610">
    <ele>6.3</ele>
    <time>2021-04-16T06:06:50Z</time>
   </trkpt>
   <trkpt lat="52.1093390" lon="4.3258570">
    <ele>6.2</ele>
    <time>2021-04-16T06:06:52Z</time>
   </trkpt>
   <trkpt lat="52.1093350" lon="4.3258610">
    <ele>6.2</ele>
    <time>2021-04-16T06:06:53Z</time>
   </trkpt>
   <trkpt lat="52.1093360" lon="4.3258640">
    <ele>6.2</ele>
    <time>2021-04-16T06:06:55Z</time>
   </trkpt>
   <trkpt lat="52.1093350" lon="4.3258670">
    <ele>6.2</ele>
    <time>2021-04-16T06:06:57Z</time>
   </trkpt>
   <trkpt lat="52.1093330" lon="4.3258700">
    <ele>6.2</ele>
    <time>2021-04-16T06:06:59Z</time>
   </trkpt>
  </trkseg>
 </trk>
</gpx>
