<?xml version="1.0" encoding="UTF-8"?>
<gpx creator="StravaGPX" version="1.1" xmlns="http://www.topografix.com/GPX/1/1" xmlns:xsi="http://www.w3.org/2001/XMLSchema-instance" xsi:schemaLocation="http://www.topografix.com/GPX/1/1 http://www.topografix.com/GPX/1/1/gpx.xsd">
 <metadata>
  <time>2021-04-30T05:45:15Z</time>
 </metadata>
 <trk>
  <name>Strava test</name>
  <type>cycling</type>
  <trkseg>
   <trkpt lat="52.0786520" lon="4.3148730">
    <ele>5.2</ele>
    <time>2021-04-30T05:45:15Z</time>
   </trkpt>
   <trkpt lat="52.0786530" lon="4.3148720">
    <ele>5.2</ele>
    <time>2021-04-30T05:45:17Z</time>
   </trkpt>
   <trkpt lat="52.0786540" lon="4.3148720">
    <ele>5.2</ele>
    <time>2021-04-30T05:45:18Z</time>
   </trkpt>
   <trkpt lat="52.0786540" lon="4.3148720">
    <ele>5.2</ele>
    <time>2021-04-30T05:45:19Z</time>
   </trkpt>
   <trkpt lat="52.0786540" lon="4.3148730">
    <ele>5.2</ele>
    <time>2021-04-30T05:45:21Z</time>
   </trkpt>
   <trkpt lat="52.0786540" lon="4.3148750">
    <ele>5.2</ele>
    <time>2021-04-30T05:45:22Z</time>
   </trkpt>
   <trkpt lat="52.0786520" lon="4.3148830">
    <ele>5.2</ele>
    <time>2021-04-30T05:45:24Z</time>
   </trkpt>
   <trkpt lat="52.0786410" lon="4.3148930">
    <ele>5.2</ele>
    <time>2021-04-30T05:45:25Z</time>
   </trkpt>
   <trkpt lat="52.0786200" lon="4.3149000">
    <ele>5.3</ele>
    <time>2021-04-30T05:45:28Z</time>
   </trkpt>
   <trkpt lat="52.0786200" lon="4.3148980">
    <ele>5.3</ele>
    <time>2021-04-30T05:45:29Z</time>
   </trkpt>
   <trkpt lat="52.0786290" lon="4.3148640">
    <ele>5.3</ele>
    <time>2021-04-30T05:45:30Z</time>
   </trkpt>
   <trkpt lat="52.0786440" lon="4.3147840">
    <ele>5.3</ele>
    <time>2021-04-30T05:45:32Z</time>
   </trkpt>
   <trkpt lat="52.0786440" lon="4.3147730">
    <ele>5.3</ele>
    <time>2021-04-30T05:45:33Z</time>
   </trkpt>
   <trkpt lat="52.0786580" lon="4.3147440">
    <ele>5.3</ele>
    <time>2021-04-30T05:45:34Z</time>
   </trkpt>
   <trkpt lat="52.0786700" lon="4.3147240">
    <ele>5.3</ele>
    <time>2021-04-30T05:45:35Z</time>
   </trkpt>
   <trkpt lat="52.0786780" lon="4.3147040">
    <ele>5.3</ele>
    <time>2021-04-30T05:45:36Z</time>
   </trkpt>
   <trkpt lat="52.0786790" lon="4.3147010">
    <ele>5.3</ele>
    <time>2021-04-30T05:45:37Z</time>
   </trkpt>
   <trkpt lat="52.0786830" lon="4.3146960">
    <ele>5.3</ele>
    <time>2021-04-30T05:45:38Z</time>
   </trkpt>
   <trkpt lat="52.0787060" lon="4.3147020">
    <ele>5.3</ele>
    <time>2021-04-30T05:45:39Z</time>
   </trkpt>
   <trkpt lat="52.0787300" lon="4.3147480">
    <ele>5.3</ele>
    <time>2021-04-30T05:45:41Z</time>
   </trkpt>
   <trkpt lat="52.0787620" lon="4.3147950">
    <ele>5.3</ele>
    <time>2021-04-30T05:45:42Z</time>
   </trkpt>
   <trkpt lat="52.0787870" lon="4.3148750">
    <ele>5.3</ele>
    <time>2021-04-30T05:45:43Z</time>
   </trkpt>
   <trkpt lat="52.0788590" lon="4.3150100">
    <ele>5.3</ele>
    <time>2021-04-30T05:45:45Z</time>
   </trkpt>
   <trkpt lat="52.0788860" lon="4.3150660">
    <ele>5.3</ele>
    <time>2021-04-30T05:45:46Z</time>
   </trkpt>
   <trkpt lat="52.0789530" lon="4.3151960">
    <ele>5.3</ele>
    <time>2021-04-30T05:45:48Z</time>
   </trkpt>
   <trkpt lat="52.0789770" lon="4.3152490">
    <ele>5.3</ele>
    <time>2021-04-30T05:45:49Z</time>
   </trkpt>
   <trkpt lat="52.0789780" lon="4.3152950">
    <ele>5.3</ele>
    <time>2021-04-30T05:45:50Z</time>
   </trkpt>
   <trkpt lat="52.0789700" lon="4.3153380">
    <ele>5.3</ele>
    <time>2021-04-30T05:45:51Z</time>
   </trkpt>
   <trkpt lat="52.0790150" lon="4.3153840">
    <ele>5.3</ele>
    <time>2021-04-30T05:45:52Z</time>
   </trkpt>
   <trkpt lat="52.0790590" lon="4.3154050">
    <ele>5.3</ele>
    <time>2021-04-30T05:45:53Z</time>
   </trkpt>
   <trkpt lat="52.0790950" lon="4.3154140">
    <ele>5.3</ele>
    <time>2021-04-30T05:45:55Z</time>
   </trkpt>
   <trkpt lat="52.0791240" lon="4.3154420">
    <ele>5.3</ele>
    <time>2021-04-30T05:45:56Z</time>
   </trkpt>
   <trkpt lat="52.0791340" lon="4.3154530">
    <ele>5.3</ele>
    <time>2021-04-30T05:45:57Z</time>
   </trkpt>
   <trkpt lat="52.0791600" lon="4.3154950">
    <ele>5.3</ele>
    <time>2021-04-30T05:45:59Z</time>
   </trkpt>
   <trkpt lat="52.0791960" lon="4.3155560">
    <ele>5.3</ele>
    <time>2021-04-30T05:46:00Z</time>
   </trkpt>
   <trkpt lat="52.0792700" lon="4.3156450">
    <ele>5.5</ele>
    <time>2021-04-30T05:46:01Z</time>
   </trkpt>
   <trkpt lat="52.0793100" lon="4.3157070">
    <ele>5.5</ele>
    <time>2021-04-30T05:46:02Z</time>
   </trkpt>
   <trkpt lat="52.0793190" lon="4.3157830">
    <ele>5.5</ele>
    <time>2021-04-30T05:46:04Z</time>
   </trkpt>
   <trkpt lat="52.0793540" lon="4.3158600">
    <ele>5.4</ele>
    <time>2021-04-30T05:46:05Z</time>
   </trkpt>
   <trkpt lat="52.0794020" lon="4.3159330">
    <ele>5.4</ele>
    <time>2021-04-30T05:46:06Z</time>
   </trkpt>
   <trkpt lat="52.0794540" lon="4.3159940">
    <ele>5.4</ele>
    <time>2021-04-30T05:46:07Z</time>
   </trkpt>
   <trkpt lat="52.0795190" lon="4.3160990">
    <ele>5.4</ele>
    <time>2021-04-30T05:46:09Z</time>
   </trkpt>
   <trkpt lat="52.0795970" lon="4.3162470">
    <ele>5.4</ele>
    <time>2021-04-30T05:46:11Z</time>
   </trkpt>
   <trkpt lat="52.0796280" lon="4.3163410">
    <ele>5.4</ele>
    <time>2021-04-30T05:46:12Z</time>
   </trkpt>
   <trkpt lat="52.0796550" lon="4.3164420">
    <ele>5.4</ele>
    <time>2021-04-30T05:46:13Z</time>
   </trkpt>
   <trkpt lat="52.0796770" lon="4.3165230">
    <ele>5.4</ele>
    <time>2021-04-30T05:46:14Z</time>
   </trkpt>
   <trkpt lat="52.0796920" lon="4.3165860">
    <ele>5.4</ele>
    <time>2021-04-30T05:46:15Z</time>
   </trkpt>
   <trkpt lat="52.0797030" lon="4.3166460">
    <ele>5.9</ele>
    <time>2021-04-30T05:46:16Z</time>
   </trkpt>
   <trkpt lat="52.0797270" lon="4.3167110">
    <ele>5.8</ele>
    <time>2021-04-30T05:46:17Z</time>
   </trkpt>
   <trkpt lat="52.0797740" lon="4.3167600">
    <ele>5.8</ele>
    <time>2021-04-30T05:46:18Z</time>
   </trkpt>
   <trkpt lat="52.0798040" lon="4.3168290">
    <ele>5.8</ele>
    <time>2021-04-30T05:46:20Z</time>
   </trkpt>
   <trkpt lat="52.0798360" lon="4.3169150">
    <ele>5.7</ele>
    <time>2021-04-30T05:46:22Z</time>
   </trkpt>
   <trkpt lat="52.0798630" lon="4.3169650">
    <ele>5.7</ele>
    <time>2021-04-30T05:46:23Z</time>
   </trkpt>
   <trkpt lat="52.0798740" lon="4.3169920">
    <ele>5.7</ele>
    <time>2021-04-30T05:46:24Z</time>
   </trkpt>
   <trkpt lat="52.0799000" lon="4.3170510">
    <ele>5.7</ele>
    <time>2021-04-30T05:46:25Z</time>
   </trkpt>
   <trkpt lat="52.0799330" lon="4.3171080">
    <ele>5.6</ele>
    <time>2021-04-30T05:46:26Z</time>
   </trkpt>
   <trkpt lat="52.0799410" lon="4.3171390">
    <ele>5.6</ele>
    <time>2021-04-30T05:46:27Z</time>
   </trkpt>
   <trkpt lat="52.0799570" lon="4.3171860">
    <ele>5.6</ele>
    <time>2021-04-30T05:46:29Z</time>
   </trkpt>
   <trkpt lat="52.0799810" lon="4.3172320">
    <ele>5.6</ele>
    <time>2021-04-30T05:46:30Z</time>
   </trkpt>
   <trkpt lat="52.0799900" lon="4.3172450">
    <ele>5.6</ele>
    <time>2021-04-30T05:46:32Z</time>
   </trkpt>
   <trkpt lat="52.0800040" lon="4.3172610">
    <ele>5.6</ele>
    <time>2021-04-30T05:46:33Z</time>
   </trkpt>
   <trkpt lat="52.0800290" lon="4.3172900">
    <ele>5.6</ele>
    <time>2021-04-30T05:46:34Z</time>
   </trkpt>
   <trkpt lat="52.0800370" lon="4.3173000">
    <ele>5.6</ele>
    <time>2021-04-30T05:46:35Z</time>
   </trkpt>
   <trkpt lat="52.0800640" lon="4.3173400">
    <ele>5.6</ele>
    <time>2021-04-30T05:46:36Z</time>
   </trkpt>
   <trkpt lat="52.0800710" lon="4.3173540">
    <ele>5.6</ele>
    <time>2021-04-30T05:46:37Z</time>
   </trkpt>
   <trkpt lat="52.0800920" lon="4.3173970">
    <ele>5.6</ele>
    <time>2021-04-30T05:46:38Z</time>
   </trkpt>
   <trkpt lat="52.0800990" lon="4.3174070">
    <ele>5.6</ele>
    <time>2021-04-30T05:46:40Z</time>
   </trkpt>
   <trkpt lat="52.0801100" lon="4.3174240">
    <ele>5.5</ele>
    <time>2021-04-30T05:46:41Z</time>
   </trkpt>
   <trkpt lat="52.0801390" lon="4.3174690">
    <ele>5.5</ele>
    <time>2021-04-30T05:46:43Z</time>
   </trkpt>
   <trkpt lat="52.0801650" lon="4.3175100">
    <ele>5.4</ele>
    <time>2021-04-30T05:46:44Z</time>
   </trkpt>
   <trkpt lat="52.0801940" lon="4.3175570">
    <ele>5.4</ele>
    <time>2021-04-30T05:46:45Z</time>
   </trkpt>
   <trkpt lat="52.0802230" lon="4.3176020">
    <ele>5.4</ele>
    <time>2021-04-30T05:46:46Z</time>
   </trkpt>
   <trkpt lat="52.0802630" lon="4.3176530">
    <ele>5.3</ele>
    <time>2021-04-30T05:46:48Z</time>
   </trkpt>
   <trkpt lat="52.0802940" lon="4.3176790">
    <ele>5.3</ele>
    <time>2021-04-30T05:46:49Z</time>
   </trkpt>
   <trkpt lat="52.0803050" lon="4.3176870">
    <ele>5.2</ele>
    <time>2021-04-30T05:46:50Z</time>
   </trkpt>
   <trkpt lat="52.0803330" lon="4.3177640">
    <ele>5.2</ele>
    <time>2021-04-30T05:46:51Z</time>
   </trkpt>
   <trkpt lat="52.0803860" lon="4.3180590">
    <ele>5.0</ele>
    <time>2021-04-30T05:46:53Z</time>
   </trkpt>
   <trkpt lat="52.0804050" lon="4.3181580">
    <ele>4.9</ele>
    <time>2021-04-30T05:46:54Z</time>
   </trkpt>
   <trkpt lat="52.0804400" lon="4.3183600">
    <ele>4.1</ele>
    <time>2021-04-30T05:46:56Z</time>
   </trkpt>
   <trkpt lat="52.0804800" lon="4.3185300">
    <ele>3.9</ele>
    <time>2021-04-30T05:46:58Z</time>
   </trkpt>
   <trkpt lat="52.0805180" lon="4.3186310">
    <ele>3.8</ele>
    <time>2021-04-30T05:46:59Z</time>
   </trkpt>
   <trkpt lat="52.0805670" lon="4.3187620">
    <ele>3.8</ele>
    <time>2021-04-30T05:47:01Z</time>
   </trkpt>
   <trkpt lat="52.0805960" lon="4.3188460">
    <ele>3.8</ele>
    <time>2021-04-30T05:47:02Z</time>
   </trkpt>
   <trkpt lat="52.0806190" lon="4.3189110">
    <ele>3.8</ele>
    <time>2021-04-30T05:47:03Z</time>
   </trkpt>
   <trkpt lat="52.0807050" lon="4.3191150">
    <ele>3.8</ele>
    <time>2021-04-30T05:47:05Z</time>
   </trkpt>
   <trkpt lat="52.0808040" lon="4.3193130">
    <ele>3.9</ele>
    <time>2021-04-30T05:47:07Z</time>
   </trkpt>
   <trkpt lat="52.0808520" lon="4.3193880">
    <ele>4.0</ele>
    <time>2021-04-30T05:47:08Z</time>
   </trkpt>
   <trkpt lat="52.0809010" lon="4.3194690">
    <ele>4.0</ele>
    <time>2021-04-30T05:47:09Z</time>
   </trkpt>
   <trkpt lat="52.0809530" lon="4.3195500">
    <ele>4.0</ele>
    <time>2021-04-30T05:47:10Z</time>
   </trkpt>
   <trkpt lat="52.0810020" lon="4.3196380">
    <ele>4.1</ele>
    <time>2021-04-30T05:47:11Z</time>
   </trkpt>
   <trkpt lat="52.0810430" lon="4.3197230">
    <ele>4.2</ele>
    <time>2021-04-30T05:47:12Z</time>
   </trkpt>
   <trkpt lat="52.0810800" lon="4.3198060">
    <ele>4.3</ele>
    <time>2021-04-30T05:47:13Z</time>
   </trkpt>
   <trkpt lat="52.0811090" lon="4.3198930">
    <ele>4.3</ele>
    <time>2021-04-30T05:47:14Z</time>
   </trkpt>
   <trkpt lat="52.0811390" lon="4.3199820">
    <ele>4.4</ele>
    <time>2021-04-30T05:47:15Z</time>
   </trkpt>
   <trkpt lat="52.0811660" lon="4.3200690">
    <ele>4.5</ele>
    <time>2021-04-30T05:47:16Z</time>
   </trkpt>
   <trkpt lat="52.0811940" lon="4.3201560">
    <ele>4.6</ele>
    <time>2021-04-30T05:47:17Z</time>
   </trkpt>
   <trkpt lat="52.0812220" lon="4.3202360">
    <ele>4.7</ele>
    <time>2021-04-30T05:47:18Z</time>
   </trkpt>
   <trkpt lat="52.0812510" lon="4.3203120">
    <ele>4.7</ele>
    <time>2021-04-30T05:47:19Z</time>
   </trkpt>
   <trkpt lat="52.0812790" lon="4.3203860">
    <ele>4.8</ele>
    <time>2021-04-30T05:47:20Z</time>
   </trkpt>
   <trkpt lat="52.0813060" lon="4.3204570">
    <ele>4.8</ele>
    <time>2021-04-30T05:47:21Z</time>
   </trkpt>
   <trkpt lat="52.0813230" lon="4.3204990">
    <ele>4.8</ele>
    <time>2021-04-30T05:47:22Z</time>
   </trkpt>
   <trkpt lat="52.0813470" lon="4.3205530">
    <ele>4.7</ele>
    <time>2021-04-30T05:47:23Z</time>
   </trkpt>
   <trkpt lat="52.0813750" lon="4.3206040">
    <ele>4.7</ele>
    <time>2021-04-30T05:47:24Z</time>
   </trkpt>
   <trkpt lat="52.0814070" lon="4.3206530">
    <ele>4.6</ele>
    <time>2021-04-30T05:47:25Z</time>
   </trkpt>
   <trkpt lat="52.0814460" lon="4.3206930">
    <ele>4.6</ele>
    <time>2021-04-30T05:47:26Z</time>
   </trkpt>
   <trkpt lat="52.0814850" lon="4.3207150">
    <ele>4.5</ele>
    <time>2021-04-30T05:47:27Z</time>
   </trkpt>
   <trkpt lat="52.0815990" lon="4.3207910">
    <ele>4.4</ele>
    <time>2021-04-30T05:47:29Z</time>
   </trkpt>
   <trkpt lat="52.0816340" lon="4.3208390">
    <ele>4.3</ele>
    <time>2021-04-30T05:47:30Z</time>
   </trkpt>
   <trkpt lat="52.0816650" lon="4.3209180">
    <ele>4.2</ele>
    <time>2021-04-30T05:47:31Z</time>
   </trkpt>
   <trkpt lat="52.0817280" lon="4.3210270">
    <ele>4.2</ele>
    <time>2021-04-30T05:47:33Z</time>
   </trkpt>
   <trkpt lat="52.0817580" lon="4.3211630">
    <ele>4.1</ele>
    <time>2021-04-30T05:47:34Z</time>
   </trkpt>
   <trkpt lat="52.0817800" lon="4.3212500">
    <ele>4.1</ele>
    <time>2021-04-30T05:47:35Z</time>
   </trkpt>
   <trkpt lat="52.0817980" lon="4.3213310">
    <ele>4.1</ele>
    <time>2021-04-30T05:47:37Z</time>
   </trkpt>
   <trkpt lat="52.0818310" lon="4.3216120">
    <ele>3.8</ele>
    <time>2021-04-30T05:47:39Z</time>
   </trkpt>
   <trkpt lat="52.0818680" lon="4.3217280">
    <ele>3.8</ele>
    <time>2021-04-30T05:47:40Z</time>
   </trkpt>
   <trkpt lat="52.0819200" lon="4.3217950">
    <ele>3.9</ele>
    <time>2021-04-30T05:47:41Z</time>
   </trkpt>
   <trkpt lat="52.0819850" lon="4.3218010">
    <ele>3.8</ele>
    <time>2021-04-30T05:47:42Z</time>
   </trkpt>
   <trkpt lat="52.0820510" lon="4.3217460">
    <ele>3.7</ele>
    <time>2021-04-30T05:47:43Z</time>
   </trkpt>
   <trkpt lat="52.0821010" lon="4.3216420">
    <ele>3.7</ele>
    <time>2021-04-30T05:47:44Z</time>
   </trkpt>
   <trkpt lat="52.0821360" lon="4.3215310">
    <ele>3.6</ele>
    <time>2021-04-30T05:47:45Z</time>
   </trkpt>
   <trkpt lat="52.0821620" lon="4.3214320">
    <ele>3.6</ele>
    <time>2021-04-30T05:47:46Z</time>
   </trkpt>
   <trkpt lat="52.0821840" lon="4.3213490">
    <ele>3.5</ele>
    <time>2021-04-30T05:47:47Z</time>
   </trkpt>
   <trkpt lat="52.0822030" lon="4.3212770">
    <ele>3.5</ele>
    <time>2021-04-30T05:47:48Z</time>
   </trkpt>
   <trkpt lat="52.0822200" lon="4.3212130">
    <ele>3.5</ele>
    <time>2021-04-30T05:47:49Z</time>
   </trkpt>
   <trkpt lat="52.0822320" lon="4.3211540">
    <ele>3.5</ele>
    <time>2021-04-30T05:47:50Z</time>
   </trkpt>
   <trkpt lat="52.0822420" lon="4.3211010">
    <ele>3.5</ele>
    <time>2021-04-30T05:47:51Z</time>
   </trkpt>
   <trkpt lat="52.0822560" lon="4.3210610">
    <ele>3.5</ele>
    <time>2021-04-30T05:47:52Z</time>
   </trkpt>
   <trkpt lat="52.0822770" lon="4.3210490">
    <ele>3.5</ele>
    <time>2021-04-30T05:47:53Z</time>
   </trkpt>
   <trkpt lat="52.0822910" lon="4.3210430">
    <ele>3.4</ele>
    <time>2021-04-30T05:47:54Z</time>
   </trkpt>
   <trkpt lat="52.0823200" lon="4.3210500">
    <ele>3.4</ele>
    <time>2021-04-30T05:47:55Z</time>
   </trkpt>
   <trkpt lat="52.0823480" lon="4.3210730">
    <ele>3.4</ele>
    <time>2021-04-30T05:47:56Z</time>
   </trkpt>
   <trkpt lat="52.0823810" lon="4.3210920">
    <ele>3.3</ele>
    <time>2021-04-30T05:47:57Z</time>
   </trkpt>
   <trkpt lat="52.0824120" lon="4.3211030">
    <ele>3.3</ele>
    <time>2021-04-30T05:47:58Z</time>
   </trkpt>
   <trkpt lat="52.0824400" lon="4.3211140">
    <ele>3.3</ele>
    <time>2021-04-30T05:47:59Z</time>
   </trkpt>
   <trkpt lat="52.0824630" lon="4.3211120">
    <ele>3.2</ele>
    <time>2021-04-30T05:48:00Z</time>
   </trkpt>
   <trkpt lat="52.0825110" lon="4.3211060">
    <ele>3.2</ele>
    <time>2021-04-30T05:48:01Z</time>
   </trkpt>
   <trkpt lat="52.0825920" lon="4.3210720">
    <ele>3.1</ele>
    <time>2021-04-30T05:48:03Z</time>
   </trkpt>
   <trkpt lat="52.0826310" lon="4.3210400">
    <ele>3.1</ele>
    <time>2021-04-30T05:48:04Z</time>
   </trkpt>
   <trkpt lat="52.0826820" lon="4.3209630">
    <ele>3.0</ele>
    <time>2021-04-30T05:48:05Z</time>
   </trkpt>
   <trkpt lat="52.0827340" lon="4.3209170">
    <ele>3.0</ele>
    <time>2021-04-30T05:48:07Z</time>
   </trkpt>
   <trkpt lat="52.0827910" lon="4.3208360">
    <ele>3.0</ele>
    <time>2021-04-30T05:48:08Z</time>
   </trkpt>
   <trkpt lat="52.0828420" lon="4.3207340">
    <ele>3.0</ele>
    <time>2021-04-30T05:48:10Z</time>
   </trkpt>
   <trkpt lat="52.0828800" lon="4.3206560">
    <ele>3.0</ele>
    <time>2021-04-30T05:48:11Z</time>
   </trkpt>
   <trkpt lat="52.0829240" lon="4.3205550">
    <ele>3.0</ele>
    <time>2021-04-30T05:48:12Z</time>
   </trkpt>
   <trkpt lat="52.0829880" lon="4.3204240">
    <ele>3.0</ele>
    <time>2021-04-30T05:48:14Z</time>
   </trkpt>
   <trkpt lat="52.0830430" lon="4.3202710">
    <ele>3.0</ele>
    <time>2021-04-30T05:48:16Z</time>
   </trkpt>
   <trkpt lat="52.0830740" lon="4.3201960">
    <ele>3.0</ele>
    <time>2021-04-30T05:48:17Z</time>
   </trkpt>
   <trkpt lat="52.0831050" lon="4.3201180">
    <ele>3.0</ele>
    <time>2021-04-30T05:48:18Z</time>
   </trkpt>
   <trkpt lat="52.0831360" lon="4.3200400">
    <ele>3.0</ele>
    <time>2021-04-30T05:48:19Z</time>
   </trkpt>
   <trkpt lat="52.0831660" lon="4.3199640">
    <ele>3.0</ele>
    <time>2021-04-30T05:48:20Z</time>
   </trkpt>
   <trkpt lat="52.0831950" lon="4.3198890">
    <ele>3.0</ele>
    <time>2021-04-30T05:48:21Z</time>
   </trkpt>
   <trkpt lat="52.0832230" lon="4.3198160">
    <ele>3.0</ele>
    <time>2021-04-30T05:48:22Z</time>
   </trkpt>
   <trkpt lat="52.0832490" lon="4.3197430">
    <ele>3.0</ele>
    <time>2021-04-30T05:48:23Z</time>
   </trkpt>
   <trkpt lat="52.0832740" lon="4.3196720">
    <ele>3.0</ele>
    <time>2021-04-30T05:48:24Z</time>
   </trkpt>
   <trkpt lat="52.0832990" lon="4.3196010">
    <ele>3.1</ele>
    <time>2021-04-30T05:48:25Z</time>
   </trkpt>
   <trkpt lat="52.0833250" lon="4.3195310">
    <ele>3.1</ele>
    <time>2021-04-30T05:48:26Z</time>
   </trkpt>
   <trkpt lat="52.0833510" lon="4.3194600">
    <ele>3.2</ele>
    <time>2021-04-30T05:48:27Z</time>
   </trkpt>
   <trkpt lat="52.0833770" lon="4.3193880">
    <ele>3.2</ele>
    <time>2021-04-30T05:48:28Z</time>
   </trkpt>
   <trkpt lat="52.0834010" lon="4.3193150">
    <ele>3.3</ele>
    <time>2021-04-30T05:48:29Z</time>
   </trkpt>
   <trkpt lat="52.0834240" lon="4.3192410">
    <ele>3.3</ele>
    <time>2021-04-30T05:48:30Z</time>
   </trkpt>
   <trkpt lat="52.0834460" lon="4.3191690">
    <ele>3.4</ele>
    <time>2021-04-30T05:48:31Z</time>
   </trkpt>
   <trkpt lat="52.0834670" lon="4.3190970">
    <ele>3.5</ele>
    <time>2021-04-30T05:48:32Z</time>
   </trkpt>
   <trkpt lat="52.0834880" lon="4.3190280">
    <ele>3.5</ele>
    <time>2021-04-30T05:48:33Z</time>
   </trkpt>
   <trkpt lat="52.0835010" lon="4.3189850">
    <ele>3.6</ele>
    <time>2021-04-30T05:48:34Z</time>
   </trkpt>
   <trkpt lat="52.0835210" lon="4.3189240">
    <ele>3.6</ele>
    <time>2021-04-30T05:48:35Z</time>
   </trkpt>
   <trkpt lat="52.0835420" lon="4.3188620">
    <ele>3.7</ele>
    <time>2021-04-30T05:48:36Z</time>
   </trkpt>
   <trkpt lat="52.0835630" lon="4.3188000">
    <ele>3.8</ele>
    <time>2021-04-30T05:48:37Z</time>
   </trkpt>
   <trkpt lat="52.0835840" lon="4.3187380">
    <ele>3.9</ele>
    <time>2021-04-30T05:48:38Z</time>
   </trkpt>
   <trkpt lat="52.0836040" lon="4.3186850">
    <ele>4.1</ele>
    <time>2021-04-30T05:48:39Z</time>
   </trkpt>
   <trkpt lat="52.0836220" lon="4.3187480">
    <ele>4.1</ele>
    <time>2021-04-30T05:48:40Z</time>
   </trkpt>
   <trkpt lat="52.0836630" lon="4.3186370">
    <ele>4.0</ele>
    <time>2021-04-30T05:48:41Z</time>
   </trkpt>
   <trkpt lat="52.0837400" lon="4.3185170">
    <ele>4.0</ele>
    <time>2021-04-30T05:48:43Z</time>
   </trkpt>
   <trkpt lat="52.0838170" lon="4.3184360">
    <ele>4.0</ele>
    <time>2021-04-30T05:48:45Z</time>
   </trkpt>
   <trkpt lat="52.0838950" lon="4.3183340">
    <ele>4.0</ele>
    <time>2021-04-30T05:48:47Z</time>
   </trkpt>
   <trkpt lat="52.0839570" lon="4.3182590">
    <ele>3.9</ele>
    <time>2021-04-30T05:48:48Z</time>
   </trkpt>
   <trkpt lat="52.0840330" lon="4.3181840">
    <ele>3.9</ele>
    <time>2021-04-30T05:48:50Z</time>
   </trkpt>
   <trkpt lat="52.0840670" lon="4.3181610">
    <ele>3.9</ele>
    <time>2021-04-30T05:48:51Z</time>
   </trkpt>
   <trkpt lat="52.0841150" lon="4.3181190">
    <ele>3.8</ele>
    <time>2021-04-30T05:48:52Z</time>
   </trkpt>
   <trkpt lat="52.0842070" lon="4.3180450">
    <ele>3.8</ele>
    <time>2021-04-30T05:48:54Z</time>
   </trkpt>
   <trkpt lat="52.0842720" lon="4.3179980">
    <ele>3.8</ele>
    <time>2021-04-30T05:48:55Z</time>
   </trkpt>
   <trkpt lat="52.0843220" lon="4.3179540">
    <ele>3.8</ele>
    <time>2021-04-30T05:48:57Z</time>
   </trkpt>
   <trkpt lat="52.0843580" lon="4.3179230">
    <ele>3.7</ele>
    <time>2021-04-30T05:48:58Z</time>
   </trkpt>
   <trkpt lat="52.0843980" lon="4.3178930">
    <ele>3.7</ele>
    <time>2021-04-30T05:48:59Z</time>
   </trkpt>
   <trkpt lat="52.0844940" lon="4.3177900">
    <ele>3.7</ele>
    <time>2021-04-30T05:49:01Z</time>
   </trkpt>
   <trkpt lat="52.0845410" lon="4.3177450">
    <ele>3.7</ele>
    <time>2021-04-30T05:49:02Z</time>
   </trkpt>
   <trkpt lat="52.0845890" lon="4.3177020">
    <ele>3.6</ele>
    <time>2021-04-30T05:49:03Z</time>
   </trkpt>
   <trkpt lat="52.0846360" lon="4.3176580">
    <ele>3.6</ele>
    <time>2021-04-30T05:49:04Z</time>
   </trkpt>
   <trkpt lat="52.0846830" lon="4.3176130">
    <ele>3.6</ele>
    <time>2021-04-30T05:49:05Z</time>
   </trkpt>
   <trkpt lat="52.0847290" lon="4.3175680">
    <ele>3.6</ele>
    <time>2021-04-30T05:49:06Z</time>
   </trkpt>
   <trkpt lat="52.0847740" lon="4.3175290">
    <ele>3.6</ele>
    <time>2021-04-30T05:49:07Z</time>
   </trkpt>
   <trkpt lat="52.0848180" lon="4.3174940">
    <ele>3.6</ele>
    <time>2021-04-30T05:49:08Z</time>
   </trkpt>
   <trkpt lat="52.0848610" lon="4.3174590">
    <ele>3.6</ele>
    <time>2021-04-30T05:49:09Z</time>
   </trkpt>
   <trkpt lat="52.0849030" lon="4.3174220">
    <ele>3.7</ele>
    <time>2021-04-30T05:49:10Z</time>
   </trkpt>
   <trkpt lat="52.0849450" lon="4.3173860">
    <ele>3.7</ele>
    <time>2021-04-30T05:49:11Z</time>
   </trkpt>
   <trkpt lat="52.0849870" lon="4.3173510">
    <ele>3.7</ele>
    <time>2021-04-30T05:49:12Z</time>
   </trkpt>
   <trkpt lat="52.0850300" lon="4.3173130">
    <ele>3.8</ele>
    <time>2021-04-30T05:49:13Z</time>
   </trkpt>
   <trkpt lat="52.0850720" lon="4.3172720">
    <ele>3.8</ele>
    <time>2021-04-30T05:49:14Z</time>
   </trkpt>
   <trkpt lat="52.0851120" lon="4.3172280">
    <ele>3.9</ele>
    <time>2021-04-30T05:49:15Z</time>
   </trkpt>
   <trkpt lat="52.0851520" lon="4.3171840">
    <ele>3.9</ele>
    <time>2021-04-30T05:49:16Z</time>
   </trkpt>
   <trkpt lat="52.0851900" lon="4.3171420">
    <ele>4.0</ele>
    <time>2021-04-30T05:49:17Z</time>
   </trkpt>
   <trkpt lat="52.0852270" lon="4.3170990">
    <ele>4.0</ele>
    <time>2021-04-30T05:49:18Z</time>
   </trkpt>
   <trkpt lat="52.0852620" lon="4.3170520">
    <ele>4.1</ele>
    <time>2021-04-30T05:49:19Z</time>
   </trkpt>
   <trkpt lat="52.0852990" lon="4.3170070">
    <ele>4.1</ele>
    <time>2021-04-30T05:49:20Z</time>
   </trkpt>
   <trkpt lat="52.0853390" lon="4.3169680">
    <ele>4.2</ele>
    <time>2021-04-30T05:49:21Z</time>
   </trkpt>
   <trkpt lat="52.0853800" lon="4.3169330">
    <ele>4.2</ele>
    <time>2021-04-30T05:49:22Z</time>
   </trkpt>
   <trkpt lat="52.0854210" lon="4.3168980">
    <ele>4.3</ele>
    <time>2021-04-30T05:49:23Z</time>
   </trkpt>
   <trkpt lat="52.0854600" lon="4.3168610">
    <ele>4.4</ele>
    <time>2021-04-30T05:49:24Z</time>
   </trkpt>
   <trkpt lat="52.0854980" lon="4.3168230">
    <ele>4.4</ele>
    <time>2021-04-30T05:49:25Z</time>
   </trkpt>
   <trkpt lat="52.0855360" lon="4.3167860">
    <ele>4.5</ele>
    <time>2021-04-30T05:49:26Z</time>
   </trkpt>
   <trkpt lat="52.0855720" lon="4.3167440">
    <ele>4.5</ele>
    <time>2021-04-30T05:49:27Z</time>
   </trkpt>
   <trkpt lat="52.0856020" lon="4.3166950">
    <ele>4.6</ele>
    <time>2021-04-30T05:49:28Z</time>
   </trkpt>
   <trkpt lat="52.0856260" lon="4.3166370">
    <ele>4.6</ele>
    <time>2021-04-30T05:49:29Z</time>
   </trkpt>
   <trkpt lat="52.0856450" lon="4.3165730">
    <ele>4.7</ele>
    <time>2021-04-30T05:49:30Z</time>
   </trkpt>
   <trkpt lat="52.0856600" lon="4.3165070">
    <ele>4.7</ele>
    <time>2021-04-30T05:49:31Z</time>
   </trkpt>
   <trkpt lat="52.0856560" lon="4.3164530">
    <ele>4.7</ele>
    <time>2021-04-30T05:49:32Z</time>
   </trkpt>
   <trkpt lat="52.0856760" lon="4.3163860">
    <ele>4.8</ele>
    <time>2021-04-30T05:49:33Z</time>
   </trkpt>
   <trkpt lat="52.0856890" lon="4.3163290">
    <ele>4.8</ele>
    <time>2021-04-30T05:49:34Z</time>
   </trkpt>
   <trkpt lat="52.0857040" lon="4.3162780">
    <ele>4.9</ele>
    <time>2021-04-30T05:49:35Z</time>
   </trkpt>
   <trkpt lat="52.0857310" lon="4.3162330">
    <ele>5.0</ele>
    <time>2021-04-30T05:49:36Z</time>
   </trkpt>
   <trkpt lat="52.0857460" lon="4.3162270">
    <ele>5.0</ele>
    <time>2021-04-30T05:49:37Z</time>
   </trkpt>
   <trkpt lat="52.0857740" lon="4.3162090">
    <ele>5.0</ele>
    <time>2021-04-30T05:49:38Z</time>
   </trkpt>
   <trkpt lat="52.0858510" lon="4.3161180">
    <ele>5.1</ele>
    <time>2021-04-30T05:49:40Z</time>
   </trkpt>
   <trkpt lat="52.0858850" lon="4.3160840">
    <ele>5.1</ele>
    <time>2021-04-30T05:49:41Z</time>
   </trkpt>
   <trkpt lat="52.0860010" lon="4.3160420">
    <ele>5.1</ele>
    <time>2021-04-30T05:49:43Z</time>
   </trkpt>
   <trkpt lat="52.0860550" lon="4.3160130">
    <ele>5.1</ele>
    <time>2021-04-30T05:49:44Z</time>
   </trkpt>
   <trkpt lat="52.0861020" lon="4.3159740">
    <ele>5.0</ele>
    <time>2021-04-30T05:49:45Z</time>
   </trkpt>
   <trkpt lat="52.0861500" lon="4.3159390">
    <ele>5.0</ele>
    <time>2021-04-30T05:49:46Z</time>
   </trkpt>
   <trkpt lat="52.0861990" lon="4.3159030">
    <ele>4.9</ele>
    <time>2021-04-30T05:49:47Z</time>
   </trkpt>
   <trkpt lat="52.0862490" lon="4.3158720">
    <ele>4.7</ele>
    <time>2021-04-30T05:49:48Z</time>
   </trkpt>
   <trkpt lat="52.0863010" lon="4.3158390">
    <ele>4.7</ele>
    <time>2021-04-30T05:49:49Z</time>
   </trkpt>
   <trkpt lat="52.0863550" lon="4.3157930">
    <ele>4.7</ele>
    <time>2021-04-30T05:49:50Z</time>
   </trkpt>
   <trkpt lat="52.0863990" lon="4.3157380">
    <ele>4.7</ele>
    <time>2021-04-30T05:49:51Z</time>
   </trkpt>
   <trkpt lat="52.0864230" lon="4.3156690">
    <ele>4.6</ele>
    <time>2021-04-30T05:49:52Z</time>
   </trkpt>
   <trkpt lat="52.0864600" lon="4.3156610">
    <ele>4.5</ele>
    <time>2021-04-30T05:49:53Z</time>
   </trkpt>
   <trkpt lat="52.0865060" lon="4.3156330">
    <ele>4.5</ele>
    <time>2021-04-30T05:49:55Z</time>
   </trkpt>
   <trkpt lat="52.0866220" lon="4.3155530">
    <ele>4.3</ele>
    <time>2021-04-30T05:49:56Z</time>
   </trkpt>
   <trkpt lat="52.0867160" lon="4.3154850">
    <ele>4.2</ele>
    <time>2021-04-30T05:49:58Z</time>
   </trkpt>
   <trkpt lat="52.0868320" lon="4.3154340">
    <ele>4.1</ele>
    <time>2021-04-30T05:49:59Z</time>
   </trkpt>
   <trkpt lat="52.0869420" lon="4.3153700">
    <ele>4.2</ele>
    <time>2021-04-30T05:50:00Z</time>
   </trkpt>
   <trkpt lat="52.0870340" lon="4.3152970">
    <ele>4.2</ele>
    <time>2021-04-30T05:50:01Z</time>
   </trkpt>
   <trkpt lat="52.0871030" lon="4.3152410">
    <ele>4.2</ele>
    <time>2021-04-30T05:50:02Z</time>
   </trkpt>
   <trkpt lat="52.0871070" lon="4.3151830">
    <ele>4.2</ele>
    <time>2021-04-30T05:50:03Z</time>
   </trkpt>
   <trkpt lat="52.0871440" lon="4.3151370">
    <ele>4.2</ele>
    <time>2021-04-30T05:50:04Z</time>
   </trkpt>
   <trkpt lat="52.0871860" lon="4.3151080">
    <ele>4.2</ele>
    <time>2021-04-30T05:50:05Z</time>
   </trkpt>
   <trkpt lat="52.0872380" lon="4.3150650">
    <ele>4.2</ele>
    <time>2021-04-30T05:50:06Z</time>
   </trkpt>
   <trkpt lat="52.0872970" lon="4.3150100">
    <ele>4.3</ele>
    <time>2021-04-30T05:50:07Z</time>
   </trkpt>
   <trkpt lat="52.0873540" lon="4.3149510">
    <ele>4.3</ele>
    <time>2021-04-30T05:50:08Z</time>
   </trkpt>
   <trkpt lat="52.0874070" lon="4.3149000">
    <ele>4.3</ele>
    <time>2021-04-30T05:50:09Z</time>
   </trkpt>
   <trkpt lat="52.0874580" lon="4.3148570">
    <ele>4.3</ele>
    <time>2021-04-30T05:50:10Z</time>
   </trkpt>
   <trkpt lat="52.0875090" lon="4.3148050">
    <ele>4.3</ele>
    <time>2021-04-30T05:50:11Z</time>
   </trkpt>
   <trkpt lat="52.0875590" lon="4.3147470">
    <ele>4.2</ele>
    <time>2021-04-30T05:50:12Z</time>
   </trkpt>
   <trkpt lat="52.0876100" lon="4.3146870">
    <ele>4.2</ele>
    <time>2021-04-30T05:50:13Z</time>
   </trkpt>
   <trkpt lat="52.0876620" lon="4.3146330">
    <ele>4.2</ele>
    <time>2021-04-30T05:50:14Z</time>
   </trkpt>
   <trkpt lat="52.0877110" lon="4.3145620">
    <ele>4.1</ele>
    <time>2021-04-30T05:50:15Z</time>
   </trkpt>
   <trkpt lat="52.0877590" lon="4.3144890">
    <ele>4.1</ele>
    <time>2021-04-30T05:50:16Z</time>
   </trkpt>
   <trkpt lat="52.0878040" lon="4.3144260">
    <ele>4.0</ele>
    <time>2021-04-30T05:50:17Z</time>
   </trkpt>
   <trkpt lat="52.0878500" lon="4.3143770">
    <ele>4.0</ele>
    <time>2021-04-30T05:50:18Z</time>
   </trkpt>
   <trkpt lat="52.0878940" lon="4.3143360">
    <ele>4.0</ele>
    <time>2021-04-30T05:50:19Z</time>
   </trkpt>
   <trkpt lat="52.0879450" lon="4.3142940">
    <ele>3.9</ele>
    <time>2021-04-30T05:50:20Z</time>
   </trkpt>
   <trkpt lat="52.0879920" lon="4.3142420">
    <ele>3.9</ele>
    <time>2021-04-30T05:50:21Z</time>
   </trkpt>
   <trkpt lat="52.0880280" lon="4.3141840">
    <ele>3.9</ele>
    <time>2021-04-30T05:50:22Z</time>
   </trkpt>
   <trkpt lat="52.0880710" lon="4.3141570">
    <ele>3.8</ele>
    <time>2021-04-30T05:50:23Z</time>
   </trkpt>
   <trkpt lat="52.0881230" lon="4.3141400">
    <ele>3.8</ele>
    <time>2021-04-30T05:50:24Z</time>
   </trkpt>
   <trkpt lat="52.0881740" lon="4.3141100">
    <ele>3.8</ele>
    <time>2021-04-30T05:50:25Z</time>
   </trkpt>
   <trkpt lat="52.0882250" lon="4.3140730">
    <ele>3.8</ele>
    <time>2021-04-30T05:50:26Z</time>
   </trkpt>
   <trkpt lat="52.0882700" lon="4.3140260">
    <ele>3.8</ele>
    <time>2021-04-30T05:50:27Z</time>
   </trkpt>
   <trkpt lat="52.0883140" lon="4.3139710">
    <ele>3.8</ele>
    <time>2021-04-30T05:50:28Z</time>
   </trkpt>
   <trkpt lat="52.0883540" lon="4.3139120">
    <ele>3.8</ele>
    <time>2021-04-30T05:50:29Z</time>
   </trkpt>
   <trkpt lat="52.0883910" lon="4.3138580">
    <ele>3.8</ele>
    <time>2021-04-30T05:50:30Z</time>
   </trkpt>
   <trkpt lat="52.0884190" lon="4.3138100">
    <ele>3.8</ele>
    <time>2021-04-30T05:50:31Z</time>
   </trkpt>
   <trkpt lat="52.0884540" lon="4.3137510">
    <ele>3.8</ele>
    <time>2021-04-30T05:50:32Z</time>
   </trkpt>
   <trkpt lat="52.0884870" lon="4.3137060">
    <ele>3.8</ele>
    <time>2021-04-30T05:50:33Z</time>
   </trkpt>
   <trkpt lat="52.0885230" lon="4.3136900">
    <ele>3.8</ele>
    <time>2021-04-30T05:50:34Z</time>
   </trkpt>
   <trkpt lat="52.0885400" lon="4.3136830">
    <ele>3.8</ele>
    <time>2021-04-30T05:50:35Z</time>
   </trkpt>
   <trkpt lat="52.0885880" lon="4.3136620">
    <ele>3.8</ele>
    <time>2021-04-30T05:50:36Z</time>
   </trkpt>
   <trkpt lat="52.0886490" lon="4.3136660">
    <ele>3.8</ele>
    <time>2021-04-30T05:50:37Z</time>
   </trkpt>
   <trkpt lat="52.0887170" lon="4.3136850">
    <ele>3.7</ele>
    <time>2021-04-30T05:50:38Z</time>
   </trkpt>
   <trkpt lat="52.0887900" lon="4.3137070">
    <ele>3.7</ele>
    <time>2021-04-30T05:50:39Z</time>
   </trkpt>
   <trkpt lat="52.0888640" lon="4.3137310">
    <ele>3.6</ele>
    <time>2021-04-30T05:50:40Z</time>
   </trkpt>
   <trkpt lat="52.0889390" lon="4.3137230">
    <ele>3.6</ele>
    <time>2021-04-30T05:50:41Z</time>
   </trkpt>
   <trkpt lat="52.0890070" lon="4.3136900">
    <ele>3.6</ele>
    <time>2021-04-30T05:50:42Z</time>
   </trkpt>
   <trkpt lat="52.0890700" lon="4.3136400">
    <ele>3.5</ele>
    <time>2021-04-30T05:50:43Z</time>
   </trkpt>
   <trkpt lat="52.0891260" lon="4.3135700">
    <ele>3.5</ele>
    <time>2021-04-30T05:50:44Z</time>
   </trkpt>
   <trkpt lat="52.0891770" lon="4.3134930">
    <ele>3.6</ele>
    <time>2021-04-30T05:50:45Z</time>
   </trkpt>
   <trkpt lat="52.0892280" lon="4.3134140">
    <ele>3.6</ele>
    <time>2021-04-30T05:50:46Z</time>
   </trkpt>
   <trkpt lat="52.0892810" lon="4.3133440">
    <ele>3.7</ele>
    <time>2021-04-30T05:50:47Z</time>
   </trkpt>
   <trkpt lat="52.0893340" lon="4.3132890">
    <ele>3.7</ele>
    <time>2021-04-30T05:50:48Z</time>
   </trkpt>
   <trkpt lat="52.0893840" lon="4.3132420">
    <ele>3.7</ele>
    <time>2021-04-30T05:50:49Z</time>
   </trkpt>
   <trkpt lat="52.0894330" lon="4.3132070">
    <ele>3.8</ele>
    <time>2021-04-30T05:50:50Z</time>
   </trkpt>
   <trkpt lat="52.0894620" lon="4.3131830">
    <ele>3.8</ele>
    <time>2021-04-30T05:50:51Z</time>
   </trkpt>
   <trkpt lat="52.0894800" lon="4.3131680">
    <ele>3.8</ele>
    <time>2021-04-30T05:50:52Z</time>
   </trkpt>
   <trkpt lat="52.0894910" lon="4.3131610">
    <ele>3.8</ele>
    <time>2021-04-30T05:50:53Z</time>
   </trkpt>
   <trkpt lat="52.0895020" lon="4.3131540">
    <ele>3.8</ele>
    <time>2021-04-30T05:50:54Z</time>
   </trkpt>
   <trkpt lat="52.0895400" lon="4.3131260">
    <ele>3.8</ele>
    <time>2021-04-30T05:50:55Z</time>
   </trkpt>
   <trkpt lat="52.0895530" lon="4.3131130">
    <ele>3.9</ele>
    <time>2021-04-30T05:50:56Z</time>
   </trkpt>
   <trkpt lat="52.0895780" lon="4.3130910">
    <ele>3.9</ele>
    <time>2021-04-30T05:50:57Z</time>
   </trkpt>
   <trkpt lat="52.0896130" lon="4.3130770">
    <ele>3.9</ele>
    <time>2021-04-30T05:50:58Z</time>
   </trkpt>
   <trkpt lat="52.0896590" lon="4.3130270">
    <ele>4.0</ele>
    <time>2021-04-30T05:51:00Z</time>
   </trkpt>
   <trkpt lat="52.0897230" lon="4.3129630">
    <ele>4.1</ele>
    <time>2021-04-30T05:51:01Z</time>
   </trkpt>
   <trkpt lat="52.0899020" lon="4.3128280">
    <ele>4.3</ele>
    <time>2021-04-30T05:51:03Z</time>
   </trkpt>
   <trkpt lat="52.0900170" lon="4.3127050">
    <ele>4.6</ele>
    <time>2021-04-30T05:51:04Z</time>
   </trkpt>
   <trkpt lat="52.0900940" lon="4.3126120">
    <ele>4.6</ele>
    <time>2021-04-30T05:51:05Z</time>
   </trkpt>
   <trkpt lat="52.0901580" lon="4.3125430">
    <ele>4.4</ele>
    <time>2021-04-30T05:51:06Z</time>
   </trkpt>
   <trkpt lat="52.0902160" lon="4.3124870">
    <ele>4.3</ele>
    <time>2021-04-30T05:51:07Z</time>
   </trkpt>
   <trkpt lat="52.0902700" lon="4.3124370">
    <ele>4.2</ele>
    <time>2021-04-30T05:51:08Z</time>
   </trkpt>
   <trkpt lat="52.0903200" lon="4.3123920">
    <ele>4.1</ele>
    <time>2021-04-30T05:51:09Z</time>
   </trkpt>
   <trkpt lat="52.0903690" lon="4.3123440">
    <ele>4.0</ele>
    <time>2021-04-30T05:51:10Z</time>
   </trkpt>
   <trkpt lat="52.0904220" lon="4.3122940">
    <ele>3.9</ele>
    <time>2021-04-30T05:51:11Z</time>
   </trkpt>
   <trkpt lat="52.0904790" lon="4.3122520">
    <ele>3.8</ele>
    <time>2021-04-30T05:51:12Z</time>
   </trkpt>
   <trkpt lat="52.0905290" lon="4.3122180">
    <ele>3.7</ele>
    <time>2021-04-30T05:51:13Z</time>
   </trkpt>
   <trkpt lat="52.0905780" lon="4.3121810">
    <ele>3.6</ele>
    <time>2021-04-30T05:51:14Z</time>
   </trkpt>
   <trkpt lat="52.0906310" lon="4.3121430">
    <ele>3.5</ele>
    <time>2021-04-30T05:51:15Z</time>
   </trkpt>
   <trkpt lat="52.0906810" lon="4.3120950">
    <ele>3.5</ele>
    <time>2021-04-30T05:51:16Z</time>
   </trkpt>
   <trkpt lat="52.0907310" lon="4.3120650">
    <ele>3.4</ele>
    <time>2021-04-30T05:51:17Z</time>
   </trkpt>
   <trkpt lat="52.0907840" lon="4.3120260">
    <ele>3.4</ele>
    <time>2021-04-30T05:51:18Z</time>
   </trkpt>
   <trkpt lat="52.0908380" lon="4.3119840">
    <ele>3.3</ele>
    <time>2021-04-30T05:51:19Z</time>
   </trkpt>
   <trkpt lat="52.0908910" lon="4.3119290">
    <ele>3.3</ele>
    <time>2021-04-30T05:51:20Z</time>
   </trkpt>
   <trkpt lat="52.0909380" lon="4.3118720">
    <ele>3.3</ele>
    <time>2021-04-30T05:51:21Z</time>
   </trkpt>
   <trkpt lat="52.0909890" lon="4.3118250">
    <ele>3.3</ele>
    <time>2021-04-30T05:51:22Z</time>
   </trkpt>
   <trkpt lat="52.0910400" lon="4.3117880">
    <ele>3.2</ele>
    <time>2021-04-30T05:51:23Z</time>
   </trkpt>
   <trkpt lat="52.0910930" lon="4.3117560">
    <ele>3.2</ele>
    <time>2021-04-30T05:51:24Z</time>
   </trkpt>
   <trkpt lat="52.0911390" lon="4.3117290">
    <ele>3.2</ele>
    <time>2021-04-30T05:51:25Z</time>
   </trkpt>
   <trkpt lat="52.0911810" lon="4.3116760">
    <ele>3.2</ele>
    <time>2021-04-30T05:51:26Z</time>
   </trkpt>
   <trkpt lat="52.0912150" lon="4.3116190">
    <ele>3.1</ele>
    <time>2021-04-30T05:51:27Z</time>
   </trkpt>
   <trkpt lat="52.0912430" lon="4.3115840">
    <ele>3.1</ele>
    <time>2021-04-30T05:51:28Z</time>
   </trkpt>
   <trkpt lat="52.0912520" lon="4.3115860">
    <ele>3.1</ele>
    <time>2021-04-30T05:51:29Z</time>
   </trkpt>
   <trkpt lat="52.0912620" lon="4.3115880">
    <ele>3.1</ele>
    <time>2021-04-30T05:51:30Z</time>
   </trkpt>
   <trkpt lat="52.0912740" lon="4.3115860">
    <ele>3.1</ele>
    <time>2021-04-30T05:51:31Z</time>
   </trkpt>
   <trkpt lat="52.0914430" lon="4.3115140">
    <ele>3.1</ele>
    <time>2021-04-30T05:51:32Z</time>
   </trkpt>
   <trkpt lat="52.0914990" lon="4.3114890">
    <ele>3.1</ele>
    <time>2021-04-30T05:51:33Z</time>
   </trkpt>
   <trkpt lat="52.0915970" lon="4.3114540">
    <ele>3.1</ele>
    <time>2021-04-30T05:51:34Z</time>
   </trkpt>
   <trkpt lat="52.0916830" lon="4.3114100">
    <ele>3.0</ele>
    <time>2021-04-30T05:51:35Z</time>
   </trkpt>
   <trkpt lat="52.0917550" lon="4.3113620">
    <ele>3.0</ele>
    <time>2021-04-30T05:51:36Z</time>
   </trkpt>
   <trkpt lat="52.0918170" lon="4.3113180">
    <ele>3.1</ele>
    <time>2021-04-30T05:51:37Z</time>
   </trkpt>
   <trkpt lat="52.0918810" lon="4.3112710">
    <ele>3.1</ele>
    <time>2021-04-30T05:51:38Z</time>
   </trkpt>
   <trkpt lat="52.0918460" lon="4.3113000">
    <ele>3.1</ele>
    <time>2021-04-30T05:51:39Z</time>
   </trkpt>
   <trkpt lat="52.0918680" lon="4.3112880">
    <ele>3.1</ele>
    <time>2021-04-30T05:51:40Z</time>
   </trkpt>
   <trkpt lat="52.0918810" lon="4.3112790">
    <ele>3.1</ele>
    <time>2021-04-30T05:51:41Z</time>
   </trkpt>
   <trkpt lat="52.0919050" lon="4.3112490">
    <ele>3.1</ele>
    <time>2021-04-30T05:51:43Z</time>
   </trkpt>
   <trkpt lat="52.0919320" lon="4.3112250">
    <ele>3.1</ele>
    <time>2021-04-30T05:51:44Z</time>
   </trkpt>
   <trkpt lat="52.0919830" lon="4.3111860">
    <ele>3.1</ele>
    <time>2021-04-30T05:51:45Z</time>
   </trkpt>
   <trkpt lat="52.0920270" lon="4.3111550">
    <ele>3.2</ele>
    <time>2021-04-30T05:51:47Z</time>
   </trkpt>
   <trkpt lat="52.0921000" lon="4.3110990">
    <ele>3.3</ele>
    <time>2021-04-30T05:51:48Z</time>
   </trkpt>
   <trkpt lat="52.0921650" lon="4.3110580">
    <ele>3.3</ele>
    <time>2021-04-30T05:51:50Z</time>
   </trkpt>
   <trkpt lat="52.0922360" lon="4.3110210">
    <ele>3.4</ele>
    <time>2021-04-30T05:51:51Z</time>
   </trkpt>
   <trkpt lat="52.0923000" lon="4.3109770">
    <ele>3.6</ele>
    <time>2021-04-30T05:51:52Z</time>
   </trkpt>
   <trkpt lat="52.0924940" lon="4.3107920">
    <ele>4.2</ele>
    <time>2021-04-30T05:51:54Z</time>
   </trkpt>
   <trkpt lat="52.0925630" lon="4.3107250">
    <ele>4.5</ele>
    <time>2021-04-30T05:51:55Z</time>
   </trkpt>
   <trkpt lat="52.0926050" lon="4.3106930">
    <ele>4.7</ele>
    <time>2021-04-30T05:51:56Z</time>
   </trkpt>
   <trkpt lat="52.0926580" lon="4.3106660">
    <ele>4.8</ele>
    <time>2021-04-30T05:51:57Z</time>
   </trkpt>
   <trkpt lat="52.0926860" lon="4.3106550">
    <ele>4.7</ele>
    <time>2021-04-30T05:51:59Z</time>
   </trkpt>
   <trkpt lat="52.0927040" lon="4.3106370">
    <ele>4.7</ele>
    <time>2021-04-30T05:52:00Z</time>
   </trkpt>
   <trkpt lat="52.0927220" lon="4.3106180">
    <ele>4.7</ele>
    <time>2021-04-30T05:52:01Z</time>
   </trkpt>
   <trkpt lat="52.0927620" lon="4.3105650">
    <ele>4.7</ele>
    <time>2021-04-30T05:52:03Z</time>
   </trkpt>
   <trkpt lat="52.0928510" lon="4.3104340">
    <ele>4.6</ele>
    <time>2021-04-30T05:52:05Z</time>
   </trkpt>
   <trkpt lat="52.0928950" lon="4.3103950">
    <ele>4.5</ele>
    <time>2021-04-30T05:52:06Z</time>
   </trkpt>
   <trkpt lat="52.0929380" lon="4.3103610">
    <ele>4.5</ele>
    <time>2021-04-30T05:52:07Z</time>
   </trkpt>
   <trkpt lat="52.0929830" lon="4.3103250">
    <ele>4.4</ele>
    <time>2021-04-30T05:52:08Z</time>
   </trkpt>
   <trkpt lat="52.0930270" lon="4.3102960">
    <ele>4.4</ele>
    <time>2021-04-30T05:52:09Z</time>
   </trkpt>
   <trkpt lat="52.0930720" lon="4.3102650">
    <ele>4.3</ele>
    <time>2021-04-30T05:52:10Z</time>
   </trkpt>
   <trkpt lat="52.0931170" lon="4.3102170">
    <ele>4.3</ele>
    <time>2021-04-30T05:52:11Z</time>
   </trkpt>
   <trkpt lat="52.0931640" lon="4.3101740">
    <ele>4.3</ele>
    <time>2021-04-30T05:52:12Z</time>
   </trkpt>
   <trkpt lat="52.0932090" lon="4.3101350">
    <ele>4.2</ele>
    <time>2021-04-30T05:52:13Z</time>
   </trkpt>
   <trkpt lat="52.0932490" lon="4.3101020">
    <ele>4.2</ele>
    <time>2021-04-30T05:52:14Z</time>
   </trkpt>
   <trkpt lat="52.0933440" lon="4.3100090">
    <ele>4.2</ele>
    <time>2021-04-30T05:52:16Z</time>
   </trkpt>
   <trkpt lat="52.0933840" lon="4.3099610">
    <ele>4.1</ele>
    <time>2021-04-30T05:52:17Z</time>
   </trkpt>
   <trkpt lat="52.0934190" lon="4.3099110">
    <ele>4.1</ele>
    <time>2021-04-30T05:52:18Z</time>
   </trkpt>
   <trkpt lat="52.0934890" lon="4.3098520">
    <ele>4.1</ele>
    <time>2021-04-30T05:52:19Z</time>
   </trkpt>
   <trkpt lat="52.0935360" lon="4.3097990">
    <ele>4.1</ele>
    <time>2021-04-30T05:52:20Z</time>
   </trkpt>
   <trkpt lat="52.0935820" lon="4.3097470">
    <ele>4.1</ele>
    <time>2021-04-30T05:52:22Z</time>
   </trkpt>
   <trkpt lat="52.0936190" lon="4.3097010">
    <ele>4.0</ele>
    <time>2021-04-30T05:52:23Z</time>
   </trkpt>
   <trkpt lat="52.0936160" lon="4.3096910">
    <ele>4.0</ele>
    <time>2021-04-30T05:52:24Z</time>
   </trkpt>
   <trkpt lat="52.0936270" lon="4.3096760">
    <ele>4.0</ele>
    <time>2021-04-30T05:52:25Z</time>
   </trkpt>
   <trkpt lat="52.0937360" lon="4.3095780">
    <ele>4.0</ele>
    <time>2021-04-30T05:52:27Z</time>
   </trkpt>
   <trkpt lat="52.0938290" lon="4.3095250">
    <ele>3.9</ele>
    <time>2021-04-30T05:52:28Z</time>
   </trkpt>
   <trkpt lat="52.0939240" lon="4.3094720">
    <ele>3.9</ele>
    <time>2021-04-30T05:52:29Z</time>
   </trkpt>
   <trkpt lat="52.0940040" lon="4.3094200">
    <ele>3.9</ele>
    <time>2021-04-30T05:52:30Z</time>
   </trkpt>
   <trkpt lat="52.0940710" lon="4.3093700">
    <ele>3.9</ele>
    <time>2021-04-30T05:52:31Z</time>
   </trkpt>
   <trkpt lat="52.0941300" lon="4.3093230">
    <ele>3.9</ele>
    <time>2021-04-30T05:52:32Z</time>
   </trkpt>
   <trkpt lat="52.0941840" lon="4.3092750">
    <ele>3.9</ele>
    <time>2021-04-30T05:52:33Z</time>
   </trkpt>
   <trkpt lat="52.0942320" lon="4.3092310">
    <ele>4.0</ele>
    <time>2021-04-30T05:52:34Z</time>
   </trkpt>
   <trkpt lat="52.0942790" lon="4.3091980">
    <ele>4.0</ele>
    <time>2021-04-30T05:52:35Z</time>
   </trkpt>
   <trkpt lat="52.0943230" lon="4.3091730">
    <ele>4.0</ele>
    <time>2021-04-30T05:52:36Z</time>
   </trkpt>
   <trkpt lat="52.0943660" lon="4.3091450">
    <ele>4.1</ele>
    <time>2021-04-30T05:52:37Z</time>
   </trkpt>
   <trkpt lat="52.0944060" lon="4.3091060">
    <ele>4.1</ele>
    <time>2021-04-30T05:52:38Z</time>
   </trkpt>
   <trkpt lat="52.0944440" lon="4.3090620">
    <ele>4.1</ele>
    <time>2021-04-30T05:52:39Z</time>
   </trkpt>
   <trkpt lat="52.0944820" lon="4.3090210">
    <ele>4.2</ele>
    <time>2021-04-30T05:52:40Z</time>
   </trkpt>
   <trkpt lat="52.0945190" lon="4.3089810">
    <ele>4.2</ele>
    <time>2021-04-30T05:52:41Z</time>
   </trkpt>
   <trkpt lat="52.0945530" lon="4.3089390">
    <ele>4.3</ele>
    <time>2021-04-30T05:52:42Z</time>
   </trkpt>
   <trkpt lat="52.0945850" lon="4.3088900">
    <ele>4.3</ele>
    <time>2021-04-30T05:52:43Z</time>
   </trkpt>
   <trkpt lat="52.0946200" lon="4.3088370">
    <ele>4.3</ele>
    <time>2021-04-30T05:52:44Z</time>
   </trkpt>
   <trkpt lat="52.0946570" lon="4.3087870">
    <ele>4.4</ele>
    <time>2021-04-30T05:52:45Z</time>
   </trkpt>
   <trkpt lat="52.0946900" lon="4.3087420">
    <ele>4.4</ele>
    <time>2021-04-30T05:52:46Z</time>
   </trkpt>
   <trkpt lat="52.0947250" lon="4.3087020">
    <ele>4.4</ele>
    <time>2021-04-30T05:52:47Z</time>
   </trkpt>
   <trkpt lat="52.0947570" lon="4.3086570">
    <ele>4.4</ele>
    <time>2021-04-30T05:52:48Z</time>
   </trkpt>
   <trkpt lat="52.0947930" lon="4.3086110">
    <ele>4.4</ele>
    <time>2021-04-30T05:52:49Z</time>
   </trkpt>
   <trkpt lat="52.0948340" lon="4.3085730">
    <ele>4.5</ele>
    <time>2021-04-30T05:52:50Z</time>
   </trkpt>
   <trkpt lat="52.0948770" lon="4.3085480">
    <ele>4.5</ele>
    <time>2021-04-30T05:52:51Z</time>
   </trkpt>
   <trkpt lat="52.0949200" lon="4.3085200">
    <ele>4.5</ele>
    <time>2021-04-30T05:52:52Z</time>
   </trkpt>
   <trkpt lat="52.0949610" lon="4.3084810">
    <ele>4.5</ele>
    <time>2021-04-30T05:52:53Z</time>
   </trkpt>
   <trkpt lat="52.0949970" lon="4.3084550">
    <ele>4.5</ele>
    <time>2021-04-30T05:52:54Z</time>
   </trkpt>
   <trkpt lat="52.0950410" lon="4.3084440">
    <ele>4.4</ele>
    <time>2021-04-30T05:52:55Z</time>
   </trkpt>
   <trkpt lat="52.0950690" lon="4.3084430">
    <ele>4.4</ele>
    <time>2021-04-30T05:52:56Z</time>
   </trkpt>
   <trkpt lat="52.0950980" lon="4.3084700">
    <ele>4.4</ele>
    <time>2021-04-30T05:52:57Z</time>
   </trkpt>
   <trkpt lat="52.0951440" lon="4.3084600">
    <ele>4.4</ele>
    <time>2021-04-30T05:52:58Z</time>
   </trkpt>
   <trkpt lat="52.0951700" lon="4.3084490">
    <ele>4.4</ele>
    <time>2021-04-30T05:52:59Z</time>
   </trkpt>
   <trkpt lat="52.0952180" lon="4.3084120">
    <ele>4.4</ele>
    <time>2021-04-30T05:53:00Z</time>
   </trkpt>
   <trkpt lat="52.0952630" lon="4.3083810">
    <ele>4.4</ele>
    <time>2021-04-30T05:53:01Z</time>
   </trkpt>
   <trkpt lat="52.0952900" lon="4.3083520">
    <ele>4.4</ele>
    <time>2021-04-30T05:53:02Z</time>
   </trkpt>
   <trkpt lat="52.0953000" lon="4.3083410">
    <ele>4.4</ele>
    <time>2021-04-30T05:53:03Z</time>
   </trkpt>
   <trkpt lat="52.0953290" lon="4.3082990">
    <ele>4.3</ele>
    <time>2021-04-30T05:53:04Z</time>
   </trkpt>
   <trkpt lat="52.0953650" lon="4.3082520">
    <ele>4.3</ele>
    <time>2021-04-30T05:53:06Z</time>
   </trkpt>
   <trkpt lat="52.0953910" lon="4.3082260">
    <ele>4.3</ele>
    <time>2021-04-30T05:53:07Z</time>
   </trkpt>
   <trkpt lat="52.0954390" lon="4.3081880">
    <ele>4.3</ele>
    <time>2021-04-30T05:53:08Z</time>
   </trkpt>
   <trkpt lat="52.0955040" lon="4.3081360">
    <ele>4.2</ele>
    <time>2021-04-30T05:53:09Z</time>
   </trkpt>
   <trkpt lat="52.0955610" lon="4.3080810">
    <ele>4.2</ele>
    <time>2021-04-30T05:53:11Z</time>
   </trkpt>
   <trkpt lat="52.0955940" lon="4.3080500">
    <ele>4.2</ele>
    <time>2021-04-30T05:53:12Z</time>
   </trkpt>
   <trkpt lat="52.0956530" lon="4.3079970">
    <ele>4.1</ele>
    <time>2021-04-30T05:53:13Z</time>
   </trkpt>
   <trkpt lat="52.0957330" lon="4.3079330">
    <ele>4.0</ele>
    <time>2021-04-30T05:53:14Z</time>
   </trkpt>
   <trkpt lat="52.0957900" lon="4.3078830">
    <ele>4.0</ele>
    <time>2021-04-30T05:53:16Z</time>
   </trkpt>
   <trkpt lat="52.0958830" lon="4.3077990">
    <ele>3.9</ele>
    <time>2021-04-30T05:53:17Z</time>
   </trkpt>
   <trkpt lat="52.0959460" lon="4.3077440">
    <ele>3.9</ele>
    <time>2021-04-30T05:53:19Z</time>
   </trkpt>
   <trkpt lat="52.0960280" lon="4.3076750">
    <ele>3.9</ele>
    <time>2021-04-30T05:53:21Z</time>
   </trkpt>
   <trkpt lat="52.0960920" lon="4.3076120">
    <ele>3.9</ele>
    <time>2021-04-30T05:53:22Z</time>
   </trkpt>
   <trkpt lat="52.0961780" lon="4.3075300">
    <ele>3.9</ele>
    <time>2021-04-30T05:53:23Z</time>
   </trkpt>
   <trkpt lat="52.0962660" lon="4.3074530">
    <ele>4.0</ele>
    <time>2021-04-30T05:53:25Z</time>
   </trkpt>
   <trkpt lat="52.0963190" lon="4.3074100">
    <ele>4.0</ele>
    <time>2021-04-30T05:53:26Z</time>
   </trkpt>
   <trkpt lat="52.0964820" lon="4.3073480">
    <ele>4.3</ele>
    <time>2021-04-30T05:53:28Z</time>
   </trkpt>
   <trkpt lat="52.0965250" lon="4.3073580">
    <ele>4.3</ele>
    <time>2021-04-30T05:53:29Z</time>
   </trkpt>
   <trkpt lat="52.0965830" lon="4.3073740">
    <ele>4.1</ele>
    <time>2021-04-30T05:53:30Z</time>
   </trkpt>
   <trkpt lat="52.0966850" lon="4.3074750">
    <ele>3.8</ele>
    <time>2021-04-30T05:53:32Z</time>
   </trkpt>
   <trkpt lat="52.0967750" lon="4.3076290">
    <ele>3.6</ele>
    <time>2021-04-30T05:53:34Z</time>
   </trkpt>
   <trkpt lat="52.0967960" lon="4.3076720">
    <ele>3.5</ele>
    <time>2021-04-30T05:53:35Z</time>
   </trkpt>
   <trkpt lat="52.0968570" lon="4.3077730">
    <ele>3.4</ele>
    <time>2021-04-30T05:53:36Z</time>
   </trkpt>
   <trkpt lat="52.0968860" lon="4.3078190">
    <ele>3.4</ele>
    <time>2021-04-30T05:53:37Z</time>
   </trkpt>
   <trkpt lat="52.0969500" lon="4.3079130">
    <ele>3.4</ele>
    <time>2021-04-30T05:53:38Z</time>
   </trkpt>
   <trkpt lat="52.0970070" lon="4.3079900">
    <ele>3.3</ele>
    <time>2021-04-30T05:53:40Z</time>
   </trkpt>
   <trkpt lat="52.0971070" lon="4.3081050">
    <ele>3.3</ele>
    <time>2021-04-30T05:53:42Z</time>
   </trkpt>
   <trkpt lat="52.0971460" lon="4.3081480">
    <ele>3.3</ele>
    <time>2021-04-30T05:53:43Z</time>
   </trkpt>
   <trkpt lat="52.0971940" lon="4.3081620">
    <ele>3.3</ele>
    <time>2021-04-30T05:53:44Z</time>
   </trkpt>
   <trkpt lat="52.0972600" lon="4.3082080">
    <ele>3.3</ele>
    <time>2021-04-30T05:53:45Z</time>
   </trkpt>
   <trkpt lat="52.0973020" lon="4.3082780">
    <ele>3.3</ele>
    <time>2021-04-30T05:53:47Z</time>
   </trkpt>
   <trkpt lat="52.0973460" lon="4.3083310">
    <ele>3.3</ele>
    <time>2021-04-30T05:53:48Z</time>
   </trkpt>
   <trkpt lat="52.0973790" lon="4.3083890">
    <ele>3.3</ele>
    <time>2021-04-30T05:53:49Z</time>
   </trkpt>
   <trkpt lat="52.0974160" lon="4.3084460">
    <ele>3.4</ele>
    <time>2021-04-30T05:53:50Z</time>
   </trkpt>
   <trkpt lat="52.0974580" lon="4.3085020">
    <ele>3.4</ele>
    <time>2021-04-30T05:53:51Z</time>
   </trkpt>
   <trkpt lat="52.0975010" lon="4.3085480">
    <ele>3.4</ele>
    <time>2021-04-30T05:53:52Z</time>
   </trkpt>
   <trkpt lat="52.0975470" lon="4.3085830">
    <ele>3.5</ele>
    <time>2021-04-30T05:53:53Z</time>
   </trkpt>
   <trkpt lat="52.0976230" lon="4.3086620">
    <ele>3.5</ele>
    <time>2021-04-30T05:53:55Z</time>
   </trkpt>
   <trkpt lat="52.0976450" lon="4.3087010">
    <ele>3.6</ele>
    <time>2021-04-30T05:53:56Z</time>
   </trkpt>
   <trkpt lat="52.0976800" lon="4.3087430">
    <ele>3.6</ele>
    <time>2021-04-30T05:53:57Z</time>
   </trkpt>
   <trkpt lat="52.0977450" lon="4.3088380">
    <ele>3.6</ele>
    <time>2021-04-30T05:53:59Z</time>
   </trkpt>
   <trkpt lat="52.0978040" lon="4.3089080">
    <ele>3.7</ele>
    <time>2021-04-30T05:54:00Z</time>
   </trkpt>
   <trkpt lat="52.0978780" lon="4.3089840">
    <ele>3.7</ele>
    <time>2021-04-30T05:54:01Z</time>
   </trkpt>
   <trkpt lat="52.0979410" lon="4.3090430">
    <ele>3.8</ele>
    <time>2021-04-30T05:54:03Z</time>
   </trkpt>
   <trkpt lat="52.0979880" lon="4.3090900">
    <ele>3.8</ele>
    <time>2021-04-30T05:54:04Z</time>
   </trkpt>
   <trkpt lat="52.0980360" lon="4.3091390">
    <ele>3.8</ele>
    <time>2021-04-30T05:54:05Z</time>
   </trkpt>
   <trkpt lat="52.0980870" lon="4.3091930">
    <ele>3.8</ele>
    <time>2021-04-30T05:54:06Z</time>
   </trkpt>
   <trkpt lat="52.0981450" lon="4.3092540">
    <ele>3.8</ele>
    <time>2021-04-30T05:54:07Z</time>
   </trkpt>
   <trkpt lat="52.0982020" lon="4.3093110">
    <ele>3.9</ele>
    <time>2021-04-30T05:54:08Z</time>
   </trkpt>
   <trkpt lat="52.0982560" lon="4.3093620">
    <ele>3.9</ele>
    <time>2021-04-30T05:54:09Z</time>
   </trkpt>
   <trkpt lat="52.0983110" lon="4.3094010">
    <ele>3.9</ele>
    <time>2021-04-30T05:54:10Z</time>
   </trkpt>
   <trkpt lat="52.0983660" lon="4.3094350">
    <ele>4.0</ele>
    <time>2021-04-30T05:54:11Z</time>
   </trkpt>
   <trkpt lat="52.0984180" lon="4.3094760">
    <ele>4.0</ele>
    <time>2021-04-30T05:54:12Z</time>
   </trkpt>
   <trkpt lat="52.0984630" lon="4.3095220">
    <ele>4.0</ele>
    <time>2021-04-30T05:54:13Z</time>
   </trkpt>
   <trkpt lat="52.0985040" lon="4.3095770">
    <ele>4.1</ele>
    <time>2021-04-30T05:54:14Z</time>
   </trkpt>
   <trkpt lat="52.0985390" lon="4.3096370">
    <ele>4.2</ele>
    <time>2021-04-30T05:54:15Z</time>
   </trkpt>
   <trkpt lat="52.0985680" lon="4.3096950">
    <ele>4.2</ele>
    <time>2021-04-30T05:54:16Z</time>
   </trkpt>
   <trkpt lat="52.0985980" lon="4.3097500">
    <ele>4.3</ele>
    <time>2021-04-30T05:54:17Z</time>
   </trkpt>
   <trkpt lat="52.0986310" lon="4.3098010">
    <ele>4.3</ele>
    <time>2021-04-30T05:54:18Z</time>
   </trkpt>
   <trkpt lat="52.0986680" lon="4.3098530">
    <ele>4.4</ele>
    <time>2021-04-30T05:54:19Z</time>
   </trkpt>
   <trkpt lat="52.0987050" lon="4.3099080">
    <ele>4.5</ele>
    <time>2021-04-30T05:54:20Z</time>
   </trkpt>
   <trkpt lat="52.0987420" lon="4.3099630">
    <ele>4.5</ele>
    <time>2021-04-30T05:54:21Z</time>
   </trkpt>
   <trkpt lat="52.0987810" lon="4.3100160">
    <ele>4.5</ele>
    <time>2021-04-30T05:54:22Z</time>
   </trkpt>
   <trkpt lat="52.0988200" lon="4.3100710">
    <ele>4.5</ele>
    <time>2021-04-30T05:54:23Z</time>
   </trkpt>
   <trkpt lat="52.0988580" lon="4.3101340">
    <ele>4.5</ele>
    <time>2021-04-30T05:54:24Z</time>
   </trkpt>
   <trkpt lat="52.0988940" lon="4.3101970">
    <ele>4.5</ele>
    <time>2021-04-30T05:54:25Z</time>
   </trkpt>
   <trkpt lat="52.0989310" lon="4.3102570">
    <ele>4.5</ele>
    <time>2021-04-30T05:54:26Z</time>
   </trkpt>
   <trkpt lat="52.0989710" lon="4.3103100">
    <ele>4.5</ele>
    <time>2021-04-30T05:54:27Z</time>
   </trkpt>
   <trkpt lat="52.0990110" lon="4.3103540">
    <ele>4.5</ele>
    <time>2021-04-30T05:54:28Z</time>
   </trkpt>
   <trkpt lat="52.0990520" lon="4.3103960">
    <ele>4.4</ele>
    <time>2021-04-30T05:54:29Z</time>
   </trkpt>
   <trkpt lat="52.0990950" lon="4.3104370">
    <ele>4.4</ele>
    <time>2021-04-30T05:54:30Z</time>
   </trkpt>
   <trkpt lat="52.0991380" lon="4.3104790">
    <ele>4.4</ele>
    <time>2021-04-30T05:54:31Z</time>
   </trkpt>
   <trkpt lat="52.0991790" lon="4.3105280">
    <ele>4.4</ele>
    <time>2021-04-30T05:54:32Z</time>
   </trkpt>
   <trkpt lat="52.0992220" lon="4.3105830">
    <ele>4.4</ele>
    <time>2021-04-30T05:54:33Z</time>
   </trkpt>
   <trkpt lat="52.0992650" lon="4.3106370">
    <ele>4.4</ele>
    <time>2021-04-30T05:54:34Z</time>
   </trkpt>
   <trkpt lat="52.0993060" lon="4.3106880">
    <ele>4.4</ele>
    <time>2021-04-30T05:54:35Z</time>
   </trkpt>
   <trkpt lat="52.0993450" lon="4.3107350">
    <ele>4.4</ele>
    <time>2021-04-30T05:54:36Z</time>
   </trkpt>
   <trkpt lat="52.0993840" lon="4.3107820">
    <ele>4.5</ele>
    <time>2021-04-30T05:54:37Z</time>
   </trkpt>
   <trkpt lat="52.0994210" lon="4.3108290">
    <ele>4.5</ele>
    <time>2021-04-30T05:54:38Z</time>
   </trkpt>
   <trkpt lat="52.0994620" lon="4.3108730">
    <ele>4.5</ele>
    <time>2021-04-30T05:54:39Z</time>
   </trkpt>
   <trkpt lat="52.0995010" lon="4.3109140">
    <ele>4.5</ele>
    <time>2021-04-30T05:54:40Z</time>
   </trkpt>
   <trkpt lat="52.0995390" lon="4.3109550">
    <ele>4.4</ele>
    <time>2021-04-30T05:54:41Z</time>
   </trkpt>
   <trkpt lat="52.0995740" lon="4.3110010">
    <ele>4.4</ele>
    <time>2021-04-30T05:54:42Z</time>
   </trkpt>
   <trkpt lat="52.0996080" lon="4.3110460">
    <ele>4.4</ele>
    <time>2021-04-30T05:54:43Z</time>
   </trkpt>
   <trkpt lat="52.0996460" lon="4.3110850">
    <ele>4.4</ele>
    <time>2021-04-30T05:54:44Z</time>
   </trkpt>
   <trkpt lat="52.0996850" lon="4.3111220">
    <ele>4.4</ele>
    <time>2021-04-30T05:54:45Z</time>
   </trkpt>
   <trkpt lat="52.0997210" lon="4.3111650">
    <ele>4.4</ele>
    <time>2021-04-30T05:54:46Z</time>
   </trkpt>
   <trkpt lat="52.0997560" lon="4.3112170">
    <ele>4.4</ele>
    <time>2021-04-30T05:54:47Z</time>
   </trkpt>
   <trkpt lat="52.0997900" lon="4.3112740">
    <ele>4.4</ele>
    <time>2021-04-30T05:54:48Z</time>
   </trkpt>
   <trkpt lat="52.0998220" lon="4.3113360">
    <ele>4.4</ele>
    <time>2021-04-30T05:54:49Z</time>
   </trkpt>
   <trkpt lat="52.0998460" lon="4.3114060">
    <ele>4.4</ele>
    <time>2021-04-30T05:54:50Z</time>
   </trkpt>
   <trkpt lat="52.0998630" lon="4.3114830">
    <ele>4.4</ele>
    <time>2021-04-30T05:54:51Z</time>
   </trkpt>
   <trkpt lat="52.0998770" lon="4.3115640">
    <ele>4.4</ele>
    <time>2021-04-30T05:54:52Z</time>
   </trkpt>
   <trkpt lat="52.0998960" lon="4.3116360">
    <ele>4.4</ele>
    <time>2021-04-30T05:54:53Z</time>
   </trkpt>
   <trkpt lat="52.0999270" lon="4.3116900">
    <ele>4.4</ele>
    <time>2021-04-30T05:54:54Z</time>
   </trkpt>
   <trkpt lat="52.0999680" lon="4.3117250">
    <ele>4.4</ele>
    <time>2021-04-30T05:54:55Z</time>
   </trkpt>
   <trkpt lat="52.1000130" lon="4.3117470">
    <ele>4.4</ele>
    <time>2021-04-30T05:54:56Z</time>
   </trkpt>
   <trkpt lat="52.1000590" lon="4.3117610">
    <ele>4.4</ele>
    <time>2021-04-30T05:54:57Z</time>
   </trkpt>
   <trkpt lat="52.1001030" lon="4.3117740">
    <ele>4.4</ele>
    <time>2021-04-30T05:54:58Z</time>
   </trkpt>
   <trkpt lat="52.1001470" lon="4.3117900">
    <ele>4.3</ele>
    <time>2021-04-30T05:54:59Z</time>
   </trkpt>
   <trkpt lat="52.1001910" lon="4.3118100">
    <ele>4.3</ele>
    <time>2021-04-30T05:55:00Z</time>
   </trkpt>
   <trkpt lat="52.1002350" lon="4.3118350">
    <ele>4.3</ele>
    <time>2021-04-30T05:55:01Z</time>
   </trkpt>
   <trkpt lat="52.1002770" lon="4.3118670">
    <ele>4.3</ele>
    <time>2021-04-30T05:55:02Z</time>
   </trkpt>
   <trkpt lat="52.1003140" lon="4.3119120">
    <ele>4.3</ele>
    <time>2021-04-30T05:55:03Z</time>
   </trkpt>
   <trkpt lat="52.1003490" lon="4.3119700">
    <ele>4.3</ele>
    <time>2021-04-30T05:55:04Z</time>
   </trkpt>
   <trkpt lat="52.1003860" lon="4.3120260">
    <ele>4.4</ele>
    <time>2021-04-30T05:55:05Z</time>
   </trkpt>
   <trkpt lat="52.1004300" lon="4.3120720">
    <ele>4.4</ele>
    <time>2021-04-30T05:55:06Z</time>
   </trkpt>
   <trkpt lat="52.1004790" lon="4.3121130">
    <ele>4.4</ele>
    <time>2021-04-30T05:55:07Z</time>
   </trkpt>
   <trkpt lat="52.1005260" lon="4.3121620">
    <ele>4.4</ele>
    <time>2021-04-30T05:55:08Z</time>
   </trkpt>
   <trkpt lat="52.1005650" lon="4.3122240">
    <ele>4.4</ele>
    <time>2021-04-30T05:55:09Z</time>
   </trkpt>
   <trkpt lat="52.1005990" lon="4.3122960">
    <ele>4.4</ele>
    <time>2021-04-30T05:55:10Z</time>
   </trkpt>
   <trkpt lat="52.1006330" lon="4.3123630">
    <ele>4.4</ele>
    <time>2021-04-30T05:55:11Z</time>
   </trkpt>
   <trkpt lat="52.1006670" lon="4.3124240">
    <ele>4.5</ele>
    <time>2021-04-30T05:55:12Z</time>
   </trkpt>
   <trkpt lat="52.1007010" lon="4.3124810">
    <ele>4.5</ele>
    <time>2021-04-30T05:55:13Z</time>
   </trkpt>
   <trkpt lat="52.1007360" lon="4.3125380">
    <ele>4.5</ele>
    <time>2021-04-30T05:55:14Z</time>
   </trkpt>
   <trkpt lat="52.1007730" lon="4.3125900">
    <ele>4.5</ele>
    <time>2021-04-30T05:55:15Z</time>
   </trkpt>
   <trkpt lat="52.1008120" lon="4.3126330">
    <ele>4.6</ele>
    <time>2021-04-30T05:55:16Z</time>
   </trkpt>
   <trkpt lat="52.1008500" lon="4.3126730">
    <ele>4.6</ele>
    <time>2021-04-30T05:55:17Z</time>
   </trkpt>
   <trkpt lat="52.1008830" lon="4.3127140">
    <ele>4.6</ele>
    <time>2021-04-30T05:55:18Z</time>
   </trkpt>
   <trkpt lat="52.1009130" lon="4.3127600">
    <ele>4.6</ele>
    <time>2021-04-30T05:55:19Z</time>
   </trkpt>
   <trkpt lat="52.1009400" lon="4.3128120">
    <ele>4.7</ele>
    <time>2021-04-30T05:55:20Z</time>
   </trkpt>
   <trkpt lat="52.1009660" lon="4.3128650">
    <ele>4.7</ele>
    <time>2021-04-30T05:55:21Z</time>
   </trkpt>
   <trkpt lat="52.1009960" lon="4.3129120">
    <ele>4.8</ele>
    <time>2021-04-30T05:55:22Z</time>
   </trkpt>
   <trkpt lat="52.1010280" lon="4.3129530">
    <ele>4.8</ele>
    <time>2021-04-30T05:55:23Z</time>
   </trkpt>
   <trkpt lat="52.1010630" lon="4.3129930">
    <ele>4.9</ele>
    <time>2021-04-30T05:55:24Z</time>
   </trkpt>
   <trkpt lat="52.1010980" lon="4.3130330">
    <ele>4.9</ele>
    <time>2021-04-30T05:55:25Z</time>
   </trkpt>
   <trkpt lat="52.1011230" lon="4.3130580">
    <ele>5.0</ele>
    <time>2021-04-30T05:55:26Z</time>
   </trkpt>
   <trkpt lat="52.1011570" lon="4.3130930">
    <ele>5.0</ele>
    <time>2021-04-30T05:55:27Z</time>
   </trkpt>
   <trkpt lat="52.1011910" lon="4.3131270">
    <ele>5.1</ele>
    <time>2021-04-30T05:55:28Z</time>
   </trkpt>
   <trkpt lat="52.1012260" lon="4.3131630">
    <ele>5.1</ele>
    <time>2021-04-30T05:55:29Z</time>
   </trkpt>
   <trkpt lat="52.1012610" lon="4.3132070">
    <ele>5.2</ele>
    <time>2021-04-30T05:55:30Z</time>
   </trkpt>
   <trkpt lat="52.1012960" lon="4.3132520">
    <ele>5.2</ele>
    <time>2021-04-30T05:55:31Z</time>
   </trkpt>
   <trkpt lat="52.1013310" lon="4.3132840">
    <ele>5.3</ele>
    <time>2021-04-30T05:55:32Z</time>
   </trkpt>
   <trkpt lat="52.1013860" lon="4.3133350">
    <ele>5.3</ele>
    <time>2021-04-30T05:55:33Z</time>
   </trkpt>
   <trkpt lat="52.1014250" lon="4.3133670">
    <ele>5.4</ele>
    <time>2021-04-30T05:55:34Z</time>
   </trkpt>
   <trkpt lat="52.1014650" lon="4.3134060">
    <ele>5.4</ele>
    <time>2021-04-30T05:55:35Z</time>
   </trkpt>
   <trkpt lat="52.1015020" lon="4.3134490">
    <ele>5.5</ele>
    <time>2021-04-30T05:55:36Z</time>
   </trkpt>
   <trkpt lat="52.1015430" lon="4.3134960">
    <ele>5.5</ele>
    <time>2021-04-30T05:55:38Z</time>
   </trkpt>
   <trkpt lat="52.1015740" lon="4.3135260">
    <ele>5.6</ele>
    <time>2021-04-30T05:55:39Z</time>
   </trkpt>
   <trkpt lat="52.1016110" lon="4.3135520">
    <ele>5.6</ele>
    <time>2021-04-30T05:55:40Z</time>
   </trkpt>
   <trkpt lat="52.1016560" lon="4.3135790">
    <ele>5.6</ele>
    <time>2021-04-30T05:55:41Z</time>
   </trkpt>
   <trkpt lat="52.1017010" lon="4.3136060">
    <ele>5.7</ele>
    <time>2021-04-30T05:55:42Z</time>
   </trkpt>
   <trkpt lat="52.1017490" lon="4.3136380">
    <ele>5.7</ele>
    <time>2021-04-30T05:55:43Z</time>
   </trkpt>
   <trkpt lat="52.1018010" lon="4.3136730">
    <ele>5.8</ele>
    <time>2021-04-30T05:55:44Z</time>
   </trkpt>
   <trkpt lat="52.1018570" lon="4.3137260">
    <ele>5.8</ele>
    <time>2021-04-30T05:55:45Z</time>
   </trkpt>
   <trkpt lat="52.1018910" lon="4.3137780">
    <ele>5.8</ele>
    <time>2021-04-30T05:55:46Z</time>
   </trkpt>
   <trkpt lat="52.1019340" lon="4.3138620">
    <ele>5.9</ele>
    <time>2021-04-30T05:55:48Z</time>
   </trkpt>
   <trkpt lat="52.1019640" lon="4.3139330">
    <ele>5.9</ele>
    <time>2021-04-30T05:55:49Z</time>
   </trkpt>
   <trkpt lat="52.1020010" lon="4.3139990">
    <ele>5.9</ele>
    <time>2021-04-30T05:55:50Z</time>
   </trkpt>
   <trkpt lat="52.1020430" lon="4.3140670">
    <ele>5.9</ele>
    <time>2021-04-30T05:55:51Z</time>
   </trkpt>
   <trkpt lat="52.1021050" lon="4.3141820">
    <ele>6.0</ele>
    <time>2021-04-30T05:55:53Z</time>
   </trkpt>
   <trkpt lat="52.1021460" lon="4.3142390">
    <ele>6.0</ele>
    <time>2021-04-30T05:55:54Z</time>
   </trkpt>
   <trkpt lat="52.1021690" lon="4.3142790">
    <ele>6.0</ele>
    <time>2021-04-30T05:55:55Z</time>
   </trkpt>
   <trkpt lat="52.1022290" lon="4.3143960">
    <ele>6.0</ele>
    <time>2021-04-30T05:55:57Z</time>
   </trkpt>
   <trkpt lat="52.1022610" lon="4.3144730">
    <ele>6.0</ele>
    <time>2021-04-30T05:55:58Z</time>
   </trkpt>
   <trkpt lat="52.1023000" lon="4.3145290">
    <ele>5.9</ele>
    <time>2021-04-30T05:55:59Z</time>
   </trkpt>
   <trkpt lat="52.1023560" lon="4.3146450">
    <ele>5.9</ele>
    <time>2021-04-30T05:56:01Z</time>
   </trkpt>
   <trkpt lat="52.1023900" lon="4.3146960">
    <ele>5.9</ele>
    <time>2021-04-30T05:56:02Z</time>
   </trkpt>
   <trkpt lat="52.1024240" lon="4.3147400">
    <ele>5.9</ele>
    <time>2021-04-30T05:56:03Z</time>
   </trkpt>
   <trkpt lat="52.1024610" lon="4.3147880">
    <ele>5.9</ele>
    <time>2021-04-30T05:56:04Z</time>
   </trkpt>
   <trkpt lat="52.1024830" lon="4.3148150">
    <ele>5.8</ele>
    <time>2021-04-30T05:56:05Z</time>
   </trkpt>
   <trkpt lat="52.1025050" lon="4.3148420">
    <ele>5.8</ele>
    <time>2021-04-30T05:56:06Z</time>
   </trkpt>
   <trkpt lat="52.1025580" lon="4.3149240">
    <ele>5.8</ele>
    <time>2021-04-30T05:56:07Z</time>
   </trkpt>
   <trkpt lat="52.1026000" lon="4.3149830">
    <ele>5.8</ele>
    <time>2021-04-30T05:56:08Z</time>
   </trkpt>
   <trkpt lat="52.1026390" lon="4.3150370">
    <ele>5.8</ele>
    <time>2021-04-30T05:56:09Z</time>
   </trkpt>
   <trkpt lat="52.1026830" lon="4.3151030">
    <ele>5.8</ele>
    <time>2021-04-30T05:56:11Z</time>
   </trkpt>
   <trkpt lat="52.1027380" lon="4.3152100">
    <ele>5.8</ele>
    <time>2021-04-30T05:56:12Z</time>
   </trkpt>
   <trkpt lat="52.1027760" lon="4.3152770">
    <ele>5.8</ele>
    <time>2021-04-30T05:56:14Z</time>
   </trkpt>
   <trkpt lat="52.1027920" lon="4.3153820">
    <ele>5.8</ele>
    <time>2021-04-30T05:56:15Z</time>
   </trkpt>
   <trkpt lat="52.1028200" lon="4.3154390">
    <ele>5.8</ele>
    <time>2021-04-30T05:56:16Z</time>
   </trkpt>
   <trkpt lat="52.1028510" lon="4.3154840">
    <ele>5.8</ele>
    <time>2021-04-30T05:56:17Z</time>
   </trkpt>
   <trkpt lat="52.1028710" lon="4.3155380">
    <ele>5.8</ele>
    <time>2021-04-30T05:56:18Z</time>
   </trkpt>
   <trkpt lat="52.1029030" lon="4.3155850">
    <ele>5.8</ele>
    <time>2021-04-30T05:56:19Z</time>
   </trkpt>
   <trkpt lat="52.1029690" lon="4.3157070">
    <ele>5.8</ele>
    <time>2021-04-30T05:56:21Z</time>
   </trkpt>
   <trkpt lat="52.1030260" lon="4.3158240">
    <ele>5.8</ele>
    <time>2021-04-30T05:56:23Z</time>
   </trkpt>
   <trkpt lat="52.1030500" lon="4.3158700">
    <ele>5.8</ele>
    <time>2021-04-30T05:56:24Z</time>
   </trkpt>
   <trkpt lat="52.1031270" lon="4.3160020">
    <ele>5.7</ele>
    <time>2021-04-30T05:56:26Z</time>
   </trkpt>
   <trkpt lat="52.1031590" lon="4.3160510">
    <ele>5.7</ele>
    <time>2021-04-30T05:56:27Z</time>
   </trkpt>
   <trkpt lat="52.1031990" lon="4.3160920">
    <ele>5.7</ele>
    <time>2021-04-30T05:56:28Z</time>
   </trkpt>
   <trkpt lat="52.1032300" lon="4.3161400">
    <ele>5.7</ele>
    <time>2021-04-30T05:56:29Z</time>
   </trkpt>
   <trkpt lat="52.1032640" lon="4.3161900">
    <ele>5.7</ele>
    <time>2021-04-30T05:56:30Z</time>
   </trkpt>
   <trkpt lat="52.1033160" lon="4.3162610">
    <ele>5.7</ele>
    <time>2021-04-30T05:56:31Z</time>
   </trkpt>
   <trkpt lat="52.1033510" lon="4.3163050">
    <ele>5.7</ele>
    <time>2021-04-30T05:56:32Z</time>
   </trkpt>
   <trkpt lat="52.1033870" lon="4.3163490">
    <ele>5.8</ele>
    <time>2021-04-30T05:56:33Z</time>
   </trkpt>
   <trkpt lat="52.1034230" lon="4.3163960">
    <ele>5.8</ele>
    <time>2021-04-30T05:56:34Z</time>
   </trkpt>
   <trkpt lat="52.1034610" lon="4.3164450">
    <ele>5.9</ele>
    <time>2021-04-30T05:56:35Z</time>
   </trkpt>
   <trkpt lat="52.1034990" lon="4.3164940">
    <ele>5.9</ele>
    <time>2021-04-30T05:56:36Z</time>
   </trkpt>
   <trkpt lat="52.1035490" lon="4.3166120">
    <ele>6.1</ele>
    <time>2021-04-30T05:56:38Z</time>
   </trkpt>
   <trkpt lat="52.1035770" lon="4.3166660">
    <ele>6.2</ele>
    <time>2021-04-30T05:56:39Z</time>
   </trkpt>
   <trkpt lat="52.1035570" lon="4.3167530">
    <ele>6.3</ele>
    <time>2021-04-30T05:56:40Z</time>
   </trkpt>
   <trkpt lat="52.1035810" lon="4.3168090">
    <ele>6.4</ele>
    <time>2021-04-30T05:56:41Z</time>
   </trkpt>
   <trkpt lat="52.1035990" lon="4.3168840">
    <ele>6.6</ele>
    <time>2021-04-30T05:56:42Z</time>
   </trkpt>
   <trkpt lat="52.1036250" lon="4.3169710">
    <ele>6.7</ele>
    <time>2021-04-30T05:56:43Z</time>
   </trkpt>
   <trkpt lat="52.1036650" lon="4.3170460">
    <ele>6.9</ele>
    <time>2021-04-30T05:56:44Z</time>
   </trkpt>
   <trkpt lat="52.1037040" lon="4.3171110">
    <ele>7.1</ele>
    <time>2021-04-30T05:56:46Z</time>
   </trkpt>
   <trkpt lat="52.1037380" lon="4.3171620">
    <ele>7.3</ele>
    <time>2021-04-30T05:56:47Z</time>
   </trkpt>
   <trkpt lat="52.1037850" lon="4.3172350">
    <ele>7.5</ele>
    <time>2021-04-30T05:56:49Z</time>
   </trkpt>
   <trkpt lat="52.1038070" lon="4.3172700">
    <ele>7.6</ele>
    <time>2021-04-30T05:56:50Z</time>
   </trkpt>
   <trkpt lat="52.1038510" lon="4.3173660">
    <ele>7.5</ele>
    <time>2021-04-30T05:56:52Z</time>
   </trkpt>
   <trkpt lat="52.1038550" lon="4.3174250">
    <ele>7.4</ele>
    <time>2021-04-30T05:56:53Z</time>
   </trkpt>
   <trkpt lat="52.1038550" lon="4.3174760">
    <ele>7.4</ele>
    <time>2021-04-30T05:56:54Z</time>
   </trkpt>
   <trkpt lat="52.1038570" lon="4.3175000">
    <ele>7.4</ele>
    <time>2021-04-30T05:56:55Z</time>
   </trkpt>
   <trkpt lat="52.1038610" lon="4.3175070">
    <ele>7.4</ele>
    <time>2021-04-30T05:56:56Z</time>
   </trkpt>
   <trkpt lat="52.1038620" lon="4.3175020">
    <ele>7.4</ele>
    <time>2021-04-30T05:56:57Z</time>
   </trkpt>
   <trkpt lat="52.1038510" lon="4.3174520">
    <ele>7.4</ele>
    <time>2021-04-30T05:56:58Z</time>
   </trkpt>
   <trkpt lat="52.1038420" lon="4.3174220">
    <ele>7.3</ele>
    <time>2021-04-30T05:56:59Z</time>
   </trkpt>
   <trkpt lat="52.1038380" lon="4.3174070">
    <ele>7.3</ele>
    <time>2021-04-30T05:57:00Z</time>
   </trkpt>
   <trkpt lat="52.1038370" lon="4.3173980">
    <ele>7.3</ele>
    <time>2021-04-30T05:57:01Z</time>
   </trkpt>
   <trkpt lat="52.1038370" lon="4.3173920">
    <ele>7.3</ele>
    <time>2021-04-30T05:57:02Z</time>
   </trkpt>
   <trkpt lat="52.1038380" lon="4.3173870">
    <ele>7.3</ele>
    <time>2021-04-30T05:57:03Z</time>
   </trkpt>
   <trkpt lat="52.1038390" lon="4.3173830">
    <ele>7.3</ele>
    <time>2021-04-30T05:57:04Z</time>
   </trkpt>
   <trkpt lat="52.1038420" lon="4.3173760">
    <ele>7.3</ele>
    <time>2021-04-30T05:57:05Z</time>
   </trkpt>
   <trkpt lat="52.1038570" lon="4.3173860">
    <ele>7.3</ele>
    <time>2021-04-30T05:57:06Z</time>
   </trkpt>
   <trkpt lat="52.1038710" lon="4.3174000">
    <ele>7.3</ele>
    <time>2021-04-30T05:57:07Z</time>
   </trkpt>
   <trkpt lat="52.1038840" lon="4.3174140">
    <ele>7.3</ele>
    <time>2021-04-30T05:57:37Z</time>
   </trkpt>
   <trkpt lat="52.1038980" lon="4.3174280">
    <ele>7.3</ele>
    <time>2021-04-30T05:57:38Z</time>
   </trkpt>
   <trkpt lat="52.1039110" lon="4.3174420">
    <ele>7.2</ele>
    <time>2021-04-30T05:57:39Z</time>
   </trkpt>
   <trkpt lat="52.1039370" lon="4.3174810">
    <ele>7.2</ele>
    <time>2021-04-30T05:57:40Z</time>
   </trkpt>
   <trkpt lat="52.1039760" lon="4.3175330">
    <ele>7.2</ele>
    <time>2021-04-30T05:57:41Z</time>
   </trkpt>
   <trkpt lat="52.1040150" lon="4.3175790">
    <ele>6.8</ele>
    <time>2021-04-30T05:57:42Z</time>
   </trkpt>
   <trkpt lat="52.1040500" lon="4.3176160">
    <ele>6.8</ele>
    <time>2021-04-30T05:57:43Z</time>
   </trkpt>
   <trkpt lat="52.1040860" lon="4.3176520">
    <ele>6.8</ele>
    <time>2021-04-30T05:57:44Z</time>
   </trkpt>
   <trkpt lat="52.1041240" lon="4.3176790">
    <ele>6.9</ele>
    <time>2021-04-30T05:57:45Z</time>
   </trkpt>
   <trkpt lat="52.1041640" lon="4.3176860">
    <ele>6.9</ele>
    <time>2021-04-30T05:57:46Z</time>
   </trkpt>
   <trkpt lat="52.1041770" lon="4.3176790">
    <ele>6.9</ele>
    <time>2021-04-30T05:57:47Z</time>
   </trkpt>
   <trkpt lat="52.1041570" lon="4.3176610">
    <ele>6.9</ele>
    <time>2021-04-30T05:57:48Z</time>
   </trkpt>
   <trkpt lat="52.1041530" lon="4.3176520">
    <ele>6.9</ele>
    <time>2021-04-30T05:57:49Z</time>
   </trkpt>
   <trkpt lat="52.1041710" lon="4.3176300">
    <ele>6.9</ele>
    <time>2021-04-30T05:57:50Z</time>
   </trkpt>
   <trkpt lat="52.1041490" lon="4.3175870">
    <ele>6.9</ele>
    <time>2021-04-30T05:57:51Z</time>
   </trkpt>
   <trkpt lat="52.1041410" lon="4.3175640">
    <ele>6.9</ele>
    <time>2021-04-30T05:57:52Z</time>
   </trkpt>
   <trkpt lat="52.1041330" lon="4.3175610">
    <ele>6.9</ele>
    <time>2021-04-30T05:57:53Z</time>
   </trkpt>
   <trkpt lat="52.1041110" lon="4.3175600">
    <ele>6.9</ele>
    <time>2021-04-30T05:57:54Z</time>
   </trkpt>
   <trkpt lat="52.1041180" lon="4.3175250">
    <ele>7.0</ele>
    <time>2021-04-30T05:57:55Z</time>
   </trkpt>
   <trkpt lat="52.1041360" lon="4.3174970">
    <ele>7.0</ele>
    <time>2021-04-30T05:57:56Z</time>
   </trkpt>
   <trkpt lat="52.1041550" lon="4.3174680">
    <ele>7.0</ele>
    <time>2021-04-30T05:57:57Z</time>
   </trkpt>
   <trkpt lat="52.1041730" lon="4.3174400">
    <ele>7.1</ele>
    <time>2021-04-30T05:57:58Z</time>
   </trkpt>
   <trkpt lat="52.1042120" lon="4.3173930">
    <ele>7.2</ele>
    <time>2021-04-30T05:58:00Z</time>
   </trkpt>
   <trkpt lat="52.1042520" lon="4.3173380">
    <ele>7.2</ele>
    <time>2021-04-30T05:58:01Z</time>
   </trkpt>
   <trkpt lat="52.1043090" lon="4.3172610">
    <ele>7.3</ele>
    <time>2021-04-30T05:58:03Z</time>
   </trkpt>
   <trkpt lat="52.1043680" lon="4.3173070">
    <ele>7.2</ele>
    <time>2021-04-30T05:58:05Z</time>
   </trkpt>
   <trkpt lat="52.1044060" lon="4.3173640">
    <ele>7.1</ele>
    <time>2021-04-30T05:58:06Z</time>
   </trkpt>
   <trkpt lat="52.1044270" lon="4.3174110">
    <ele>7.1</ele>
    <time>2021-04-30T05:58:08Z</time>
   </trkpt>
   <trkpt lat="52.1044600" lon="4.3174960">
    <ele>7.0</ele>
    <time>2021-04-30T05:58:10Z</time>
   </trkpt>
   <trkpt lat="52.1044910" lon="4.3175570">
    <ele>7.0</ele>
    <time>2021-04-30T05:58:11Z</time>
   </trkpt>
   <trkpt lat="52.1045260" lon="4.3176290">
    <ele>7.0</ele>
    <time>2021-04-30T05:58:12Z</time>
   </trkpt>
   <trkpt lat="52.1045680" lon="4.3177270">
    <ele>7.0</ele>
    <time>2021-04-30T05:58:14Z</time>
   </trkpt>
   <trkpt lat="52.1046010" lon="4.3178070">
    <ele>7.0</ele>
    <time>2021-04-30T05:58:15Z</time>
   </trkpt>
   <trkpt lat="52.1046580" lon="4.3179100">
    <ele>7.1</ele>
    <time>2021-04-30T05:58:17Z</time>
   </trkpt>
   <trkpt lat="52.1046950" lon="4.3179710">
    <ele>7.1</ele>
    <time>2021-04-30T05:58:18Z</time>
   </trkpt>
   <trkpt lat="52.1047200" lon="4.3180240">
    <ele>7.1</ele>
    <time>2021-04-30T05:58:19Z</time>
   </trkpt>
   <trkpt lat="52.1047570" lon="4.3180770">
    <ele>7.2</ele>
    <time>2021-04-30T05:58:20Z</time>
   </trkpt>
   <trkpt lat="52.1047920" lon="4.3181400">
    <ele>7.2</ele>
    <time>2021-04-30T05:58:21Z</time>
   </trkpt>
   <trkpt lat="52.1048250" lon="4.3182040">
    <ele>7.2</ele>
    <time>2021-04-30T05:58:22Z</time>
   </trkpt>
   <trkpt lat="52.1048660" lon="4.3182640">
    <ele>7.1</ele>
    <time>2021-04-30T05:58:23Z</time>
   </trkpt>
   <trkpt lat="52.1049050" lon="4.3183290">
    <ele>7.1</ele>
    <time>2021-04-30T05:58:24Z</time>
   </trkpt>
   <trkpt lat="52.1049450" lon="4.3184130">
    <ele>7.1</ele>
    <time>2021-04-30T05:58:26Z</time>
   </trkpt>
   <trkpt lat="52.1049770" lon="4.3184630">
    <ele>7.1</ele>
    <time>2021-04-30T05:58:27Z</time>
   </trkpt>
   <trkpt lat="52.1050210" lon="4.3185030">
    <ele>7.1</ele>
    <time>2021-04-30T05:58:28Z</time>
   </trkpt>
   <trkpt lat="52.1050610" lon="4.3185550">
    <ele>7.1</ele>
    <time>2021-04-30T05:58:29Z</time>
   </trkpt>
   <trkpt lat="52.1050980" lon="4.3186070">
    <ele>7.1</ele>
    <time>2021-04-30T05:58:30Z</time>
   </trkpt>
   <trkpt lat="52.1051350" lon="4.3186620">
    <ele>7.1</ele>
    <time>2021-04-30T05:58:31Z</time>
   </trkpt>
   <trkpt lat="52.1051960" lon="4.3187520">
    <ele>7.1</ele>
    <time>2021-04-30T05:58:33Z</time>
   </trkpt>
   <trkpt lat="52.1052320" lon="4.3188130">
    <ele>7.1</ele>
    <time>2021-04-30T05:58:34Z</time>
   </trkpt>
   <trkpt lat="52.1052670" lon="4.3188780">
    <ele>7.0</ele>
    <time>2021-04-30T05:58:35Z</time>
   </trkpt>
   <trkpt lat="52.1053040" lon="4.3189370">
    <ele>7.0</ele>
    <time>2021-04-30T05:58:36Z</time>
   </trkpt>
   <trkpt lat="52.1053380" lon="4.3189990">
    <ele>7.0</ele>
    <time>2021-04-30T05:58:37Z</time>
   </trkpt>
   <trkpt lat="52.1053920" lon="4.3191000">
    <ele>7.0</ele>
    <time>2021-04-30T05:58:39Z</time>
   </trkpt>
   <trkpt lat="52.1054220" lon="4.3191550">
    <ele>7.0</ele>
    <time>2021-04-30T05:58:40Z</time>
   </trkpt>
   <trkpt lat="52.1054500" lon="4.3192240">
    <ele>7.0</ele>
    <time>2021-04-30T05:58:41Z</time>
   </trkpt>
   <trkpt lat="52.1054780" lon="4.3192910">
    <ele>7.0</ele>
    <time>2021-04-30T05:58:42Z</time>
   </trkpt>
   <trkpt lat="52.1055100" lon="4.3193600">
    <ele>7.0</ele>
    <time>2021-04-30T05:58:43Z</time>
   </trkpt>
   <trkpt lat="52.1055310" lon="4.3194140">
    <ele>7.0</ele>
    <time>2021-04-30T05:58:44Z</time>
   </trkpt>
   <trkpt lat="52.1055560" lon="4.3194810">
    <ele>7.0</ele>
    <time>2021-04-30T05:58:45Z</time>
   </trkpt>
   <trkpt lat="52.1055880" lon="4.3195500">
    <ele>7.0</ele>
    <time>2021-04-30T05:58:47Z</time>
   </trkpt>
   <trkpt lat="52.1056180" lon="4.3196180">
    <ele>7.0</ele>
    <time>2021-04-30T05:58:48Z</time>
   </trkpt>
   <trkpt lat="52.1056510" lon="4.3196880">
    <ele>7.0</ele>
    <time>2021-04-30T05:58:49Z</time>
   </trkpt>
   <trkpt lat="52.1056670" lon="4.3197290">
    <ele>7.0</ele>
    <time>2021-04-30T05:58:50Z</time>
   </trkpt>
   <trkpt lat="52.1056830" lon="4.3197900">
    <ele>7.0</ele>
    <time>2021-04-30T05:58:51Z</time>
   </trkpt>
   <trkpt lat="52.1057030" lon="4.3198600">
    <ele>7.0</ele>
    <time>2021-04-30T05:58:52Z</time>
   </trkpt>
   <trkpt lat="52.1057450" lon="4.3199850">
    <ele>7.0</ele>
    <time>2021-04-30T05:58:54Z</time>
   </trkpt>
   <trkpt lat="52.1057680" lon="4.3200540">
    <ele>7.1</ele>
    <time>2021-04-30T05:58:55Z</time>
   </trkpt>
   <trkpt lat="52.1057930" lon="4.3201170">
    <ele>7.1</ele>
    <time>2021-04-30T05:58:56Z</time>
   </trkpt>
   <trkpt lat="52.1058230" lon="4.3201750">
    <ele>7.1</ele>
    <time>2021-04-30T05:58:57Z</time>
   </trkpt>
   <trkpt lat="52.1058550" lon="4.3202360">
    <ele>7.1</ele>
    <time>2021-04-30T05:58:58Z</time>
   </trkpt>
   <trkpt lat="52.1058840" lon="4.3203030">
    <ele>7.1</ele>
    <time>2021-04-30T05:58:59Z</time>
   </trkpt>
   <trkpt lat="52.1059070" lon="4.3203690">
    <ele>7.1</ele>
    <time>2021-04-30T05:59:00Z</time>
   </trkpt>
   <trkpt lat="52.1059060" lon="4.3204160">
    <ele>7.1</ele>
    <time>2021-04-30T05:59:01Z</time>
   </trkpt>
   <trkpt lat="52.1059310" lon="4.3205200">
    <ele>7.1</ele>
    <time>2021-04-30T05:59:02Z</time>
   </trkpt>
   <trkpt lat="52.1059390" lon="4.3205560">
    <ele>7.1</ele>
    <time>2021-04-30T05:59:03Z</time>
   </trkpt>
   <trkpt lat="52.1059650" lon="4.3206540">
    <ele>7.2</ele>
    <time>2021-04-30T05:59:04Z</time>
   </trkpt>
   <trkpt lat="52.1059960" lon="4.3207080">
    <ele>7.2</ele>
    <time>2021-04-30T05:59:05Z</time>
   </trkpt>
   <trkpt lat="52.1060700" lon="4.3208070">
    <ele>7.2</ele>
    <time>2021-04-30T05:59:07Z</time>
   </trkpt>
   <trkpt lat="52.1060970" lon="4.3208730">
    <ele>7.2</ele>
    <time>2021-04-30T05:59:08Z</time>
   </trkpt>
   <trkpt lat="52.1061250" lon="4.3209440">
    <ele>7.1</ele>
    <time>2021-04-30T05:59:09Z</time>
   </trkpt>
   <trkpt lat="52.1061530" lon="4.3210130">
    <ele>7.1</ele>
    <time>2021-04-30T05:59:10Z</time>
   </trkpt>
   <trkpt lat="52.1061810" lon="4.3210830">
    <ele>7.1</ele>
    <time>2021-04-30T05:59:11Z</time>
   </trkpt>
   <trkpt lat="52.1062090" lon="4.3211530">
    <ele>7.1</ele>
    <time>2021-04-30T05:59:12Z</time>
   </trkpt>
   <trkpt lat="52.1062360" lon="4.3212240">
    <ele>7.1</ele>
    <time>2021-04-30T05:59:13Z</time>
   </trkpt>
   <trkpt lat="52.1062640" lon="4.3212940">
    <ele>7.0</ele>
    <time>2021-04-30T05:59:14Z</time>
   </trkpt>
   <trkpt lat="52.1062910" lon="4.3213660">
    <ele>7.0</ele>
    <time>2021-04-30T05:59:15Z</time>
   </trkpt>
   <trkpt lat="52.1063180" lon="4.3214370">
    <ele>7.0</ele>
    <time>2021-04-30T05:59:16Z</time>
   </trkpt>
   <trkpt lat="52.1063440" lon="4.3215070">
    <ele>7.1</ele>
    <time>2021-04-30T05:59:17Z</time>
   </trkpt>
   <trkpt lat="52.1063700" lon="4.3215740">
    <ele>7.1</ele>
    <time>2021-04-30T05:59:18Z</time>
   </trkpt>
   <trkpt lat="52.1063960" lon="4.3216410">
    <ele>7.1</ele>
    <time>2021-04-30T05:59:19Z</time>
   </trkpt>
   <trkpt lat="52.1064240" lon="4.3217090">
    <ele>7.1</ele>
    <time>2021-04-30T05:59:20Z</time>
   </trkpt>
   <trkpt lat="52.1064510" lon="4.3217780">
    <ele>7.1</ele>
    <time>2021-04-30T05:59:21Z</time>
   </trkpt>
   <trkpt lat="52.1064800" lon="4.3218460">
    <ele>7.1</ele>
    <time>2021-04-30T05:59:22Z</time>
   </trkpt>
   <trkpt lat="52.1065090" lon="4.3219130">
    <ele>7.1</ele>
    <time>2021-04-30T05:59:23Z</time>
   </trkpt>
   <trkpt lat="52.1065390" lon="4.3219780">
    <ele>7.2</ele>
    <time>2021-04-30T05:59:24Z</time>
   </trkpt>
   <trkpt lat="52.1065680" lon="4.3220420">
    <ele>7.2</ele>
    <time>2021-04-30T05:59:25Z</time>
   </trkpt>
   <trkpt lat="52.1065980" lon="4.3221050">
    <ele>7.2</ele>
    <time>2021-04-30T05:59:26Z</time>
   </trkpt>
   <trkpt lat="52.1066280" lon="4.3221680">
    <ele>7.2</ele>
    <time>2021-04-30T05:59:27Z</time>
   </trkpt>
   <trkpt lat="52.1066600" lon="4.3222300">
    <ele>7.3</ele>
    <time>2021-04-30T05:59:28Z</time>
   </trkpt>
   <trkpt lat="52.1066920" lon="4.3222900">
    <ele>7.3</ele>
    <time>2021-04-30T05:59:29Z</time>
   </trkpt>
   <trkpt lat="52.1067240" lon="4.3223490">
    <ele>7.3</ele>
    <time>2021-04-30T05:59:30Z</time>
   </trkpt>
   <trkpt lat="52.1067570" lon="4.3224080">
    <ele>7.4</ele>
    <time>2021-04-30T05:59:31Z</time>
   </trkpt>
   <trkpt lat="52.1067890" lon="4.3224690">
    <ele>7.5</ele>
    <time>2021-04-30T05:59:32Z</time>
   </trkpt>
   <trkpt lat="52.1068210" lon="4.3225300">
    <ele>7.5</ele>
    <time>2021-04-30T05:59:33Z</time>
   </trkpt>
   <trkpt lat="52.1068510" lon="4.3225900">
    <ele>7.6</ele>
    <time>2021-04-30T05:59:34Z</time>
   </trkpt>
   <trkpt lat="52.1068820" lon="4.3226510">
    <ele>7.6</ele>
    <time>2021-04-30T05:59:35Z</time>
   </trkpt>
   <trkpt lat="52.1069120" lon="4.3227110">
    <ele>7.7</ele>
    <time>2021-04-30T05:59:36Z</time>
   </trkpt>
   <trkpt lat="52.1069420" lon="4.3227680">
    <ele>7.8</ele>
    <time>2021-04-30T05:59:37Z</time>
   </trkpt>
   <trkpt lat="52.1069720" lon="4.3228230">
    <ele>7.8</ele>
    <time>2021-04-30T05:59:38Z</time>
   </trkpt>
   <trkpt lat="52.1070030" lon="4.3228760">
    <ele>7.9</ele>
    <time>2021-04-30T05:59:39Z</time>
   </trkpt>
   <trkpt lat="52.1070320" lon="4.3229270">
    <ele>7.9</ele>
    <time>2021-04-30T05:59:40Z</time>
   </trkpt>
   <trkpt lat="52.1070620" lon="4.3229800">
    <ele>8.0</ele>
    <time>2021-04-30T05:59:41Z</time>
   </trkpt>
   <trkpt lat="52.1070920" lon="4.3230350">
    <ele>8.0</ele>
    <time>2021-04-30T05:59:42Z</time>
   </trkpt>
   <trkpt lat="52.1071190" lon="4.3230890">
    <ele>8.0</ele>
    <time>2021-04-30T05:59:43Z</time>
   </trkpt>
   <trkpt lat="52.1071480" lon="4.3231410">
    <ele>8.1</ele>
    <time>2021-04-30T05:59:44Z</time>
   </trkpt>
   <trkpt lat="52.1071830" lon="4.3231770">
    <ele>8.1</ele>
    <time>2021-04-30T05:59:45Z</time>
   </trkpt>
   <trkpt lat="52.1071990" lon="4.3231930">
    <ele>8.1</ele>
    <time>2021-04-30T05:59:46Z</time>
   </trkpt>
   <trkpt lat="52.1072340" lon="4.3232150">
    <ele>8.1</ele>
    <time>2021-04-30T05:59:47Z</time>
   </trkpt>
   <trkpt lat="52.1072730" lon="4.3232250">
    <ele>8.1</ele>
    <time>2021-04-30T05:59:48Z</time>
   </trkpt>
   <trkpt lat="52.1073140" lon="4.3232210">
    <ele>8.1</ele>
    <time>2021-04-30T05:59:49Z</time>
   </trkpt>
   <trkpt lat="52.1073540" lon="4.3232140">
    <ele>8.1</ele>
    <time>2021-04-30T05:59:50Z</time>
   </trkpt>
   <trkpt lat="52.1073950" lon="4.3232180">
    <ele>8.1</ele>
    <time>2021-04-30T05:59:51Z</time>
   </trkpt>
   <trkpt lat="52.1074380" lon="4.3232170">
    <ele>8.1</ele>
    <time>2021-04-30T05:59:52Z</time>
   </trkpt>
   <trkpt lat="52.1074960" lon="4.3231550">
    <ele>8.0</ele>
    <time>2021-04-30T05:59:53Z</time>
   </trkpt>
   <trkpt lat="52.1075470" lon="4.3231120">
    <ele>8.0</ele>
    <time>2021-04-30T05:59:54Z</time>
   </trkpt>
   <trkpt lat="52.1075980" lon="4.3230630">
    <ele>8.0</ele>
    <time>2021-04-30T05:59:55Z</time>
   </trkpt>
   <trkpt lat="52.1076380" lon="4.3230170">
    <ele>7.9</ele>
    <time>2021-04-30T05:59:56Z</time>
   </trkpt>
   <trkpt lat="52.1077030" lon="4.3229360">
    <ele>7.9</ele>
    <time>2021-04-30T05:59:58Z</time>
   </trkpt>
   <trkpt lat="52.1077440" lon="4.3229220">
    <ele>7.7</ele>
    <time>2021-04-30T05:59:59Z</time>
   </trkpt>
   <trkpt lat="52.1077850" lon="4.3229150">
    <ele>7.6</ele>
    <time>2021-04-30T06:00:00Z</time>
   </trkpt>
   <trkpt lat="52.1078260" lon="4.3229080">
    <ele>7.6</ele>
    <time>2021-04-30T06:00:01Z</time>
   </trkpt>
   <trkpt lat="52.1078700" lon="4.3228890">
    <ele>7.5</ele>
    <time>2021-04-30T06:00:02Z</time>
   </trkpt>
   <trkpt lat="52.1079130" lon="4.3228660">
    <ele>7.5</ele>
    <time>2021-04-30T06:00:03Z</time>
   </trkpt>
   <trkpt lat="52.1079560" lon="4.3228450">
    <ele>7.5</ele>
    <time>2021-04-30T06:00:04Z</time>
   </trkpt>
   <trkpt lat="52.1080000" lon="4.3228300">
    <ele>7.5</ele>
    <time>2021-04-30T06:00:05Z</time>
   </trkpt>
   <trkpt lat="52.1080490" lon="4.3228300">
    <ele>7.4</ele>
    <time>2021-04-30T06:00:06Z</time>
   </trkpt>
   <trkpt lat="52.1081000" lon="4.3228450">
    <ele>7.4</ele>
    <time>2021-04-30T06:00:07Z</time>
   </trkpt>
   <trkpt lat="52.1081370" lon="4.3228470">
    <ele>7.4</ele>
    <time>2021-04-30T06:00:08Z</time>
   </trkpt>
   <trkpt lat="52.1081900" lon="4.3228580">
    <ele>7.3</ele>
    <time>2021-04-30T06:00:09Z</time>
   </trkpt>
   <trkpt lat="52.1082540" lon="4.3228760">
    <ele>7.3</ele>
    <time>2021-04-30T06:00:11Z</time>
   </trkpt>
   <trkpt lat="52.1083240" lon="4.3228990">
    <ele>7.3</ele>
    <time>2021-04-30T06:00:12Z</time>
   </trkpt>
   <trkpt lat="52.1083660" lon="4.3229190">
    <ele>7.3</ele>
    <time>2021-04-30T06:00:13Z</time>
   </trkpt>
   <trkpt lat="52.1084130" lon="4.3229530">
    <ele>7.2</ele>
    <time>2021-04-30T06:00:14Z</time>
   </trkpt>
   <trkpt lat="52.1084500" lon="4.3230190">
    <ele>7.2</ele>
    <time>2021-04-30T06:00:15Z</time>
   </trkpt>
   <trkpt lat="52.1084670" lon="4.3231140">
    <ele>7.2</ele>
    <time>2021-04-30T06:00:17Z</time>
   </trkpt>
   <trkpt lat="52.1084980" lon="4.3231950">
    <ele>7.1</ele>
    <time>2021-04-30T06:00:18Z</time>
   </trkpt>
   <trkpt lat="52.1085270" lon="4.3232350">
    <ele>7.1</ele>
    <time>2021-04-30T06:00:19Z</time>
   </trkpt>
   <trkpt lat="52.1085690" lon="4.3232810">
    <ele>7.0</ele>
    <time>2021-04-30T06:00:20Z</time>
   </trkpt>
   <trkpt lat="52.1086180" lon="4.3234010">
    <ele>7.0</ele>
    <time>2021-04-30T06:00:22Z</time>
   </trkpt>
   <trkpt lat="52.1086210" lon="4.3234850">
    <ele>6.9</ele>
    <time>2021-04-30T06:00:23Z</time>
   </trkpt>
   <trkpt lat="52.1086070" lon="4.3235900">
    <ele>6.9</ele>
    <time>2021-04-30T06:00:25Z</time>
   </trkpt>
   <trkpt lat="52.1086060" lon="4.3236610">
    <ele>6.9</ele>
    <time>2021-04-30T06:00:26Z</time>
   </trkpt>
   <trkpt lat="52.1086060" lon="4.3237420">
    <ele>6.9</ele>
    <time>2021-04-30T06:00:27Z</time>
   </trkpt>
   <trkpt lat="52.1086030" lon="4.3238880">
    <ele>6.9</ele>
    <time>2021-04-30T06:00:29Z</time>
   </trkpt>
   <trkpt lat="52.1086040" lon="4.3239560">
    <ele>6.9</ele>
    <time>2021-04-30T06:00:30Z</time>
   </trkpt>
   <trkpt lat="52.1086050" lon="4.3240240">
    <ele>6.9</ele>
    <time>2021-04-30T06:00:31Z</time>
   </trkpt>
   <trkpt lat="52.1086090" lon="4.3240860">
    <ele>6.9</ele>
    <time>2021-04-30T06:00:32Z</time>
   </trkpt>
   <trkpt lat="52.1086140" lon="4.3241390">
    <ele>6.9</ele>
    <time>2021-04-30T06:00:33Z</time>
   </trkpt>
   <trkpt lat="52.1086210" lon="4.3241890">
    <ele>6.9</ele>
    <time>2021-04-30T06:00:34Z</time>
   </trkpt>
   <trkpt lat="52.1086310" lon="4.3242410">
    <ele>6.9</ele>
    <time>2021-04-30T06:00:35Z</time>
   </trkpt>
   <trkpt lat="52.1086470" lon="4.3242830">
    <ele>6.9</ele>
    <time>2021-04-30T06:00:36Z</time>
   </trkpt>
   <trkpt lat="52.1086660" lon="4.3243240">
    <ele>6.9</ele>
    <time>2021-04-30T06:00:37Z</time>
   </trkpt>
   <trkpt lat="52.1086910" lon="4.3243520">
    <ele>6.9</ele>
    <time>2021-04-30T06:00:38Z</time>
   </trkpt>
   <trkpt lat="52.1087000" lon="4.3243580">
    <ele>6.9</ele>
    <time>2021-04-30T06:00:39Z</time>
   </trkpt>
   <trkpt lat="52.1086860" lon="4.3243190">
    <ele>6.9</ele>
    <time>2021-04-30T06:00:41Z</time>
   </trkpt>
   <trkpt lat="52.1086820" lon="4.3243120">
    <ele>6.9</ele>
    <time>2021-04-30T06:00:42Z</time>
   </trkpt>
   <trkpt lat="52.1086800" lon="4.3243090">
    <ele>6.9</ele>
    <time>2021-04-30T06:00:43Z</time>
   </trkpt>
   <trkpt lat="52.1086780" lon="4.3243070">
    <ele>6.9</ele>
    <time>2021-04-30T06:00:44Z</time>
   </trkpt>
   <trkpt lat="52.1086770" lon="4.3243050">
    <ele>6.9</ele>
    <time>2021-04-30T06:00:45Z</time>
   </trkpt>
   <trkpt lat="52.1086770" lon="4.3243030">
    <ele>6.9</ele>
    <time>2021-04-30T06:00:46Z</time>
   </trkpt>
   <trkpt lat="52.1086780" lon="4.3243010">
    <ele>6.9</ele>
    <time>2021-04-30T06:00:47Z</time>
   </trkpt>
   <trkpt lat="52.1086800" lon="4.3243000">
    <ele>6.9</ele>
    <time>2021-04-30T06:00:48Z</time>
   </trkpt>
   <trkpt lat="52.1086840" lon="4.3243020">
    <ele>6.9</ele>
    <time>2021-04-30T06:00:50Z</time>
   </trkpt>
   <trkpt lat="52.1087350" lon="4.3242940">
    <ele>6.9</ele>
    <time>2021-04-30T06:01:03Z</time>
   </trkpt>
   <trkpt lat="52.1087470" lon="4.3242910">
    <ele>6.9</ele>
    <time>2021-04-30T06:01:04Z</time>
   </trkpt>
   <trkpt lat="52.1087670" lon="4.3242820">
    <ele>6.9</ele>
    <time>2021-04-30T06:01:05Z</time>
   </trkpt>
   <trkpt lat="52.1087950" lon="4.3242690">
    <ele>6.9</ele>
    <time>2021-04-30T06:01:06Z</time>
   </trkpt>
   <trkpt lat="52.1088350" lon="4.3242560">
    <ele>6.9</ele>
    <time>2021-04-30T06:01:08Z</time>
   </trkpt>
   <trkpt lat="52.1089060" lon="4.3242700">
    <ele>6.8</ele>
    <time>2021-04-30T06:01:10Z</time>
   </trkpt>
   <trkpt lat="52.1089510" lon="4.3243770">
    <ele>6.8</ele>
    <time>2021-04-30T06:01:11Z</time>
   </trkpt>
   <trkpt lat="52.1089820" lon="4.3244590">
    <ele>6.8</ele>
    <time>2021-04-30T06:01:13Z</time>
   </trkpt>
   <trkpt lat="52.1090210" lon="4.3246100">
    <ele>6.7</ele>
    <time>2021-04-30T06:01:15Z</time>
   </trkpt>
   <trkpt lat="52.1090480" lon="4.3247230">
    <ele>6.7</ele>
    <time>2021-04-30T06:01:17Z</time>
   </trkpt>
   <trkpt lat="52.1090610" lon="4.3247880">
    <ele>6.7</ele>
    <time>2021-04-30T06:01:18Z</time>
   </trkpt>
   <trkpt lat="52.1090800" lon="4.3248990">
    <ele>6.6</ele>
    <time>2021-04-30T06:01:20Z</time>
   </trkpt>
   <trkpt lat="52.1090990" lon="4.3249850">
    <ele>6.6</ele>
    <time>2021-04-30T06:01:21Z</time>
   </trkpt>
   <trkpt lat="52.1091120" lon="4.3250670">
    <ele>6.6</ele>
    <time>2021-04-30T06:01:22Z</time>
   </trkpt>
   <trkpt lat="52.1091290" lon="4.3251540">
    <ele>6.5</ele>
    <time>2021-04-30T06:01:23Z</time>
   </trkpt>
   <trkpt lat="52.1091450" lon="4.3252330">
    <ele>6.5</ele>
    <time>2021-04-30T06:01:24Z</time>
   </trkpt>
   <trkpt lat="52.1091560" lon="4.3253180">
    <ele>6.5</ele>
    <time>2021-04-30T06:01:26Z</time>
   </trkpt>
   <trkpt lat="52.1091640" lon="4.3253830">
    <ele>6.4</ele>
    <time>2021-04-30T06:01:27Z</time>
   </trkpt>
   <trkpt lat="52.1091780" lon="4.3254600">
    <ele>6.4</ele>
    <time>2021-04-30T06:01:28Z</time>
   </trkpt>
   <trkpt lat="52.1092160" lon="4.3255720">
    <ele>6.4</ele>
    <time>2021-04-30T06:01:30Z</time>
   </trkpt>
   <trkpt lat="52.1092350" lon="4.3256600">
    <ele>6.3</ele>
    <time>2021-04-30T06:01:31Z</time>
   </trkpt>
   <trkpt lat="52.1092500" lon="4.3257470">
    <ele>6.3</ele>
    <time>2021-04-30T06:01:33Z</time>
   </trkpt>
   <trkpt lat="52.1092550" lon="4.3258140">
    <ele>6.3</ele>
    <time>2021-04-30T06:01:34Z</time>
   </trkpt>
   <trkpt lat="52.1092370" lon="4.3259350">
    <ele>6.2</ele>
    <time>2021-04-30T06:01:36Z</time>
   </trkpt>
   <trkpt lat="52.1092170" lon="4.3260110">
    <ele>6.2</ele>
    <time>2021-04-30T06:01:37Z</time>
   </trkpt>
   <trkpt lat="52.1091940" lon="4.3260730">
    <ele>6.2</ele>
    <time>2021-04-30T06:01:39Z</time>
   </trkpt>
   <trkpt lat="52.1091890" lon="4.3260610">
    <ele>6.2</ele>
    <time>2021-04-30T06:01:40Z</time>
   </trkpt>
   <trkpt lat="52.1091810" lon="4.3260130">
    <ele>6.2</ele>
    <time>2021-04-30T06:01:41Z</time>
   </trkpt>
   <trkpt lat="52.1091770" lon="4.3259960">
    <ele>6.2</ele>
    <time>2021-04-30T06:01:43Z</time>
   </trkpt>
   <trkpt lat="52.1091730" lon="4.3259770">
    <ele>6.2</ele>
    <time>2021-04-30T06:01:45Z</time>
   </trkpt>
   <trkpt lat="52.1091700" lon="4.3259630">
    <ele>6.2</ele>
    <time>2021-04-30T06:01:47Z</time>
   </trkpt>
   <trkpt lat="52.1091670" lon="4.3259480">
    <ele>6.2</ele>
    <time>2021-04-30T06:01:49Z</time>
   </trkpt>
   <trkpt lat="52.1091650" lon="4.3259330">
    <ele>6.2</ele>
    <time>2021-04-30T06:01:50Z</time>
   </trkpt>
   <trkpt lat="52.1091620" lon="4.3259180">
    <ele>6.2</ele>
    <time>2021-04-30T06:01:51Z</time>
   </trkpt>
   <trkpt lat="52.1091590" lon="4.3259040">
    <ele>6.2</ele>
    <time>2021-04-30T06:01:58Z</time>
   </trkpt>
   <trkpt lat="52.1091560" lon="4.3258890">
    <ele>6.3</ele>
    <time>2021-04-30T06:01:59Z</time>
   </trkpt>
   <trkpt lat="52.1091690" lon="4.3257950">
    <ele>6.3</ele>
    <time>2021-04-30T06:02:00Z</time>
   </trkpt>
   <trkpt lat="52.1091960" lon="4.3257020">
    <ele>6.3</ele>
    <time>2021-04-30T06:02:02Z</time>
   </trkpt>
   <trkpt lat="52.1092050" lon="4.3256330">
    <ele>6.3</ele>
    <time>2021-04-30T06:02:03Z</time>
   </trkpt>
   <trkpt lat="52.1092120" lon="4.3255730">
    <ele>6.4</ele>
    <time>2021-04-30T06:02:04Z</time>
   </trkpt>
   <trkpt lat="52.1092540" lon="4.3255290">
    <ele>6.4</ele>
    <time>2021-04-30T06:02:05Z</time>
   </trkpt>
   <trkpt lat="52.1092950" lon="4.3254850">
    <ele>6.4</ele>
    <time>2021-04-30T06:02:06Z</time>
   </trkpt>
   <trkpt lat="52.1093200" lon="4.3254250">
    <ele>6.4</ele>
    <time>2021-04-30T06:02:07Z</time>
   </trkpt>
   <trkpt lat="52.1093520" lon="4.3253840">
    <ele>6.5</ele>
    <time>2021-04-30T06:02:08Z</time>
   </trkpt>
   <trkpt lat="52.1093610" lon="4.3253250">
    <ele>6.5</ele>
    <time>2021-04-30T06:02:09Z</time>
   </trkpt>
   <trkpt lat="52.1093580" lon="4.3253040">
    <ele>6.5</ele>
    <time>2021-04-30T06:02:10Z</time>
   </trkpt>
   <trkpt lat="52.1093340" lon="4.3252470">
    <ele>6.5</ele>
    <time>2021-04-30T06:02:12Z</time>
   </trkpt>
   <trkpt lat="52.1093210" lon="4.3252410">
    <ele>6.5</ele>
    <time>2021-04-30T06:02:13Z</time>
   </trkpt>
   <trkpt lat="52.1093080" lon="4.3252160">
    <ele>6.5</ele>
    <time>2021-04-30T06:02:14Z</time>
   </trkpt>
   <trkpt lat="52.1092860" lon="4.3251890">
    <ele>6.6</ele>
    <time>2021-04-30T06:02:15Z</time>
   </trkpt>
   <trkpt lat="52.1092620" lon="4.3251610">
    <ele>6.6</ele>
    <time>2021-04-30T06:02:16Z</time>
   </trkpt>
   <trkpt lat="52.1092380" lon="4.3251160">
    <ele>6.6</ele>
    <time>2021-04-30T06:02:18Z</time>
   </trkpt>
   <trkpt lat="52.1092240" lon="4.3250890">
    <ele>6.6</ele>
    <time>2021-04-30T06:02:19Z</time>
   </trkpt>
  </trkseg>
 </trk>
</gpx>
