<?xml version="1.0" encoding="UTF-8"?>
<gpx creator="StravaGPX" version="1.1" xmlns="http://www.topografix.com/GPX/1/1" xmlns:xsi="http://www.w3.org/2001/XMLSchema-instance" xsi:schemaLocation="http://www.topografix.com/GPX/1/1 http://www.topografix.com/GPX/1/1/gpx.xsd">
 <metadata>
  <name>Um Knupp-Floating bridge-An der Driicht</name>
  <author>
   <name>Andrew Goudie</name>
  </author>
  <copyright author="OpenStreetMap contributors">
   <year>2020</year>
   <license>https://www.openstreetmap.org/copyright</license>
  </copyright>
 </metadata>
 <trk>
  <name>Um Knupp-Floating bridge-An der Driicht</name>
  <link href=""/>
  <type>running</type>
  <trkseg>
   <trkpt lat="49.909650000000006" lon="5.936800000000001">
    <ele>284.01000000000005</ele>
   </trkpt>
   <trkpt lat="49.90977" lon="5.93681">
    <ele>283.07000000000005</ele>
   </trkpt>
   <trkpt lat="49.90988" lon="5.9369700000000005">
    <ele>283.74000000000007</ele>
   </trkpt>
   <trkpt lat="49.90991" lon="5.9370400000000005">
    <ele>283.74000000000007</ele>
   </trkpt>
   <trkpt lat="49.909980000000004" lon="5.937">
    <ele>284.40999999999997</ele>
   </trkpt>
   <trkpt lat="49.910070000000005" lon="5.93688">
    <ele>284.90000000000003</ele>
   </trkpt>
   <trkpt lat="49.91011" lon="5.936870000000001">
    <ele>285.59000000000003</ele>
   </trkpt>
   <trkpt lat="49.910230000000006" lon="5.936710000000001">
    <ele>289.32</ele>
   </trkpt>
   <trkpt lat="49.91024" lon="5.93674">
    <ele>289.32</ele>
   </trkpt>
   <trkpt lat="49.91008" lon="5.9372300000000005">
    <ele>298.63</ele>
   </trkpt>
   <trkpt lat="49.91002" lon="5.93766">
    <ele>304.83000000000004</ele>
   </trkpt>
   <trkpt lat="49.90983000000001" lon="5.93831">
    <ele>313.77000000000004</ele>
   </trkpt>
   <trkpt lat="49.90975" lon="5.938490000000001">
    <ele>316.40000000000003</ele>
   </trkpt>
   <trkpt lat="49.909510000000004" lon="5.93885">
    <ele>323.18</ele>
   </trkpt>
   <trkpt lat="49.90945000000001" lon="5.93911">
    <ele>327.37000000000006</ele>
   </trkpt>
   <trkpt lat="49.90926" lon="5.93946">
    <ele>333.77</ele>
   </trkpt>
   <trkpt lat="49.90919" lon="5.939780000000001">
    <ele>338.33000000000004</ele>
   </trkpt>
   <trkpt lat="49.90919" lon="5.939940000000001">
    <ele>342.54</ele>
   </trkpt>
   <trkpt lat="49.90919" lon="5.9399500000000005">
    <ele>342.7</ele>
   </trkpt>
   <trkpt lat="49.90926" lon="5.939870000000001">
    <ele>345.7</ele>
   </trkpt>
   <trkpt lat="49.90957" lon="5.939730000000001">
    <ele>354.73</ele>
   </trkpt>
   <trkpt lat="49.90981000000001" lon="5.9396700000000004">
    <ele>362.76</ele>
   </trkpt>
   <trkpt lat="49.90990000000001" lon="5.93963">
    <ele>366.45000000000005</ele>
   </trkpt>
   <trkpt lat="49.91017" lon="5.93958">
    <ele>372.32000000000005</ele>
   </trkpt>
   <trkpt lat="49.91049" lon="5.93942">
    <ele>380.03000000000003</ele>
   </trkpt>
   <trkpt lat="49.910610000000005" lon="5.93942">
    <ele>381.95</ele>
   </trkpt>
   <trkpt lat="49.91067" lon="5.939380000000001">
    <ele>384.69</ele>
   </trkpt>
   <trkpt lat="49.91076" lon="5.93935">
    <ele>384.69</ele>
   </trkpt>
   <trkpt lat="49.91104000000001" lon="5.9394100000000005">
    <ele>391.97</ele>
   </trkpt>
   <trkpt lat="49.911100000000005" lon="5.939380000000001">
    <ele>392.72</ele>
   </trkpt>
   <trkpt lat="49.911150000000006" lon="5.93928">
    <ele>393.40000000000003</ele>
   </trkpt>
   <trkpt lat="49.911210000000004" lon="5.93925">
    <ele>393.40000000000003</ele>
   </trkpt>
   <trkpt lat="49.91131000000001" lon="5.93935">
    <ele>397.21</ele>
   </trkpt>
   <trkpt lat="49.911370000000005" lon="5.939360000000001">
    <ele>397.21</ele>
   </trkpt>
   <trkpt lat="49.911550000000005" lon="5.939470000000001">
    <ele>399.81000000000006</ele>
   </trkpt>
   <trkpt lat="49.911590000000004" lon="5.939520000000001">
    <ele>401.15</ele>
   </trkpt>
   <trkpt lat="49.91161" lon="5.939620000000001">
    <ele>401.15</ele>
   </trkpt>
   <trkpt lat="49.9117" lon="5.9397400000000005">
    <ele>404.55</ele>
   </trkpt>
   <trkpt lat="49.91181" lon="5.93982">
    <ele>405.80000000000007</ele>
   </trkpt>
   <trkpt lat="49.9119" lon="5.93984">
    <ele>405.80000000000007</ele>
   </trkpt>
   <trkpt lat="49.91196" lon="5.939830000000001">
    <ele>408.17</ele>
   </trkpt>
   <trkpt lat="49.912150000000004" lon="5.939870000000001">
    <ele>410.36000000000007</ele>
   </trkpt>
   <trkpt lat="49.91223" lon="5.93984">
    <ele>410.36000000000007</ele>
   </trkpt>
   <trkpt lat="49.912310000000005" lon="5.939850000000001">
    <ele>412.30000000000007</ele>
   </trkpt>
   <trkpt lat="49.91243000000001" lon="5.939800000000001">
    <ele>413.5</ele>
   </trkpt>
   <trkpt lat="49.912510000000005" lon="5.9397400000000005">
    <ele>414.24000000000007</ele>
   </trkpt>
   <trkpt lat="49.91255" lon="5.9396700000000004">
    <ele>415.85</ele>
   </trkpt>
   <trkpt lat="49.912580000000005" lon="5.939690000000001">
    <ele>416.6</ele>
   </trkpt>
   <trkpt lat="49.912600000000005" lon="5.93975">
    <ele>417.29</ele>
   </trkpt>
   <trkpt lat="49.91264" lon="5.939760000000001">
    <ele>417.29</ele>
   </trkpt>
   <trkpt lat="49.912690000000005" lon="5.9398100000000005">
    <ele>417.89000000000004</ele>
   </trkpt>
   <trkpt lat="49.91286" lon="5.939870000000001">
    <ele>419.40000000000003</ele>
   </trkpt>
   <trkpt lat="49.91306" lon="5.93986">
    <ele>422.33000000000004</ele>
   </trkpt>
   <trkpt lat="49.913320000000006" lon="5.93979">
    <ele>426.17</ele>
   </trkpt>
   <trkpt lat="49.91346" lon="5.9397">
    <ele>427.39000000000004</ele>
   </trkpt>
   <trkpt lat="49.91355" lon="5.9396700000000004">
    <ele>428.08</ele>
   </trkpt>
   <trkpt lat="49.9136" lon="5.9396700000000004">
    <ele>428.33000000000004</ele>
   </trkpt>
   <trkpt lat="49.913700000000006" lon="5.939760000000001">
    <ele>429.37</ele>
   </trkpt>
   <trkpt lat="49.91376" lon="5.93979">
    <ele>429.37</ele>
   </trkpt>
   <trkpt lat="49.913880000000006" lon="5.93993">
    <ele>430.37</ele>
   </trkpt>
   <trkpt lat="49.91389" lon="5.9400200000000005">
    <ele>431.20000000000005</ele>
   </trkpt>
   <trkpt lat="49.913920000000005" lon="5.94005">
    <ele>431.59000000000003</ele>
   </trkpt>
   <trkpt lat="49.91429" lon="5.94024">
    <ele>433.48</ele>
   </trkpt>
   <trkpt lat="49.91436" lon="5.940230000000001">
    <ele>433.6</ele>
   </trkpt>
   <trkpt lat="49.914440000000006" lon="5.9402800000000004">
    <ele>433.47</ele>
   </trkpt>
   <trkpt lat="49.914530000000006" lon="5.940270000000001">
    <ele>433.08</ele>
   </trkpt>
   <trkpt lat="49.9147" lon="5.94021">
    <ele>432.16</ele>
   </trkpt>
   <trkpt lat="49.91516000000001" lon="5.939850000000001">
    <ele>432.05</ele>
   </trkpt>
   <trkpt lat="49.91521" lon="5.93972">
    <ele>431.50000000000006</ele>
   </trkpt>
   <trkpt lat="49.915400000000005" lon="5.939450000000001">
    <ele>431.26000000000005</ele>
   </trkpt>
   <trkpt lat="49.915490000000005" lon="5.93921">
    <ele>431.24</ele>
   </trkpt>
   <trkpt lat="49.91552" lon="5.9392000000000005">
    <ele>431.33000000000004</ele>
   </trkpt>
   <trkpt lat="49.915560000000006" lon="5.93921">
    <ele>431.49</ele>
   </trkpt>
   <trkpt lat="49.91595" lon="5.93982">
    <ele>436.6</ele>
   </trkpt>
   <trkpt lat="49.91615" lon="5.939540000000001">
    <ele>437.25</ele>
   </trkpt>
   <trkpt lat="49.916360000000005" lon="5.938910000000001">
    <ele>442.02000000000004</ele>
   </trkpt>
   <trkpt lat="49.916470000000004" lon="5.93862">
    <ele>444.66</ele>
   </trkpt>
   <trkpt lat="49.9165750019968" lon="5.937940001423502">
    <ele>446.83000000000004</ele>
   </trkpt>
   <trkpt lat="49.91668000000001" lon="5.93726">
    <ele>449.49000000000007</ele>
   </trkpt>
   <trkpt lat="49.916850000000004" lon="5.9363">
    <ele>454.18</ele>
   </trkpt>
   <trkpt lat="49.917170007199545" lon="5.9350050086360895">
    <ele>460.08000000000004</ele>
   </trkpt>
   <trkpt lat="49.91749" lon="5.9337100000000005">
    <ele>464.76000000000005</ele>
   </trkpt>
   <trkpt lat="49.917570000000005" lon="5.93351">
    <ele>465.72</ele>
   </trkpt>
   <trkpt lat="49.917875002106165" lon="5.932800004633299">
    <ele>470.15</ele>
   </trkpt>
   <trkpt lat="49.91818000000001" lon="5.9320900000000005">
    <ele>472.81000000000006</ele>
   </trkpt>
   <trkpt lat="49.918330000000005" lon="5.931590000000001">
    <ele>473.04</ele>
   </trkpt>
   <trkpt lat="49.91857000330287" lon="5.930705004642481">
    <ele>471.33000000000004</ele>
   </trkpt>
   <trkpt lat="49.91881" lon="5.92982">
    <ele>469.33000000000004</ele>
   </trkpt>
   <trkpt lat="49.91888" lon="5.92945">
    <ele>469.25000000000006</ele>
   </trkpt>
   <trkpt lat="49.918960000000006" lon="5.92952">
    <ele>469.25000000000006</ele>
   </trkpt>
   <trkpt lat="49.91908" lon="5.9297">
    <ele>474.61</ele>
   </trkpt>
   <trkpt lat="49.91917" lon="5.9298">
    <ele>474.61</ele>
   </trkpt>
   <trkpt lat="49.919250000000005" lon="5.92984">
    <ele>474.61</ele>
   </trkpt>
   <trkpt lat="49.91953" lon="5.9299100000000005">
    <ele>477.01000000000005</ele>
   </trkpt>
   <trkpt lat="49.919970000000006" lon="5.9299100000000005">
    <ele>480.11</ele>
   </trkpt>
   <trkpt lat="49.92042000000001" lon="5.930070000000001">
    <ele>481.35</ele>
   </trkpt>
   <trkpt lat="49.920550000000006" lon="5.93008">
    <ele>481.34000000000003</ele>
   </trkpt>
   <trkpt lat="49.92083" lon="5.93015">
    <ele>480.96000000000004</ele>
   </trkpt>
   <trkpt lat="49.92103" lon="5.93017">
    <ele>480.7</ele>
   </trkpt>
   <trkpt lat="49.921170000000004" lon="5.930160000000001">
    <ele>479.57000000000005</ele>
   </trkpt>
   <trkpt lat="49.9215" lon="5.93006">
    <ele>478.75000000000006</ele>
   </trkpt>
   <trkpt lat="49.92193" lon="5.92984">
    <ele>475.30000000000007</ele>
   </trkpt>
   <trkpt lat="49.92212000000001" lon="5.92978">
    <ele>474.73</ele>
   </trkpt>
   <trkpt lat="49.92231" lon="5.92975">
    <ele>474.04</ele>
   </trkpt>
   <trkpt lat="49.92253" lon="5.92975">
    <ele>473.64000000000004</ele>
   </trkpt>
   <trkpt lat="49.92275" lon="5.929790000000001">
    <ele>473.18</ele>
   </trkpt>
   <trkpt lat="49.92298" lon="5.929860000000001">
    <ele>472.5</ele>
   </trkpt>
   <trkpt lat="49.92342000000001" lon="5.93006">
    <ele>469.73</ele>
   </trkpt>
   <trkpt lat="49.923680000000004" lon="5.930110000000001">
    <ele>467.83000000000004</ele>
   </trkpt>
   <trkpt lat="49.92371000000001" lon="5.929">
    <ele>468.11</ele>
   </trkpt>
   <trkpt lat="49.92371000000001" lon="5.92898">
    <ele>468.11</ele>
   </trkpt>
   <trkpt lat="49.92363" lon="5.928170000000001">
    <ele>468.18</ele>
   </trkpt>
   <trkpt lat="49.92360000000001" lon="5.927200000000001">
    <ele>465.86000000000007</ele>
   </trkpt>
   <trkpt lat="49.92354" lon="5.92687">
    <ele>465.36</ele>
   </trkpt>
   <trkpt lat="49.923320000000004" lon="5.92609">
    <ele>464.78000000000003</ele>
   </trkpt>
   <trkpt lat="49.92324000000001" lon="5.925890000000001">
    <ele>464.77</ele>
   </trkpt>
   <trkpt lat="49.922830000000005" lon="5.925020000000001">
    <ele>464.97</ele>
   </trkpt>
   <trkpt lat="49.922465004260616" lon="5.924014992166431">
    <ele>465.6</ele>
   </trkpt>
   <trkpt lat="49.92210000000001" lon="5.9230100000000006">
    <ele>466.01000000000005</ele>
   </trkpt>
   <trkpt lat="49.921850000000006" lon="5.922000000000001">
    <ele>464.76000000000005</ele>
   </trkpt>
   <trkpt lat="49.92160500319592" lon="5.921139995686835">
    <ele>463.87000000000006</ele>
   </trkpt>
   <trkpt lat="49.92136000000001" lon="5.920280000000001">
    <ele>463.37000000000006</ele>
   </trkpt>
   <trkpt lat="49.921200000000006" lon="5.9198">
    <ele>463.21</ele>
   </trkpt>
   <trkpt lat="49.921060000000004" lon="5.91945">
    <ele>463.23</ele>
   </trkpt>
   <trkpt lat="49.92094" lon="5.9192100000000005">
    <ele>463.35</ele>
   </trkpt>
   <trkpt lat="49.920700000000004" lon="5.918850000000001">
    <ele>463.95000000000005</ele>
   </trkpt>
   <trkpt lat="49.920300000000005" lon="5.91818">
    <ele>465.34000000000003</ele>
   </trkpt>
   <trkpt lat="49.920190000000005" lon="5.918050000000001">
    <ele>465.79</ele>
   </trkpt>
   <trkpt lat="49.92006000000001" lon="5.917940000000001">
    <ele>466.5</ele>
   </trkpt>
   <trkpt lat="49.91993" lon="5.91793">
    <ele>467.39000000000004</ele>
   </trkpt>
   <trkpt lat="49.919630000000005" lon="5.91741">
    <ele>467.65000000000003</ele>
   </trkpt>
   <trkpt lat="49.91930000000001" lon="5.91661">
    <ele>468.41</ele>
   </trkpt>
   <trkpt lat="49.91917" lon="5.916180000000001">
    <ele>468.61</ele>
   </trkpt>
   <trkpt lat="49.918910000000004" lon="5.91647">
    <ele>466.13000000000005</ele>
   </trkpt>
   <trkpt lat="49.91881" lon="5.9165">
    <ele>463.46000000000004</ele>
   </trkpt>
   <trkpt lat="49.91857" lon="5.916270000000001">
    <ele>458.58000000000004</ele>
   </trkpt>
   <trkpt lat="49.91809000000001" lon="5.91574">
    <ele>453.89</ele>
   </trkpt>
   <trkpt lat="49.917750000000005" lon="5.91549">
    <ele>450.74</ele>
   </trkpt>
   <trkpt lat="49.91733000000001" lon="5.9152700000000005">
    <ele>446.22</ele>
   </trkpt>
   <trkpt lat="49.91686000000001" lon="5.914960000000001">
    <ele>439.51</ele>
   </trkpt>
   <trkpt lat="49.91664" lon="5.914930000000001">
    <ele>434.08</ele>
   </trkpt>
   <trkpt lat="49.916340000000005" lon="5.9145">
    <ele>434.81</ele>
   </trkpt>
   <trkpt lat="49.91619000000001" lon="5.914320000000001">
    <ele>435.15000000000003</ele>
   </trkpt>
   <trkpt lat="49.91597" lon="5.914160000000001">
    <ele>436.03000000000003</ele>
   </trkpt>
   <trkpt lat="49.91588" lon="5.91415">
    <ele>436.36</ele>
   </trkpt>
   <trkpt lat="49.91573" lon="5.9141900000000005">
    <ele>436.75</ele>
   </trkpt>
   <trkpt lat="49.9155" lon="5.914370000000001">
    <ele>437.24</ele>
   </trkpt>
   <trkpt lat="49.915350000000004" lon="5.91441">
    <ele>437.82000000000005</ele>
   </trkpt>
   <trkpt lat="49.91525000000001" lon="5.9144000000000005">
    <ele>438.07</ele>
   </trkpt>
   <trkpt lat="49.91481000012656" lon="5.914234998498038">
    <ele>438.85</ele>
   </trkpt>
   <trkpt lat="49.914370000000005" lon="5.914070000000001">
    <ele>441.09000000000003</ele>
   </trkpt>
   <trkpt lat="49.91422000000001" lon="5.91399">
    <ele>442.87</ele>
   </trkpt>
   <trkpt lat="49.91409" lon="5.9138">
    <ele>443.94000000000005</ele>
   </trkpt>
   <trkpt lat="49.914030000000004" lon="5.913600000000001">
    <ele>444.49000000000007</ele>
   </trkpt>
   <trkpt lat="49.91398" lon="5.913360000000001">
    <ele>447.96000000000004</ele>
   </trkpt>
   <trkpt lat="49.913970000000006" lon="5.91312">
    <ele>447.96000000000004</ele>
   </trkpt>
   <trkpt lat="49.913990000000005" lon="5.9129000000000005">
    <ele>447.96000000000004</ele>
   </trkpt>
   <trkpt lat="49.914030000000004" lon="5.9127">
    <ele>449.31000000000006</ele>
   </trkpt>
   <trkpt lat="49.91409" lon="5.91253">
    <ele>450.54</ele>
   </trkpt>
   <trkpt lat="49.91427" lon="5.9122">
    <ele>451.81000000000006</ele>
   </trkpt>
   <trkpt lat="49.914370000000005" lon="5.912100000000001">
    <ele>452.5</ele>
   </trkpt>
   <trkpt lat="49.91449" lon="5.912050000000001">
    <ele>452.91</ele>
   </trkpt>
   <trkpt lat="49.91463" lon="5.91202">
    <ele>453.23</ele>
   </trkpt>
   <trkpt lat="49.91489000000001" lon="5.912070000000001">
    <ele>454.41</ele>
   </trkpt>
   <trkpt lat="49.91514" lon="5.91223">
    <ele>454.93000000000006</ele>
   </trkpt>
   <trkpt lat="49.9153" lon="5.9123">
    <ele>455.0</ele>
   </trkpt>
   <trkpt lat="49.915420000000005" lon="5.91232">
    <ele>455.01</ele>
   </trkpt>
   <trkpt lat="49.91555" lon="5.91232">
    <ele>455.17</ele>
   </trkpt>
   <trkpt lat="49.915670000000006" lon="5.91227">
    <ele>455.35</ele>
   </trkpt>
   <trkpt lat="49.915870000000005" lon="5.9121500000000005">
    <ele>456.62</ele>
   </trkpt>
   <trkpt lat="49.915980000000005" lon="5.91206">
    <ele>457.22</ele>
   </trkpt>
   <trkpt lat="49.91612000000001" lon="5.9119">
    <ele>457.58000000000004</ele>
   </trkpt>
   <trkpt lat="49.916320000000006" lon="5.9115400000000005">
    <ele>457.97</ele>
   </trkpt>
   <trkpt lat="49.91649" lon="5.91115">
    <ele>459.34000000000003</ele>
   </trkpt>
   <trkpt lat="49.916760000000004" lon="5.9102500000000004">
    <ele>465.07000000000005</ele>
   </trkpt>
   <trkpt lat="49.91691" lon="5.90995">
    <ele>464.99</ele>
   </trkpt>
   <trkpt lat="49.91716" lon="5.90955">
    <ele>464.29</ele>
   </trkpt>
   <trkpt lat="49.91754" lon="5.90904">
    <ele>463.57000000000005</ele>
   </trkpt>
   <trkpt lat="49.917880000000004" lon="5.908510000000001">
    <ele>462.62</ele>
   </trkpt>
   <trkpt lat="49.91798000000001" lon="5.9084">
    <ele>462.62</ele>
   </trkpt>
   <trkpt lat="49.91808" lon="5.908320000000001">
    <ele>462.22</ele>
   </trkpt>
   <trkpt lat="49.91839" lon="5.9081600000000005">
    <ele>461.8</ele>
   </trkpt>
   <trkpt lat="49.918330000000005" lon="5.907520000000001">
    <ele>461.27</ele>
   </trkpt>
   <trkpt lat="49.918330000000005" lon="5.907310000000001">
    <ele>461.27</ele>
   </trkpt>
   <trkpt lat="49.91836000000001" lon="5.907120000000001">
    <ele>461.16</ele>
   </trkpt>
   <trkpt lat="49.918400000000005" lon="5.90699">
    <ele>460.92</ele>
   </trkpt>
   <trkpt lat="49.91796000047121" lon="5.907330003122563">
    <ele>461.57000000000005</ele>
   </trkpt>
   <trkpt lat="49.91752" lon="5.90767">
    <ele>459.62</ele>
   </trkpt>
   <trkpt lat="49.917320000000004" lon="5.907900000000001">
    <ele>456.93000000000006</ele>
   </trkpt>
   <trkpt lat="49.91725" lon="5.90774">
    <ele>456.52000000000004</ele>
   </trkpt>
   <trkpt lat="49.916970000000006" lon="5.9066600000000005">
    <ele>454.3</ele>
   </trkpt>
   <trkpt lat="49.91682" lon="5.90631">
    <ele>454.79</ele>
   </trkpt>
   <trkpt lat="49.91651" lon="5.905430000000001">
    <ele>454.6600000000001</ele>
   </trkpt>
   <trkpt lat="49.916250000000005" lon="5.905220000000001">
    <ele>449.01</ele>
   </trkpt>
   <trkpt lat="49.9162" lon="5.90514">
    <ele>448.16</ele>
   </trkpt>
   <trkpt lat="49.916090000000004" lon="5.904850000000001">
    <ele>445.28</ele>
   </trkpt>
   <trkpt lat="49.916090000000004" lon="5.904870000000001">
    <ele>445.33000000000004</ele>
   </trkpt>
   <trkpt lat="49.915960000000005" lon="5.904050000000001">
    <ele>443.71000000000004</ele>
   </trkpt>
   <trkpt lat="49.915870000000005" lon="5.90298">
    <ele>446.22</ele>
   </trkpt>
   <trkpt lat="49.915440000000004" lon="5.901800000000001">
    <ele>441.96000000000004</ele>
   </trkpt>
   <trkpt lat="49.91525000000001" lon="5.901350000000001">
    <ele>443.04</ele>
   </trkpt>
   <trkpt lat="49.91525000000001" lon="5.90127">
    <ele>443.04</ele>
   </trkpt>
   <trkpt lat="49.91528" lon="5.901230000000001">
    <ele>443.74</ele>
   </trkpt>
   <trkpt lat="49.915350000000004" lon="5.9012">
    <ele>444.14000000000004</ele>
   </trkpt>
   <trkpt lat="49.915470000000006" lon="5.90106">
    <ele>445.6</ele>
   </trkpt>
   <trkpt lat="49.915690000000005" lon="5.90052">
    <ele>446.47</ele>
   </trkpt>
   <trkpt lat="49.915780000000005" lon="5.900200000000001">
    <ele>447.05000000000007</ele>
   </trkpt>
   <trkpt lat="49.91593" lon="5.8999500000000005">
    <ele>446.66</ele>
   </trkpt>
   <trkpt lat="49.915940000000006" lon="5.899900000000001">
    <ele>446.20000000000005</ele>
   </trkpt>
   <trkpt lat="49.91592000000001" lon="5.8996900000000005">
    <ele>444.75</ele>
   </trkpt>
   <trkpt lat="49.91595" lon="5.899590000000001">
    <ele>442.96000000000004</ele>
   </trkpt>
   <trkpt lat="49.91586" lon="5.8994800000000005">
    <ele>440.28000000000003</ele>
   </trkpt>
   <trkpt lat="49.915820000000004" lon="5.89951">
    <ele>440.28000000000003</ele>
   </trkpt>
   <trkpt lat="49.91579" lon="5.89942">
    <ele>432.95000000000005</ele>
   </trkpt>
   <trkpt lat="49.915800000000004" lon="5.8993400000000005">
    <ele>432.95000000000005</ele>
   </trkpt>
   <trkpt lat="49.91579" lon="5.899330000000001">
    <ele>432.95000000000005</ele>
   </trkpt>
   <trkpt lat="49.91568" lon="5.899450000000001">
    <ele>425.84000000000003</ele>
   </trkpt>
   <trkpt lat="49.915690000000005" lon="5.899290000000001">
    <ele>425.84000000000003</ele>
   </trkpt>
   <trkpt lat="49.91568" lon="5.8992700000000005">
    <ele>425.84000000000003</ele>
   </trkpt>
   <trkpt lat="49.915620000000004" lon="5.899330000000001">
    <ele>420.00000000000006</ele>
   </trkpt>
   <trkpt lat="49.915620000000004" lon="5.899170000000001">
    <ele>420.00000000000006</ele>
   </trkpt>
   <trkpt lat="49.915530000000004" lon="5.8992700000000005">
    <ele>416.24000000000007</ele>
   </trkpt>
   <trkpt lat="49.91557" lon="5.899000000000001">
    <ele>412.93</ele>
   </trkpt>
   <trkpt lat="49.915560000000006" lon="5.89876">
    <ele>409.94</ele>
   </trkpt>
   <trkpt lat="49.91561" lon="5.89836">
    <ele>406.7</ele>
   </trkpt>
   <trkpt lat="49.915690000000005" lon="5.8981900000000005">
    <ele>406.40000000000003</ele>
   </trkpt>
   <trkpt lat="49.9157" lon="5.8981200000000005">
    <ele>406.24</ele>
   </trkpt>
   <trkpt lat="49.915620000000004" lon="5.89754">
    <ele>400.12</ele>
   </trkpt>
   <trkpt lat="49.91564" lon="5.8971100000000005">
    <ele>391.84000000000003</ele>
   </trkpt>
   <trkpt lat="49.9157" lon="5.89681">
    <ele>385.75000000000006</ele>
   </trkpt>
   <trkpt lat="49.9157" lon="5.89667">
    <ele>383.21000000000004</ele>
   </trkpt>
   <trkpt lat="49.915820000000004" lon="5.8966">
    <ele>379.3</ele>
   </trkpt>
   <trkpt lat="49.915800000000004" lon="5.89651">
    <ele>378.11000000000007</ele>
   </trkpt>
   <trkpt lat="49.915820000000004" lon="5.896330000000001">
    <ele>374.31</ele>
   </trkpt>
   <trkpt lat="49.91574000000001" lon="5.896190000000001">
    <ele>372.19</ele>
   </trkpt>
   <trkpt lat="49.91573" lon="5.89613">
    <ele>372.19</ele>
   </trkpt>
   <trkpt lat="49.915620000000004" lon="5.8960300000000005">
    <ele>371.01</ele>
   </trkpt>
   <trkpt lat="49.91555" lon="5.895860000000001">
    <ele>363.61</ele>
   </trkpt>
   <trkpt lat="49.9155" lon="5.895810000000001">
    <ele>363.61</ele>
   </trkpt>
   <trkpt lat="49.915470000000006" lon="5.89573">
    <ele>361.34000000000003</ele>
   </trkpt>
   <trkpt lat="49.91545000000001" lon="5.895600000000001">
    <ele>360.3</ele>
   </trkpt>
   <trkpt lat="49.91543" lon="5.89559">
    <ele>358.36</ele>
   </trkpt>
   <trkpt lat="49.91539" lon="5.8956100000000005">
    <ele>358.36</ele>
   </trkpt>
   <trkpt lat="49.91532" lon="5.895580000000001">
    <ele>356.66</ele>
   </trkpt>
   <trkpt lat="49.915220000000005" lon="5.895440000000001">
    <ele>353.89000000000004</ele>
   </trkpt>
   <trkpt lat="49.915130000000005" lon="5.89538">
    <ele>353.14</ele>
   </trkpt>
   <trkpt lat="49.914950000000005" lon="5.89536">
    <ele>347.89000000000004</ele>
   </trkpt>
   <trkpt lat="49.91443" lon="5.89545">
    <ele>336.39000000000004</ele>
   </trkpt>
   <trkpt lat="49.914370000000005" lon="5.89538">
    <ele>336.51000000000005</ele>
   </trkpt>
   <trkpt lat="49.91425" lon="5.895180000000001">
    <ele>337.56</ele>
   </trkpt>
   <trkpt lat="49.91418" lon="5.895110000000001">
    <ele>337.56</ele>
   </trkpt>
   <trkpt lat="49.914060000000006" lon="5.895060000000001">
    <ele>339.07000000000005</ele>
   </trkpt>
   <trkpt lat="49.913970000000006" lon="5.8950000000000005">
    <ele>339.07000000000005</ele>
   </trkpt>
   <trkpt lat="49.913830000000004" lon="5.89477">
    <ele>341.29</ele>
   </trkpt>
   <trkpt lat="49.91377000000001" lon="5.89451">
    <ele>343.30000000000007</ele>
   </trkpt>
   <trkpt lat="49.91377000000001" lon="5.89454">
    <ele>343.24000000000007</ele>
   </trkpt>
   <trkpt lat="49.913700000000006" lon="5.893490000000001">
    <ele>351.56000000000006</ele>
   </trkpt>
   <trkpt lat="49.91358" lon="5.892790000000001">
    <ele>357.25</ele>
   </trkpt>
   <trkpt lat="49.913410000000006" lon="5.89214">
    <ele>364.8</ele>
   </trkpt>
   <trkpt lat="49.91329" lon="5.8915500000000005">
    <ele>369.27000000000004</ele>
   </trkpt>
   <trkpt lat="49.913250000000005" lon="5.891240000000001">
    <ele>370.3</ele>
   </trkpt>
   <trkpt lat="49.913270000000004" lon="5.8911500000000006">
    <ele>371.68</ele>
   </trkpt>
   <trkpt lat="49.913320000000006" lon="5.89113">
    <ele>371.68</ele>
   </trkpt>
   <trkpt lat="49.913380000000004" lon="5.89114">
    <ele>373.29</ele>
   </trkpt>
   <trkpt lat="49.91348000000001" lon="5.89128">
    <ele>374.70000000000005</ele>
   </trkpt>
   <trkpt lat="49.913630000000005" lon="5.8914100000000005">
    <ele>377.71000000000004</ele>
   </trkpt>
   <trkpt lat="49.913790000000006" lon="5.89144">
    <ele>379.49000000000007</ele>
   </trkpt>
   <trkpt lat="49.91402" lon="5.8915500000000005">
    <ele>381.22</ele>
   </trkpt>
   <trkpt lat="49.91409" lon="5.89156">
    <ele>381.22</ele>
   </trkpt>
   <trkpt lat="49.91416" lon="5.891540000000001">
    <ele>383.15000000000003</ele>
   </trkpt>
   <trkpt lat="49.914350000000006" lon="5.8914100000000005">
    <ele>383.57</ele>
   </trkpt>
   <trkpt lat="49.914350000000006" lon="5.891260000000001">
    <ele>385.37000000000006</ele>
   </trkpt>
   <trkpt lat="49.91424000000001" lon="5.89111">
    <ele>386.89</ele>
   </trkpt>
   <trkpt lat="49.91418" lon="5.8909400000000005">
    <ele>387.58000000000004</ele>
   </trkpt>
   <trkpt lat="49.914100000000005" lon="5.890510000000001">
    <ele>389.74</ele>
   </trkpt>
   <trkpt lat="49.913990000000005" lon="5.89017">
    <ele>391.14000000000004</ele>
   </trkpt>
   <trkpt lat="49.913990000000005" lon="5.89008">
    <ele>391.14000000000004</ele>
   </trkpt>
   <trkpt lat="49.91348000000001" lon="5.8891100000000005">
    <ele>384.27000000000004</ele>
   </trkpt>
   <trkpt lat="49.913410000000006" lon="5.8889000000000005">
    <ele>384.27000000000004</ele>
   </trkpt>
   <trkpt lat="49.913380000000004" lon="5.88867">
    <ele>382.45</ele>
   </trkpt>
   <trkpt lat="49.913410000000006" lon="5.888470000000001">
    <ele>381.78</ele>
   </trkpt>
   <trkpt lat="49.91349" lon="5.888260000000001">
    <ele>380.81</ele>
   </trkpt>
   <trkpt lat="49.91362" lon="5.888020000000001">
    <ele>378.8</ele>
   </trkpt>
   <trkpt lat="49.9138" lon="5.88776">
    <ele>377.07</ele>
   </trkpt>
   <trkpt lat="49.91402" lon="5.887370000000001">
    <ele>375.13</ele>
   </trkpt>
   <trkpt lat="49.91414" lon="5.88712">
    <ele>373.14000000000004</ele>
   </trkpt>
   <trkpt lat="49.91422000000001" lon="5.886900000000001">
    <ele>372.15000000000003</ele>
   </trkpt>
   <trkpt lat="49.91422000000001" lon="5.88677">
    <ele>371.45000000000005</ele>
   </trkpt>
   <trkpt lat="49.914190000000005" lon="5.886710000000001">
    <ele>371.45000000000005</ele>
   </trkpt>
   <trkpt lat="49.91413000000001" lon="5.886710000000001">
    <ele>370.46</ele>
   </trkpt>
   <trkpt lat="49.91405" lon="5.886780000000001">
    <ele>369.65000000000003</ele>
   </trkpt>
   <trkpt lat="49.913940000000004" lon="5.886830000000001">
    <ele>368.56000000000006</ele>
   </trkpt>
   <trkpt lat="49.91366000000001" lon="5.886920000000001">
    <ele>365.81</ele>
   </trkpt>
   <trkpt lat="49.91322" lon="5.88724">
    <ele>364.24</ele>
   </trkpt>
   <trkpt lat="49.91245000000001" lon="5.8876800000000005">
    <ele>356.35</ele>
   </trkpt>
   <trkpt lat="49.91221" lon="5.88797">
    <ele>354.38</ele>
   </trkpt>
   <trkpt lat="49.91192" lon="5.88846">
    <ele>350.92</ele>
   </trkpt>
   <trkpt lat="49.911880000000004" lon="5.8885000000000005">
    <ele>350.92</ele>
   </trkpt>
   <trkpt lat="49.911840000000005" lon="5.888490000000001">
    <ele>350.25</ele>
   </trkpt>
   <trkpt lat="49.91160000000001" lon="5.88799">
    <ele>346.28000000000003</ele>
   </trkpt>
   <trkpt lat="49.91140000000001" lon="5.887650000000001">
    <ele>344.48</ele>
   </trkpt>
   <trkpt lat="49.91087" lon="5.88691">
    <ele>338.56</ele>
   </trkpt>
   <trkpt lat="49.910500000000006" lon="5.88649">
    <ele>334.45000000000005</ele>
   </trkpt>
   <trkpt lat="49.91015" lon="5.88618">
    <ele>331.58000000000004</ele>
   </trkpt>
   <trkpt lat="49.909940000000006" lon="5.88602">
    <ele>330.58000000000004</ele>
   </trkpt>
   <trkpt lat="49.90993" lon="5.88602">
    <ele>330.24</ele>
   </trkpt>
   <trkpt lat="49.91039000000001" lon="5.88656">
    <ele>328.66</ele>
   </trkpt>
   <trkpt lat="49.91076" lon="5.8871">
    <ele>325.09000000000003</ele>
   </trkpt>
   <trkpt lat="49.91086000000001" lon="5.88729">
    <ele>324.05</ele>
   </trkpt>
   <trkpt lat="49.910235003425925" lon="5.888175011385588">
    <ele>320.69</ele>
   </trkpt>
   <trkpt lat="49.90961" lon="5.889060000000001">
    <ele>324.13</ele>
   </trkpt>
   <trkpt lat="49.909580000000005" lon="5.889130000000001">
    <ele>325.27</ele>
   </trkpt>
   <trkpt lat="49.90955" lon="5.8893200000000006">
    <ele>327.04</ele>
   </trkpt>
   <trkpt lat="49.909420000000004" lon="5.8893200000000006">
    <ele>329.3</ele>
   </trkpt>
   <trkpt lat="49.909290000000006" lon="5.88938">
    <ele>330.76000000000005</ele>
   </trkpt>
   <trkpt lat="49.90889000000001" lon="5.889740000000001">
    <ele>333.74</ele>
   </trkpt>
   <trkpt lat="49.908730000000006" lon="5.889290000000001">
    <ele>332.92</ele>
   </trkpt>
   <trkpt lat="49.90860000000001" lon="5.88909">
    <ele>332.44</ele>
   </trkpt>
   <trkpt lat="49.90841" lon="5.88886">
    <ele>332.23</ele>
   </trkpt>
   <trkpt lat="49.90825" lon="5.88872">
    <ele>332.09000000000003</ele>
   </trkpt>
   <trkpt lat="49.90823" lon="5.88874">
    <ele>332.09000000000003</ele>
   </trkpt>
   <trkpt lat="49.90804000000001" lon="5.88895">
    <ele>334.69000000000005</ele>
   </trkpt>
   <trkpt lat="49.90782" lon="5.8895100000000005">
    <ele>337.05</ele>
   </trkpt>
   <trkpt lat="49.907680000000006" lon="5.890510000000001">
    <ele>343.37</ele>
   </trkpt>
   <trkpt lat="49.907540000000004" lon="5.89045">
    <ele>343.48</ele>
   </trkpt>
   <trkpt lat="49.90751" lon="5.89059">
    <ele>343.69000000000005</ele>
   </trkpt>
   <trkpt lat="49.90747" lon="5.89062">
    <ele>343.69000000000005</ele>
   </trkpt>
   <trkpt lat="49.90706" lon="5.890460000000001">
    <ele>345.12</ele>
   </trkpt>
   <trkpt lat="49.90702" lon="5.890390000000001">
    <ele>345.12</ele>
   </trkpt>
   <trkpt lat="49.90699000000001" lon="5.89038">
    <ele>345.12</ele>
   </trkpt>
   <trkpt lat="49.90695" lon="5.8904000000000005">
    <ele>345.44</ele>
   </trkpt>
   <trkpt lat="49.90691" lon="5.890460000000001">
    <ele>345.44</ele>
   </trkpt>
   <trkpt lat="49.90692000000001" lon="5.890560000000001">
    <ele>346.19000000000005</ele>
   </trkpt>
   <trkpt lat="49.90684" lon="5.8911500000000006">
    <ele>352.23</ele>
   </trkpt>
   <trkpt lat="49.90684" lon="5.89116">
    <ele>352.23</ele>
   </trkpt>
   <trkpt lat="49.90686" lon="5.891310000000001">
    <ele>354.14</ele>
   </trkpt>
   <trkpt lat="49.90691" lon="5.8913">
    <ele>354.51000000000005</ele>
   </trkpt>
   <trkpt lat="49.90695" lon="5.891310000000001">
    <ele>354.85</ele>
   </trkpt>
   <trkpt lat="49.907410000000006" lon="5.891730000000001">
    <ele>357.28000000000003</ele>
   </trkpt>
   <trkpt lat="49.90782" lon="5.89198">
    <ele>359.69</ele>
   </trkpt>
   <trkpt lat="49.90814" lon="5.892080000000001">
    <ele>362.45000000000005</ele>
   </trkpt>
   <trkpt lat="49.90840000000001" lon="5.8922300000000005">
    <ele>365.06000000000006</ele>
   </trkpt>
   <trkpt lat="49.90856" lon="5.8924">
    <ele>366.35</ele>
   </trkpt>
   <trkpt lat="49.908730000000006" lon="5.8926300000000005">
    <ele>368.37</ele>
   </trkpt>
   <trkpt lat="49.90888" lon="5.892900000000001">
    <ele>370.19</ele>
   </trkpt>
   <trkpt lat="49.90936000000001" lon="5.89402">
    <ele>373.6</ele>
   </trkpt>
   <trkpt lat="49.909400000000005" lon="5.894220000000001">
    <ele>373.8</ele>
   </trkpt>
   <trkpt lat="49.909400000000005" lon="5.89435">
    <ele>374.01</ele>
   </trkpt>
   <trkpt lat="49.90937" lon="5.8944600000000005">
    <ele>374.01</ele>
   </trkpt>
   <trkpt lat="49.90936000000001" lon="5.894480000000001">
    <ele>374.01</ele>
   </trkpt>
   <trkpt lat="49.909330000000004" lon="5.894520000000001">
    <ele>374.07</ele>
   </trkpt>
   <trkpt lat="49.90907000000001" lon="5.89456">
    <ele>374.93</ele>
   </trkpt>
   <trkpt lat="49.90872" lon="5.89477">
    <ele>376.98</ele>
   </trkpt>
   <trkpt lat="49.908350000000006" lon="5.89503">
    <ele>378.27000000000004</ele>
   </trkpt>
   <trkpt lat="49.908190000000005" lon="5.895180000000001">
    <ele>378.72</ele>
   </trkpt>
   <trkpt lat="49.90809" lon="5.895300000000001">
    <ele>378.72</ele>
   </trkpt>
   <trkpt lat="49.90798" lon="5.895510000000001">
    <ele>379.25</ele>
   </trkpt>
   <trkpt lat="49.907650000000004" lon="5.89658">
    <ele>383.03000000000003</ele>
   </trkpt>
   <trkpt lat="49.90749" lon="5.896850000000001">
    <ele>384.65000000000003</ele>
   </trkpt>
   <trkpt lat="49.907300000000006" lon="5.897060000000001">
    <ele>385.43000000000006</ele>
   </trkpt>
   <trkpt lat="49.90711" lon="5.8971800000000005">
    <ele>385.94</ele>
   </trkpt>
   <trkpt lat="49.90682" lon="5.89719">
    <ele>385.67</ele>
   </trkpt>
   <trkpt lat="49.90645000000001" lon="5.89712">
    <ele>384.68</ele>
   </trkpt>
   <trkpt lat="49.906150000000004" lon="5.89712">
    <ele>384.28000000000003</ele>
   </trkpt>
   <trkpt lat="49.906000000000006" lon="5.897170000000001">
    <ele>384.26000000000005</ele>
   </trkpt>
   <trkpt lat="49.90587000000001" lon="5.89726">
    <ele>384.29</ele>
   </trkpt>
   <trkpt lat="49.90541" lon="5.897670000000001">
    <ele>388.0</ele>
   </trkpt>
   <trkpt lat="49.90536" lon="5.89871">
    <ele>392.07</ele>
   </trkpt>
   <trkpt lat="49.905295002429575" lon="5.899465001264231">
    <ele>392.97</ele>
   </trkpt>
   <trkpt lat="49.90523" lon="5.900220000000001">
    <ele>393.6</ele>
   </trkpt>
   <trkpt lat="49.9052" lon="5.90096">
    <ele>395.72</ele>
   </trkpt>
   <trkpt lat="49.90516" lon="5.90122">
    <ele>397.45000000000005</ele>
   </trkpt>
   <trkpt lat="49.905100000000004" lon="5.901400000000001">
    <ele>399.90000000000003</ele>
   </trkpt>
   <trkpt lat="49.905010000000004" lon="5.901960000000001">
    <ele>402.29</ele>
   </trkpt>
   <trkpt lat="49.90485" lon="5.90247">
    <ele>407.48</ele>
   </trkpt>
   <trkpt lat="49.904770000000006" lon="5.90336">
    <ele>408.64000000000004</ele>
   </trkpt>
   <trkpt lat="49.90476" lon="5.90359">
    <ele>408.58000000000004</ele>
   </trkpt>
   <trkpt lat="49.90478" lon="5.903840000000001">
    <ele>408.96000000000004</ele>
   </trkpt>
   <trkpt lat="49.904770000000006" lon="5.90406">
    <ele>410.5</ele>
   </trkpt>
   <trkpt lat="49.90469" lon="5.90434">
    <ele>413.40000000000003</ele>
   </trkpt>
   <trkpt lat="49.904650000000004" lon="5.90437">
    <ele>414.1</ele>
   </trkpt>
   <trkpt lat="49.904790000000006" lon="5.904680000000001">
    <ele>409.86000000000007</ele>
   </trkpt>
   <trkpt lat="49.904990000000005" lon="5.90481">
    <ele>406.29</ele>
   </trkpt>
   <trkpt lat="49.90505" lon="5.9049000000000005">
    <ele>404.01000000000005</ele>
   </trkpt>
   <trkpt lat="49.905170000000005" lon="5.90502">
    <ele>402.35</ele>
   </trkpt>
   <trkpt lat="49.90522000000001" lon="5.90521">
    <ele>399.37000000000006</ele>
   </trkpt>
   <trkpt lat="49.905330000000006" lon="5.90535">
    <ele>396.36</ele>
   </trkpt>
   <trkpt lat="49.90538" lon="5.905390000000001">
    <ele>395.46000000000004</ele>
   </trkpt>
   <trkpt lat="49.90540000000001" lon="5.9054400000000005">
    <ele>394.27</ele>
   </trkpt>
   <trkpt lat="49.90543" lon="5.90545">
    <ele>392.77</ele>
   </trkpt>
   <trkpt lat="49.90561" lon="5.905740000000001">
    <ele>383.06</ele>
   </trkpt>
   <trkpt lat="49.90578000000001" lon="5.90577">
    <ele>374.55000000000007</ele>
   </trkpt>
   <trkpt lat="49.90581" lon="5.90582">
    <ele>374.55000000000007</ele>
   </trkpt>
   <trkpt lat="49.90585" lon="5.905830000000001">
    <ele>373.06000000000006</ele>
   </trkpt>
   <trkpt lat="49.90596000000001" lon="5.906000000000001">
    <ele>370.39000000000004</ele>
   </trkpt>
   <trkpt lat="49.90607000000001" lon="5.90613">
    <ele>365.8</ele>
   </trkpt>
   <trkpt lat="49.90635" lon="5.906320000000001">
    <ele>354.90000000000003</ele>
   </trkpt>
   <trkpt lat="49.906470000000006" lon="5.90653">
    <ele>351.63000000000005</ele>
   </trkpt>
   <trkpt lat="49.90654000000001" lon="5.9065900000000005">
    <ele>349.01000000000005</ele>
   </trkpt>
   <trkpt lat="49.90661" lon="5.906680000000001">
    <ele>346.71000000000004</ele>
   </trkpt>
   <trkpt lat="49.906690000000005" lon="5.906720000000001">
    <ele>343.83000000000004</ele>
   </trkpt>
   <trkpt lat="49.90683000000001" lon="5.90676">
    <ele>340.17</ele>
   </trkpt>
   <trkpt lat="49.90690000000001" lon="5.90688">
    <ele>339.5</ele>
   </trkpt>
   <trkpt lat="49.90692000000001" lon="5.90695">
    <ele>339.05</ele>
   </trkpt>
   <trkpt lat="49.907000000000004" lon="5.90706">
    <ele>338.43</ele>
   </trkpt>
   <trkpt lat="49.907050000000005" lon="5.9070800000000006">
    <ele>337.98</ele>
   </trkpt>
   <trkpt lat="49.907070000000004" lon="5.907120000000001">
    <ele>337.44</ele>
   </trkpt>
   <trkpt lat="49.907180000000004" lon="5.90723">
    <ele>334.92</ele>
   </trkpt>
   <trkpt lat="49.90729" lon="5.90723">
    <ele>334.36</ele>
   </trkpt>
   <trkpt lat="49.907410000000006" lon="5.907170000000001">
    <ele>333.23</ele>
   </trkpt>
   <trkpt lat="49.90789500527609" lon="5.90827998879012">
    <ele>332.07000000000005</ele>
   </trkpt>
   <trkpt lat="49.90838" lon="5.90939">
    <ele>331.69000000000005</ele>
   </trkpt>
   <trkpt lat="49.90847" lon="5.909730000000001">
    <ele>331.68</ele>
   </trkpt>
   <trkpt lat="49.908480000000004" lon="5.91007">
    <ele>331.8</ele>
   </trkpt>
   <trkpt lat="49.90827" lon="5.90979">
    <ele>326.83</ele>
   </trkpt>
   <trkpt lat="49.90811" lon="5.909630000000001">
    <ele>329.96000000000004</ele>
   </trkpt>
   <trkpt lat="49.908010000000004" lon="5.90957">
    <ele>329.96000000000004</ele>
   </trkpt>
   <trkpt lat="49.90791" lon="5.90957">
    <ele>334.76</ele>
   </trkpt>
   <trkpt lat="49.907560000000004" lon="5.909730000000001">
    <ele>339.11</ele>
   </trkpt>
   <trkpt lat="49.90713" lon="5.91">
    <ele>346.21000000000004</ele>
   </trkpt>
   <trkpt lat="49.90706" lon="5.910080000000001">
    <ele>346.21000000000004</ele>
   </trkpt>
   <trkpt lat="49.906870000000005" lon="5.910430000000001">
    <ele>353.09000000000003</ele>
   </trkpt>
   <trkpt lat="49.90675" lon="5.910550000000001">
    <ele>352.89000000000004</ele>
   </trkpt>
   <trkpt lat="49.906650000000006" lon="5.9106000000000005">
    <ele>352.35</ele>
   </trkpt>
   <trkpt lat="49.90646" lon="5.910640000000001">
    <ele>351.29</ele>
   </trkpt>
   <trkpt lat="49.906130000000005" lon="5.910760000000001">
    <ele>348.42</ele>
   </trkpt>
   <trkpt lat="49.905860000000004" lon="5.910900000000001">
    <ele>347.2</ele>
   </trkpt>
   <trkpt lat="49.905570000000004" lon="5.9111">
    <ele>346.68000000000006</ele>
   </trkpt>
   <trkpt lat="49.90518" lon="5.911300000000001">
    <ele>346.18000000000006</ele>
   </trkpt>
   <trkpt lat="49.904360000000004" lon="5.91159">
    <ele>349.5</ele>
   </trkpt>
   <trkpt lat="49.90422" lon="5.91162">
    <ele>350.58</ele>
   </trkpt>
   <trkpt lat="49.904050000000005" lon="5.91162">
    <ele>352.56000000000006</ele>
   </trkpt>
   <trkpt lat="49.90386" lon="5.91152">
    <ele>354.45000000000005</ele>
   </trkpt>
   <trkpt lat="49.90364" lon="5.911340000000001">
    <ele>358.26</ele>
   </trkpt>
   <trkpt lat="49.903240000000004" lon="5.911090000000001">
    <ele>365.63</ele>
   </trkpt>
   <trkpt lat="49.902840000000005" lon="5.910990000000001">
    <ele>371.07</ele>
   </trkpt>
   <trkpt lat="49.902300000000004" lon="5.91079">
    <ele>379.03000000000003</ele>
   </trkpt>
   <trkpt lat="49.901970000000006" lon="5.91061">
    <ele>385.88000000000005</ele>
   </trkpt>
   <trkpt lat="49.901650000000004" lon="5.91037">
    <ele>390.34000000000003</ele>
   </trkpt>
   <trkpt lat="49.901300000000006" lon="5.91019">
    <ele>395.20000000000005</ele>
   </trkpt>
   <trkpt lat="49.901160000000004" lon="5.910170000000001">
    <ele>397.70000000000005</ele>
   </trkpt>
   <trkpt lat="49.90073" lon="5.9102500000000004">
    <ele>404.07000000000005</ele>
   </trkpt>
   <trkpt lat="49.90113" lon="5.910850000000001">
    <ele>404.32</ele>
   </trkpt>
   <trkpt lat="49.90129" lon="5.911270000000001">
    <ele>404.33000000000004</ele>
   </trkpt>
   <trkpt lat="49.90131" lon="5.9114">
    <ele>404.17</ele>
   </trkpt>
   <trkpt lat="49.90133" lon="5.911950000000001">
    <ele>403.39000000000004</ele>
   </trkpt>
   <trkpt lat="49.90119000687228" lon="5.913215003743894">
    <ele>403.46000000000004</ele>
   </trkpt>
   <trkpt lat="49.901050000000005" lon="5.91448">
    <ele>405.44</ele>
   </trkpt>
   <trkpt lat="49.90106" lon="5.914700000000001">
    <ele>405.14000000000004</ele>
   </trkpt>
   <trkpt lat="49.90104" lon="5.91485">
    <ele>405.07000000000005</ele>
   </trkpt>
   <trkpt lat="49.900940000000006" lon="5.915150000000001">
    <ele>405.34000000000003</ele>
   </trkpt>
   <trkpt lat="49.900850000000005" lon="5.915500000000001">
    <ele>406.25000000000006</ele>
   </trkpt>
   <trkpt lat="49.90081000000001" lon="5.91582">
    <ele>406.69000000000005</ele>
   </trkpt>
   <trkpt lat="49.90079" lon="5.916760000000001">
    <ele>406.18</ele>
   </trkpt>
   <trkpt lat="49.90075" lon="5.91699">
    <ele>406.97</ele>
   </trkpt>
   <trkpt lat="49.90070000000001" lon="5.91711">
    <ele>407.76</ele>
   </trkpt>
   <trkpt lat="49.90063000000001" lon="5.9171700000000005">
    <ele>407.76</ele>
   </trkpt>
   <trkpt lat="49.900400000000005" lon="5.917260000000001">
    <ele>408.80000000000007</ele>
   </trkpt>
   <trkpt lat="49.8997" lon="5.917610000000001">
    <ele>410.12</ele>
   </trkpt>
   <trkpt lat="49.899530000000006" lon="5.91765">
    <ele>410.79</ele>
   </trkpt>
   <trkpt lat="49.899350000000005" lon="5.917730000000001">
    <ele>410.98</ele>
   </trkpt>
   <trkpt lat="49.899010000000004" lon="5.9179200000000005">
    <ele>411.11</ele>
   </trkpt>
   <trkpt lat="49.89871" lon="5.91819">
    <ele>411.66</ele>
   </trkpt>
   <trkpt lat="49.89862" lon="5.91823">
    <ele>411.80000000000007</ele>
   </trkpt>
   <trkpt lat="49.89838" lon="5.91823">
    <ele>412.35</ele>
   </trkpt>
   <trkpt lat="49.898360000000004" lon="5.91823">
    <ele>412.38</ele>
   </trkpt>
   <trkpt lat="49.89842" lon="5.918290000000001">
    <ele>410.34000000000003</ele>
   </trkpt>
   <trkpt lat="49.898630000000004" lon="5.91835">
    <ele>406.86000000000007</ele>
   </trkpt>
   <trkpt lat="49.89876" lon="5.91833">
    <ele>405.04</ele>
   </trkpt>
   <trkpt lat="49.89914" lon="5.91811">
    <ele>399.6</ele>
   </trkpt>
   <trkpt lat="49.89931000000001" lon="5.91809">
    <ele>397.40000000000003</ele>
   </trkpt>
   <trkpt lat="49.899640000000005" lon="5.918150000000001">
    <ele>389.83</ele>
   </trkpt>
   <trkpt lat="49.899820000000005" lon="5.91821">
    <ele>384.94</ele>
   </trkpt>
   <trkpt lat="49.900450000000006" lon="5.918500000000001">
    <ele>361.8</ele>
   </trkpt>
   <trkpt lat="49.900560000000006" lon="5.91851">
    <ele>357.91</ele>
   </trkpt>
   <trkpt lat="49.90075" lon="5.91847">
    <ele>355.02</ele>
   </trkpt>
   <trkpt lat="49.90104" lon="5.91833">
    <ele>348.92</ele>
   </trkpt>
   <trkpt lat="49.901050000000005" lon="5.91833">
    <ele>348.76</ele>
   </trkpt>
   <trkpt lat="49.900560000000006" lon="5.9188">
    <ele>362.76</ele>
   </trkpt>
   <trkpt lat="49.900380000000006" lon="5.918900000000001">
    <ele>364.05</ele>
   </trkpt>
   <trkpt lat="49.89994" lon="5.919040000000001">
    <ele>370.79</ele>
   </trkpt>
   <trkpt lat="49.899620000000006" lon="5.9191">
    <ele>376.38000000000005</ele>
   </trkpt>
   <trkpt lat="49.899480000000004" lon="5.919160000000001">
    <ele>381.59000000000003</ele>
   </trkpt>
   <trkpt lat="49.89947" lon="5.919200000000001">
    <ele>381.47</ele>
   </trkpt>
   <trkpt lat="49.89936" lon="5.919270000000001">
    <ele>381.36</ele>
   </trkpt>
   <trkpt lat="49.899280000000005" lon="5.9192800000000005">
    <ele>381.40000000000003</ele>
   </trkpt>
   <trkpt lat="49.89922000000001" lon="5.91933">
    <ele>381.57</ele>
   </trkpt>
   <trkpt lat="49.89916" lon="5.9194">
    <ele>381.78</ele>
   </trkpt>
   <trkpt lat="49.89914" lon="5.91945">
    <ele>382.08000000000004</ele>
   </trkpt>
   <trkpt lat="49.899150000000006" lon="5.919510000000001">
    <ele>382.33000000000004</ele>
   </trkpt>
   <trkpt lat="49.89914" lon="5.91948">
    <ele>382.26000000000005</ele>
   </trkpt>
   <trkpt lat="49.899150000000006" lon="5.919510000000001">
    <ele>382.42</ele>
   </trkpt>
   <trkpt lat="49.89925" lon="5.9195400000000005">
    <ele>382.93000000000006</ele>
   </trkpt>
   <trkpt lat="49.89931000000001" lon="5.91952">
    <ele>382.71999999999997</ele>
   </trkpt>
   <trkpt lat="49.899460000000005" lon="5.91957">
    <ele>382.07</ele>
   </trkpt>
   <trkpt lat="49.89979" lon="5.919600000000001">
    <ele>379.15000000000003</ele>
   </trkpt>
   <trkpt lat="49.900510000000004" lon="5.919790000000001">
    <ele>373.57</ele>
   </trkpt>
   <trkpt lat="49.901160000000004" lon="5.92001">
    <ele>365.85</ele>
   </trkpt>
   <trkpt lat="49.90133" lon="5.92009">
    <ele>364.82000000000005</ele>
   </trkpt>
   <trkpt lat="49.901740000000004" lon="5.9203600000000005">
    <ele>366.57</ele>
   </trkpt>
   <trkpt lat="49.90193000000001" lon="5.920520000000001">
    <ele>366.87</ele>
   </trkpt>
   <trkpt lat="49.902530000000006" lon="5.921130000000001">
    <ele>370.97</ele>
   </trkpt>
   <trkpt lat="49.90278000000001" lon="5.9214400000000005">
    <ele>372.29</ele>
   </trkpt>
   <trkpt lat="49.903020000000005" lon="5.9217900000000006">
    <ele>375.13</ele>
   </trkpt>
   <trkpt lat="49.90340000109251" lon="5.922279996217867">
    <ele>376.69</ele>
   </trkpt>
   <trkpt lat="49.903780000000005" lon="5.922770000000001">
    <ele>379.07</ele>
   </trkpt>
   <trkpt lat="49.904140000000005" lon="5.923150000000001">
    <ele>382.43000000000006</ele>
   </trkpt>
   <trkpt lat="49.90429" lon="5.92328">
    <ele>383.29</ele>
   </trkpt>
   <trkpt lat="49.904430000000005" lon="5.923430000000001">
    <ele>383.95</ele>
   </trkpt>
   <trkpt lat="49.90455000000001" lon="5.9236">
    <ele>384.31000000000006</ele>
   </trkpt>
   <trkpt lat="49.904680000000006" lon="5.923710000000001">
    <ele>384.75</ele>
   </trkpt>
   <trkpt lat="49.904880000000006" lon="5.92393">
    <ele>385.78000000000003</ele>
   </trkpt>
   <trkpt lat="49.904990000000005" lon="5.92414">
    <ele>387.21000000000004</ele>
   </trkpt>
   <trkpt lat="49.905080000000005" lon="5.92436">
    <ele>388.27</ele>
   </trkpt>
   <trkpt lat="49.905170000000005" lon="5.924670000000001">
    <ele>392.11</ele>
   </trkpt>
   <trkpt lat="49.90529" lon="5.92536">
    <ele>394.82000000000005</ele>
   </trkpt>
   <trkpt lat="49.905330000000006" lon="5.925730000000001">
    <ele>394.22</ele>
   </trkpt>
   <trkpt lat="49.905350000000006" lon="5.926620000000001">
    <ele>388.78000000000003</ele>
   </trkpt>
   <trkpt lat="49.905390000000004" lon="5.926710000000001">
    <ele>387.5</ele>
   </trkpt>
   <trkpt lat="49.90540000000001" lon="5.926780000000001">
    <ele>387.5</ele>
   </trkpt>
   <trkpt lat="49.905390000000004" lon="5.9268600000000005">
    <ele>386.28000000000003</ele>
   </trkpt>
   <trkpt lat="49.905350000000006" lon="5.926920000000001">
    <ele>385.17</ele>
   </trkpt>
   <trkpt lat="49.905300000000004" lon="5.92696">
    <ele>385.17</ele>
   </trkpt>
   <trkpt lat="49.904590000000006" lon="5.9272800000000005">
    <ele>376.93</ele>
   </trkpt>
   <trkpt lat="49.90473" lon="5.927460000000001">
    <ele>376.56</ele>
   </trkpt>
   <trkpt lat="49.90505" lon="5.927700000000001">
    <ele>377.00000000000006</ele>
   </trkpt>
   <trkpt lat="49.905120000000004" lon="5.927770000000001">
    <ele>376.6</ele>
   </trkpt>
   <trkpt lat="49.905190000000005" lon="5.928000000000001">
    <ele>375.19</ele>
   </trkpt>
   <trkpt lat="49.905240000000006" lon="5.9280800000000005">
    <ele>373.92</ele>
   </trkpt>
   <trkpt lat="49.905280000000005" lon="5.928190000000001">
    <ele>372.35</ele>
   </trkpt>
   <trkpt lat="49.905300000000004" lon="5.92839">
    <ele>367.92</ele>
   </trkpt>
   <trkpt lat="49.90536" lon="5.9286">
    <ele>366.24</ele>
   </trkpt>
   <trkpt lat="49.905820000000006" lon="5.92973">
    <ele>350.37</ele>
   </trkpt>
   <trkpt lat="49.90617" lon="5.93074">
    <ele>337.26</ele>
   </trkpt>
   <trkpt lat="49.90625000000001" lon="5.93106">
    <ele>333.1</ele>
   </trkpt>
   <trkpt lat="49.90635" lon="5.93177">
    <ele>323.32000000000005</ele>
   </trkpt>
   <trkpt lat="49.906420000000004" lon="5.93205">
    <ele>319.61</ele>
   </trkpt>
   <trkpt lat="49.9065" lon="5.9325">
    <ele>315.44</ele>
   </trkpt>
   <trkpt lat="49.90664" lon="5.9329">
    <ele>309.87</ele>
   </trkpt>
   <trkpt lat="49.90672000000001" lon="5.933020000000001">
    <ele>308.75</ele>
   </trkpt>
   <trkpt lat="49.90683000000001" lon="5.9331000000000005">
    <ele>307.34</ele>
   </trkpt>
   <trkpt lat="49.90683000000001" lon="5.9331700000000005">
    <ele>306.81</ele>
   </trkpt>
   <trkpt lat="49.90695" lon="5.933300000000001">
    <ele>306.19</ele>
   </trkpt>
   <trkpt lat="49.90724" lon="5.93353">
    <ele>307.71000000000004</ele>
   </trkpt>
   <trkpt lat="49.90733" lon="5.93362">
    <ele>308.83000000000004</ele>
   </trkpt>
   <trkpt lat="49.90739000000001" lon="5.93367">
    <ele>308.95</ele>
   </trkpt>
   <trkpt lat="49.907700000000006" lon="5.933770000000001">
    <ele>310.32000000000005</ele>
   </trkpt>
   <trkpt lat="49.90776" lon="5.9338500000000005">
    <ele>310.68</ele>
   </trkpt>
   <trkpt lat="49.907810000000005" lon="5.934030000000001">
    <ele>312.47</ele>
   </trkpt>
   <trkpt lat="49.907990000000005" lon="5.93407">
    <ele>310.81</ele>
   </trkpt>
   <trkpt lat="49.908300000000004" lon="5.934080000000001">
    <ele>304.97</ele>
   </trkpt>
   <trkpt lat="49.908460000000005" lon="5.93404">
    <ele>299.92</ele>
   </trkpt>
   <trkpt lat="49.90876" lon="5.934080000000001">
    <ele>295.55</ele>
   </trkpt>
   <trkpt lat="49.90889000000001" lon="5.934080000000001">
    <ele>292.84999999999997</ele>
   </trkpt>
   <trkpt lat="49.90907000000001" lon="5.93412">
    <ele>289.38</ele>
   </trkpt>
   <trkpt lat="49.909150000000004" lon="5.934100000000001">
    <ele>288.48</ele>
   </trkpt>
   <trkpt lat="49.909240000000004" lon="5.934130000000001">
    <ele>284.67</ele>
   </trkpt>
   <trkpt lat="49.90943000000001" lon="5.93411">
    <ele>282.33000000000004</ele>
   </trkpt>
   <trkpt lat="49.90945000000001" lon="5.934010000000001">
    <ele>281.34000000000003</ele>
   </trkpt>
   <trkpt lat="49.909760000000006" lon="5.93411">
    <ele>281.34000000000003</ele>
   </trkpt>
   <trkpt lat="49.909800000000004" lon="5.93416">
    <ele>281.34000000000003</ele>
   </trkpt>
   <trkpt lat="49.90984" lon="5.93435">
    <ele>281.38</ele>
   </trkpt>
   <trkpt lat="49.90979" lon="5.935390000000001">
    <ele>281.90000000000003</ele>
   </trkpt>
   <trkpt lat="49.909745002147694" lon="5.936095000488911">
    <ele>282.2</ele>
   </trkpt>
   <trkpt lat="49.9097" lon="5.936800000000001">
    <ele>282.63000000000005</ele>
   </trkpt>
   <trkpt lat="49.90966" lon="5.936800000000001">
    <ele>284.06</ele>
   </trkpt>
  </trkseg>
 </trk>
</gpx>
