<?xml version="1.0" encoding="UTF-8"?>
<gpx creator="StravaGPX" version="1.1" xmlns="http://www.topografix.com/GPX/1/1" xmlns:xsi="http://www.w3.org/2001/XMLSchema-instance" xsi:schemaLocation="http://www.topografix.com/GPX/1/1 http://www.topografix.com/GPX/1/1/gpx.xsd">
 <metadata>
  <name>30Km Work VL loop</name>
  <author>
   <name>Andrew Goudie</name>
  </author>
  <copyright author="OpenStreetMap contributors">
   <year>2020</year>
   <license>https://www.openstreetmap.org/copyright</license>
  </copyright>
 </metadata>
 <trk>
  <name>30Km Work VL loop</name>
  <link href=""/>
  <type>cycling</type>
  <trkseg>
   <trkpt lat="52.10862" lon="4.32296">
    <ele>6.55</ele>
   </trkpt>
   <trkpt lat="52.108850000000004" lon="4.32294">
    <ele>6.42</ele>
   </trkpt>
   <trkpt lat="52.109300000000005" lon="4.32268">
    <ele>5.78</ele>
   </trkpt>
   <trkpt lat="52.109640000000006" lon="4.322360000000001">
    <ele>5.630000000000001</ele>
   </trkpt>
   <trkpt lat="52.10974" lon="4.32233">
    <ele>5.44</ele>
   </trkpt>
   <trkpt lat="52.10987" lon="4.32235">
    <ele>5.44</ele>
   </trkpt>
   <trkpt lat="52.11018000000001" lon="4.322550000000001">
    <ele>5.430000000000001</ele>
   </trkpt>
   <trkpt lat="52.110240000000005" lon="4.32265">
    <ele>5.410000000000001</ele>
   </trkpt>
   <trkpt lat="52.11027000000001" lon="4.3228100000000005">
    <ele>5.410000000000001</ele>
   </trkpt>
   <trkpt lat="52.110290000000006" lon="4.323650000000001">
    <ele>5.010000000000001</ele>
   </trkpt>
   <trkpt lat="52.11058334754689" lon="4.324946649564208">
    <ele>4.87</ele>
   </trkpt>
   <trkpt lat="52.11087668087108" lon="4.326243316190162">
    <ele>4.800000000000001</ele>
   </trkpt>
   <trkpt lat="52.11117" lon="4.32754">
    <ele>4.430000000000001</ele>
   </trkpt>
   <trkpt lat="52.11126" lon="4.3277600000000005">
    <ele>4.390000000000001</ele>
   </trkpt>
   <trkpt lat="52.111700001996695" lon="4.328439993352457">
    <ele>4.2700000000000005</ele>
   </trkpt>
   <trkpt lat="52.112140000000004" lon="4.3291200000000005">
    <ele>4.34</ele>
   </trkpt>
   <trkpt lat="52.112350000000006" lon="4.32948">
    <ele>4.3100000000000005</ele>
   </trkpt>
   <trkpt lat="52.112655001345416" lon="4.3300399962039">
    <ele>4.15</ele>
   </trkpt>
   <trkpt lat="52.11296" lon="4.3306000000000004">
    <ele>4.180000000000001</ele>
   </trkpt>
   <trkpt lat="52.11314" lon="4.3308800000000005">
    <ele>4.12</ele>
   </trkpt>
   <trkpt lat="52.113510000000005" lon="4.33164">
    <ele>3.920000000000001</ele>
   </trkpt>
   <trkpt lat="52.11366" lon="4.33213">
    <ele>4.0600000000000005</ele>
   </trkpt>
   <trkpt lat="52.11377" lon="4.33234">
    <ele>4.0600000000000005</ele>
   </trkpt>
   <trkpt lat="52.11415" lon="4.3327100000000005">
    <ele>3.74</ele>
   </trkpt>
   <trkpt lat="52.11439000000001" lon="4.33303">
    <ele>3.7</ele>
   </trkpt>
   <trkpt lat="52.114540000000005" lon="4.333340000000001">
    <ele>3.8000000000000003</ele>
   </trkpt>
   <trkpt lat="52.11469" lon="4.33351">
    <ele>3.7700000000000005</ele>
   </trkpt>
   <trkpt lat="52.11478" lon="4.333690000000001">
    <ele>3.75</ele>
   </trkpt>
   <trkpt lat="52.11497000000001" lon="4.33389">
    <ele>3.5500000000000003</ele>
   </trkpt>
   <trkpt lat="52.114990000000006" lon="4.33398">
    <ele>3.5500000000000003</ele>
   </trkpt>
   <trkpt lat="52.11498" lon="4.3340700000000005">
    <ele>3.33</ele>
   </trkpt>
   <trkpt lat="52.114940000000004" lon="4.33419">
    <ele>3.33</ele>
   </trkpt>
   <trkpt lat="52.11478" lon="4.33452">
    <ele>3.41</ele>
   </trkpt>
   <trkpt lat="52.11473" lon="4.3347500000000005">
    <ele>3.6600000000000006</ele>
   </trkpt>
   <trkpt lat="52.114720000000005" lon="4.334960000000001">
    <ele>4.0</ele>
   </trkpt>
   <trkpt lat="52.114760000000004" lon="4.33514">
    <ele>4.2</ele>
   </trkpt>
   <trkpt lat="52.11516" lon="4.335660000000001">
    <ele>5.19</ele>
   </trkpt>
   <trkpt lat="52.115190000000005" lon="4.335780000000001">
    <ele>5.19</ele>
   </trkpt>
   <trkpt lat="52.115190000000005" lon="4.33586">
    <ele>5.630000000000001</ele>
   </trkpt>
   <trkpt lat="52.115170000000006" lon="4.3359000000000005">
    <ele>5.630000000000001</ele>
   </trkpt>
   <trkpt lat="52.11506000000001" lon="4.336">
    <ele>6.16</ele>
   </trkpt>
   <trkpt lat="52.11497000000001" lon="4.33614">
    <ele>6.44</ele>
   </trkpt>
   <trkpt lat="52.11488000000001" lon="4.33638">
    <ele>6.82</ele>
   </trkpt>
   <trkpt lat="52.11487" lon="4.336460000000001">
    <ele>6.9</ele>
   </trkpt>
   <trkpt lat="52.11488000000001" lon="4.33659">
    <ele>6.91</ele>
   </trkpt>
   <trkpt lat="52.11491" lon="4.3367">
    <ele>6.85</ele>
   </trkpt>
   <trkpt lat="52.11502" lon="4.3369">
    <ele>6.3500000000000005</ele>
   </trkpt>
   <trkpt lat="52.115120000000005" lon="4.33758">
    <ele>5.580000000000001</ele>
   </trkpt>
   <trkpt lat="52.11507" lon="4.337750000000001">
    <ele>5.53</ele>
   </trkpt>
   <trkpt lat="52.11484" lon="4.33832">
    <ele>5.5600000000000005</ele>
   </trkpt>
   <trkpt lat="52.11496" lon="4.33849">
    <ele>5.53</ele>
   </trkpt>
   <trkpt lat="52.115320000000004" lon="4.338900000000001">
    <ele>5.34</ele>
   </trkpt>
   <trkpt lat="52.11558" lon="4.33903">
    <ele>5.280000000000001</ele>
   </trkpt>
   <trkpt lat="52.11607000000001" lon="4.33901">
    <ele>5.670000000000001</ele>
   </trkpt>
   <trkpt lat="52.116130000000005" lon="4.3390200000000005">
    <ele>5.670000000000001</ele>
   </trkpt>
   <trkpt lat="52.11675" lon="4.33943">
    <ele>5.790000000000001</ele>
   </trkpt>
   <trkpt lat="52.116960000000006" lon="4.339650000000001">
    <ele>5.580000000000001</ele>
   </trkpt>
   <trkpt lat="52.11721000000001" lon="4.33983">
    <ele>5.6000000000000005</ele>
   </trkpt>
   <trkpt lat="52.117360000000005" lon="4.34018">
    <ele>6.32</ele>
   </trkpt>
   <trkpt lat="52.117700000000006" lon="4.3399600000000005">
    <ele>7.090000000000001</ele>
   </trkpt>
   <trkpt lat="52.117760000000004" lon="4.33995">
    <ele>7.17</ele>
   </trkpt>
   <trkpt lat="52.11786000000001" lon="4.34001">
    <ele>7.36</ele>
   </trkpt>
   <trkpt lat="52.1182" lon="4.340380000000001">
    <ele>8.620000000000001</ele>
   </trkpt>
   <trkpt lat="52.118460000000006" lon="4.340540000000001">
    <ele>10.23</ele>
   </trkpt>
   <trkpt lat="52.11903" lon="4.34058">
    <ele>10.97</ele>
   </trkpt>
   <trkpt lat="52.11932" lon="4.34055">
    <ele>9.74</ele>
   </trkpt>
   <trkpt lat="52.11945000000001" lon="4.3405000000000005">
    <ele>9.13</ele>
   </trkpt>
   <trkpt lat="52.11961" lon="4.340470000000001">
    <ele>8.180000000000001</ele>
   </trkpt>
   <trkpt lat="52.11977" lon="4.34049">
    <ele>6.53</ele>
   </trkpt>
   <trkpt lat="52.12001000000001" lon="4.34037">
    <ele>5.410000000000001</ele>
   </trkpt>
   <trkpt lat="52.120475000480255" lon="4.340070003065582">
    <ele>4.6000000000000005</ele>
   </trkpt>
   <trkpt lat="52.120940000000004" lon="4.339770000000001">
    <ele>6.2</ele>
   </trkpt>
   <trkpt lat="52.121030000000005" lon="4.339770000000001">
    <ele>6.410000000000001</ele>
   </trkpt>
   <trkpt lat="52.1212" lon="4.339840000000001">
    <ele>6.470000000000001</ele>
   </trkpt>
   <trkpt lat="52.12151000000001" lon="4.33992">
    <ele>6.470000000000001</ele>
   </trkpt>
   <trkpt lat="52.12167" lon="4.339910000000001">
    <ele>6.59</ele>
   </trkpt>
   <trkpt lat="52.12205" lon="4.33983">
    <ele>7.430000000000001</ele>
   </trkpt>
   <trkpt lat="52.122170000000004" lon="4.33985">
    <ele>7.760000000000001</ele>
   </trkpt>
   <trkpt lat="52.122330000000005" lon="4.33995">
    <ele>8.010000000000002</ele>
   </trkpt>
   <trkpt lat="52.12247000000001" lon="4.33994">
    <ele>7.95</ele>
   </trkpt>
   <trkpt lat="52.12263" lon="4.33987">
    <ele>7.73</ele>
   </trkpt>
   <trkpt lat="52.12277" lon="4.339700000000001">
    <ele>7.51</ele>
   </trkpt>
   <trkpt lat="52.122820000000004" lon="4.33966">
    <ele>6.72</ele>
   </trkpt>
   <trkpt lat="52.12295" lon="4.339650000000001">
    <ele>6.72</ele>
   </trkpt>
   <trkpt lat="52.12306" lon="4.34035">
    <ele>6.750000000000001</ele>
   </trkpt>
   <trkpt lat="52.12308" lon="4.34044">
    <ele>6.750000000000001</ele>
   </trkpt>
   <trkpt lat="52.12314000000001" lon="4.340520000000001">
    <ele>7.090000000000001</ele>
   </trkpt>
   <trkpt lat="52.12321000000001" lon="4.3405700000000005">
    <ele>7.280000000000001</ele>
   </trkpt>
   <trkpt lat="52.123270000000005" lon="4.34058">
    <ele>7.280000000000001</ele>
   </trkpt>
   <trkpt lat="52.12386000000001" lon="4.3405000000000005">
    <ele>7.6000000000000005</ele>
   </trkpt>
   <trkpt lat="52.12409" lon="4.34055">
    <ele>7.6000000000000005</ele>
   </trkpt>
   <trkpt lat="52.12417000000001" lon="4.3406">
    <ele>7.74</ele>
   </trkpt>
   <trkpt lat="52.12429" lon="4.34074">
    <ele>7.73</ele>
   </trkpt>
   <trkpt lat="52.12435000000001" lon="4.340920000000001">
    <ele>7.82</ele>
   </trkpt>
   <trkpt lat="52.12456" lon="4.34145">
    <ele>8.43</ele>
   </trkpt>
   <trkpt lat="52.12471000000001" lon="4.341900000000001">
    <ele>9.89</ele>
   </trkpt>
   <trkpt lat="52.124840000000006" lon="4.3429400000000005">
    <ele>11.950000000000001</ele>
   </trkpt>
   <trkpt lat="52.12489000000001" lon="4.343190000000001">
    <ele>11.950000000000001</ele>
   </trkpt>
   <trkpt lat="52.125080000000004" lon="4.34375">
    <ele>12.33</ele>
   </trkpt>
   <trkpt lat="52.125130000000006" lon="4.3449">
    <ele>13.35</ele>
   </trkpt>
   <trkpt lat="52.12519" lon="4.345090000000001">
    <ele>13.370000000000001</ele>
   </trkpt>
   <trkpt lat="52.125400000000006" lon="4.34544">
    <ele>13.22</ele>
   </trkpt>
   <trkpt lat="52.12567000000001" lon="4.34579">
    <ele>13.590000000000002</ele>
   </trkpt>
   <trkpt lat="52.125910000000005" lon="4.3460600000000005">
    <ele>14.15</ele>
   </trkpt>
   <trkpt lat="52.12617" lon="4.34649">
    <ele>15.55</ele>
   </trkpt>
   <trkpt lat="52.12635" lon="4.346850000000001">
    <ele>16.720000000000002</ele>
   </trkpt>
   <trkpt lat="52.12682" lon="4.34794">
    <ele>17.54</ele>
   </trkpt>
   <trkpt lat="52.126870000000004" lon="4.34811">
    <ele>17.54</ele>
   </trkpt>
   <trkpt lat="52.126920000000005" lon="4.348800000000001">
    <ele>17.59</ele>
   </trkpt>
   <trkpt lat="52.126960000000004" lon="4.349">
    <ele>17.54</ele>
   </trkpt>
   <trkpt lat="52.12704" lon="4.349200000000001">
    <ele>17.35</ele>
   </trkpt>
   <trkpt lat="52.127230000000004" lon="4.34956">
    <ele>16.76</ele>
   </trkpt>
   <trkpt lat="52.1274" lon="4.3497900000000005">
    <ele>16.43</ele>
   </trkpt>
   <trkpt lat="52.12778" lon="4.350090000000001">
    <ele>16.61</ele>
   </trkpt>
   <trkpt lat="52.128080000000004" lon="4.3502600000000005">
    <ele>17.580000000000002</ele>
   </trkpt>
   <trkpt lat="52.128400000000006" lon="4.350370000000001">
    <ele>18.05</ele>
   </trkpt>
   <trkpt lat="52.12906" lon="4.350090000000001">
    <ele>17.27</ele>
   </trkpt>
   <trkpt lat="52.129160000000006" lon="4.3501">
    <ele>17.03</ele>
   </trkpt>
   <trkpt lat="52.12926" lon="4.3501900000000004">
    <ele>16.84</ele>
   </trkpt>
   <trkpt lat="52.12942" lon="4.35039">
    <ele>16.34</ele>
   </trkpt>
   <trkpt lat="52.129840001347695" lon="4.350979994263695">
    <ele>14.68</ele>
   </trkpt>
   <trkpt lat="52.13026000000001" lon="4.351570000000001">
    <ele>13.330000000000002</ele>
   </trkpt>
   <trkpt lat="52.130300000000005" lon="4.351710000000001">
    <ele>13.09</ele>
   </trkpt>
   <trkpt lat="52.13031" lon="4.35186">
    <ele>12.950000000000001</ele>
   </trkpt>
   <trkpt lat="52.13029" lon="4.35215">
    <ele>11.89</ele>
   </trkpt>
   <trkpt lat="52.130340000000004" lon="4.3523000000000005">
    <ele>11.89</ele>
   </trkpt>
   <trkpt lat="52.130410000000005" lon="4.352340000000001">
    <ele>11.290000000000001</ele>
   </trkpt>
   <trkpt lat="52.13051" lon="4.35235">
    <ele>11.290000000000001</ele>
   </trkpt>
   <trkpt lat="52.13069" lon="4.35233">
    <ele>10.48</ele>
   </trkpt>
   <trkpt lat="52.130700000000004" lon="4.35296">
    <ele>11.27</ele>
   </trkpt>
   <trkpt lat="52.130750000000006" lon="4.35318">
    <ele>12.020000000000001</ele>
   </trkpt>
   <trkpt lat="52.130810000000004" lon="4.35327">
    <ele>12.31</ele>
   </trkpt>
   <trkpt lat="52.13085" lon="4.353420000000001">
    <ele>12.48</ele>
   </trkpt>
   <trkpt lat="52.13085" lon="4.3534500000000005">
    <ele>12.49</ele>
   </trkpt>
   <trkpt lat="52.13082000000001" lon="4.35364">
    <ele>12.59</ele>
   </trkpt>
   <trkpt lat="52.13078" lon="4.35369">
    <ele>12.59</ele>
   </trkpt>
   <trkpt lat="52.13071000000001" lon="4.35374">
    <ele>12.59</ele>
   </trkpt>
   <trkpt lat="52.13055000000001" lon="4.353700000000001">
    <ele>12.48</ele>
   </trkpt>
   <trkpt lat="52.13053000000001" lon="4.35374">
    <ele>12.48</ele>
   </trkpt>
   <trkpt lat="52.13038" lon="4.354760000000001">
    <ele>11.9</ele>
   </trkpt>
   <trkpt lat="52.13008000000001" lon="4.35536">
    <ele>11.88</ele>
   </trkpt>
   <trkpt lat="52.12961500415424" lon="4.356360010596832">
    <ele>11.420000000000002</ele>
   </trkpt>
   <trkpt lat="52.12915" lon="4.357360000000001">
    <ele>9.290000000000001</ele>
   </trkpt>
   <trkpt lat="52.128690000000006" lon="4.3582600000000005">
    <ele>6.57</ele>
   </trkpt>
   <trkpt lat="52.128220000000006" lon="4.35909">
    <ele>4.59</ele>
   </trkpt>
   <trkpt lat="52.12776" lon="4.35998">
    <ele>3.35</ele>
   </trkpt>
   <trkpt lat="52.12771000000001" lon="4.35996">
    <ele>3.35</ele>
   </trkpt>
   <trkpt lat="52.12736" lon="4.36029">
    <ele>2.91</ele>
   </trkpt>
   <trkpt lat="52.12708000000001" lon="4.3604">
    <ele>2.8000000000000003</ele>
   </trkpt>
   <trkpt lat="52.12698" lon="4.36047">
    <ele>2.7</ele>
   </trkpt>
   <trkpt lat="52.12686000000001" lon="4.36061">
    <ele>2.7</ele>
   </trkpt>
   <trkpt lat="52.126520000000006" lon="4.361330000000001">
    <ele>2.47</ele>
   </trkpt>
   <trkpt lat="52.12630000000001" lon="4.3617300000000006">
    <ele>2.35</ele>
   </trkpt>
   <trkpt lat="52.12608" lon="4.36207">
    <ele>2.36</ele>
   </trkpt>
   <trkpt lat="52.125930000000004" lon="4.36226">
    <ele>2.34</ele>
   </trkpt>
   <trkpt lat="52.12576000000001" lon="4.3624">
    <ele>2.34</ele>
   </trkpt>
   <trkpt lat="52.125310000000006" lon="4.36265">
    <ele>2.32</ele>
   </trkpt>
   <trkpt lat="52.12465" lon="4.3628100000000005">
    <ele>2.25</ele>
   </trkpt>
   <trkpt lat="52.12451" lon="4.362760000000001">
    <ele>2.25</ele>
   </trkpt>
   <trkpt lat="52.124430000000004" lon="4.36282">
    <ele>2.25</ele>
   </trkpt>
   <trkpt lat="52.124140000000004" lon="4.362900000000001">
    <ele>2.23</ele>
   </trkpt>
   <trkpt lat="52.12384" lon="4.36305">
    <ele>2.3000000000000003</ele>
   </trkpt>
   <trkpt lat="52.12371" lon="4.36315">
    <ele>2.5500000000000003</ele>
   </trkpt>
   <trkpt lat="52.123400000000004" lon="4.363650000000001">
    <ele>3.1300000000000003</ele>
   </trkpt>
   <trkpt lat="52.123340000000006" lon="4.3639600000000005">
    <ele>3.21</ele>
   </trkpt>
   <trkpt lat="52.12323000000001" lon="4.363910000000001">
    <ele>3.21</ele>
   </trkpt>
   <trkpt lat="52.12321000000001" lon="4.364050000000001">
    <ele>3.18</ele>
   </trkpt>
   <trkpt lat="52.12299" lon="4.36395">
    <ele>2.89</ele>
   </trkpt>
   <trkpt lat="52.12254999999671" lon="4.363784998326588">
    <ele>3.37</ele>
   </trkpt>
   <trkpt lat="52.122110000000006" lon="4.36362">
    <ele>3.58</ele>
   </trkpt>
   <trkpt lat="52.12171000000001" lon="4.3635">
    <ele>3.43</ele>
   </trkpt>
   <trkpt lat="52.121340000000004" lon="4.36341">
    <ele>3.3200000000000003</ele>
   </trkpt>
   <trkpt lat="52.12109" lon="4.3634200000000005">
    <ele>3.36</ele>
   </trkpt>
   <trkpt lat="52.120960000000004" lon="4.36347">
    <ele>3.36</ele>
   </trkpt>
   <trkpt lat="52.120760000000004" lon="4.36364">
    <ele>3.33</ele>
   </trkpt>
   <trkpt lat="52.12029500181746" lon="4.364295006829254">
    <ele>2.93</ele>
   </trkpt>
   <trkpt lat="52.11983000000001" lon="4.36495">
    <ele>2.62</ele>
   </trkpt>
   <trkpt lat="52.11984" lon="4.365010000000001">
    <ele>2.5</ele>
   </trkpt>
   <trkpt lat="52.12028333828907" lon="4.36577665138746">
    <ele>1.5</ele>
   </trkpt>
   <trkpt lat="52.120726671606505" lon="4.3665433180264275">
    <ele>1.61</ele>
   </trkpt>
   <trkpt lat="52.121170000000006" lon="4.367310000000001">
    <ele>2.39</ele>
   </trkpt>
   <trkpt lat="52.120626010566475" lon="4.368100038556539">
    <ele>1.78</ele>
   </trkpt>
   <trkpt lat="52.12008201585362" lon="4.36889005782812">
    <ele>1.7000000000000002</ele>
   </trkpt>
   <trkpt lat="52.11953801586169" lon="4.369680057815402">
    <ele>1.6300000000000001</ele>
   </trkpt>
   <trkpt lat="52.1189940105909" lon="4.370470038519048">
    <ele>1.68</ele>
   </trkpt>
   <trkpt lat="52.11845" lon="4.37126">
    <ele>2.2700000000000005</ele>
   </trkpt>
   <trkpt lat="52.11825" lon="4.37152">
    <ele>2.7</ele>
   </trkpt>
   <trkpt lat="52.118170000000006" lon="4.37157">
    <ele>2.7600000000000002</ele>
   </trkpt>
   <trkpt lat="52.118140000000004" lon="4.3723600000000005">
    <ele>2.93</ele>
   </trkpt>
   <trkpt lat="52.11818" lon="4.37296">
    <ele>3.2800000000000002</ele>
   </trkpt>
   <trkpt lat="52.11824000000001" lon="4.373340000000001">
    <ele>3.23</ele>
   </trkpt>
   <trkpt lat="52.118430000000004" lon="4.37406">
    <ele>2.91</ele>
   </trkpt>
   <trkpt lat="52.118590000000005" lon="4.374510000000001">
    <ele>2.93</ele>
   </trkpt>
   <trkpt lat="52.118770000000005" lon="4.374820000000001">
    <ele>3.36</ele>
   </trkpt>
   <trkpt lat="52.11883" lon="4.37499">
    <ele>3.6500000000000004</ele>
   </trkpt>
   <trkpt lat="52.118840000000006" lon="4.37513">
    <ele>3.4400000000000004</ele>
   </trkpt>
   <trkpt lat="52.11883" lon="4.37518">
    <ele>3.4400000000000004</ele>
   </trkpt>
   <trkpt lat="52.11867" lon="4.37544">
    <ele>3.3100000000000005</ele>
   </trkpt>
   <trkpt lat="52.118315001407304" lon="4.376015004564901">
    <ele>2.86</ele>
   </trkpt>
   <trkpt lat="52.117960000000004" lon="4.37659">
    <ele>2.47</ele>
   </trkpt>
   <trkpt lat="52.117920000000005" lon="4.3765600000000004">
    <ele>2.21</ele>
   </trkpt>
   <trkpt lat="52.11787" lon="4.37657">
    <ele>2.21</ele>
   </trkpt>
   <trkpt lat="52.117560000000005" lon="4.377070000000001">
    <ele>1.08</ele>
   </trkpt>
   <trkpt lat="52.117430000000006" lon="4.37779">
    <ele>1.1300000000000001</ele>
   </trkpt>
   <trkpt lat="52.11717" lon="4.3781300000000005">
    <ele>2.75</ele>
   </trkpt>
   <trkpt lat="52.11715" lon="4.3781300000000005">
    <ele>2.91</ele>
   </trkpt>
   <trkpt lat="52.11706" lon="4.37802">
    <ele>3.2800000000000002</ele>
   </trkpt>
   <trkpt lat="52.116960000000006" lon="4.37797">
    <ele>3.2800000000000002</ele>
   </trkpt>
   <trkpt lat="52.11693" lon="4.378080000000001">
    <ele>3.34</ele>
   </trkpt>
   <trkpt lat="52.11693" lon="4.3782000000000005">
    <ele>3.3100000000000005</ele>
   </trkpt>
   <trkpt lat="52.11723669520072" lon="4.3793616266974755">
    <ele>3.3800000000000003</ele>
   </trkpt>
   <trkpt lat="52.11754337898728" lon="4.3805232693794345">
    <ele>3.43</ele>
   </trkpt>
   <trkpt lat="52.11785005135939" lon="4.381684928045679">
    <ele>3.47</ele>
   </trkpt>
   <trkpt lat="52.118156712316804" lon="4.382846602696012">
    <ele>3.35</ele>
   </trkpt>
   <trkpt lat="52.118463361859206" lon="4.384008293330233">
    <ele>3.16</ele>
   </trkpt>
   <trkpt lat="52.118770000000005" lon="4.3851700000000005">
    <ele>1.3900000000000001</ele>
   </trkpt>
   <trkpt lat="52.11930000345695" lon="4.38607498922704">
    <ele>0.8500000000000001</ele>
   </trkpt>
   <trkpt lat="52.11983000000001" lon="4.38698">
    <ele>0.99</ele>
   </trkpt>
   <trkpt lat="52.12033" lon="4.387790000000001">
    <ele>0.9500000000000001</ele>
   </trkpt>
   <trkpt lat="52.120380000000004" lon="4.38792">
    <ele>0.9500000000000001</ele>
   </trkpt>
   <trkpt lat="52.120400000000004" lon="4.38806">
    <ele>0.9500000000000001</ele>
   </trkpt>
   <trkpt lat="52.12073500124833" lon="4.3885649964602225">
    <ele>0.8200000000000001</ele>
   </trkpt>
   <trkpt lat="52.12107" lon="4.38907">
    <ele>0.89</ele>
   </trkpt>
   <trkpt lat="52.121520000000004" lon="4.38991">
    <ele>0.8600000000000001</ele>
   </trkpt>
   <trkpt lat="52.12162000000001" lon="4.39003">
    <ele>0.8600000000000001</ele>
   </trkpt>
   <trkpt lat="52.12200000000001" lon="4.3903300000000005">
    <ele>0.52</ele>
   </trkpt>
   <trkpt lat="52.12219" lon="4.39058">
    <ele>0.53</ele>
   </trkpt>
   <trkpt lat="52.12232" lon="4.390840000000001">
    <ele>0.7300000000000001</ele>
   </trkpt>
   <trkpt lat="52.12243" lon="4.39119">
    <ele>1.1400000000000001</ele>
   </trkpt>
   <trkpt lat="52.12243" lon="4.39125">
    <ele>1.1400000000000001</ele>
   </trkpt>
   <trkpt lat="52.12243" lon="4.39126">
    <ele>1.1400000000000001</ele>
   </trkpt>
   <trkpt lat="52.12199667188799" lon="4.392050015467117">
    <ele>0.71</ele>
   </trkpt>
   <trkpt lat="52.12156333849703" lon="4.39284001557196">
    <ele>1.02</ele>
   </trkpt>
   <trkpt lat="52.12113" lon="4.39363">
    <ele>0.9100000000000001</ele>
   </trkpt>
   <trkpt lat="52.12104000000001" lon="4.39384">
    <ele>0.9600000000000001</ele>
   </trkpt>
   <trkpt lat="52.121010000000005" lon="4.394080000000001">
    <ele>1.05</ele>
   </trkpt>
   <trkpt lat="52.121" lon="4.3948">
    <ele>1.05</ele>
   </trkpt>
   <trkpt lat="52.12098" lon="4.394970000000001">
    <ele>1.11</ele>
   </trkpt>
   <trkpt lat="52.120900000000006" lon="4.3951400000000005">
    <ele>1.11</ele>
   </trkpt>
   <trkpt lat="52.120380000000004" lon="4.39606">
    <ele>0.5</ele>
   </trkpt>
   <trkpt lat="52.11985000000001" lon="4.3970400000000005">
    <ele>0.1</ele>
   </trkpt>
   <trkpt lat="52.11938000000001" lon="4.39822">
    <ele>-0.08</ele>
   </trkpt>
   <trkpt lat="52.119130000000006" lon="4.39879">
    <ele>-0.16</ele>
   </trkpt>
   <trkpt lat="52.118715002774266" lon="4.399590007318239">
    <ele>-0.01</ele>
   </trkpt>
   <trkpt lat="52.118300000000005" lon="4.400390000000001">
    <ele>1.1</ele>
   </trkpt>
   <trkpt lat="52.118080000000006" lon="4.40087">
    <ele>0.33000000000000007</ele>
   </trkpt>
   <trkpt lat="52.11793" lon="4.40125">
    <ele>-0.05</ele>
   </trkpt>
   <trkpt lat="52.11762000324105" lon="4.402115005802034">
    <ele>-0.08</ele>
   </trkpt>
   <trkpt lat="52.11731" lon="4.40298">
    <ele>0.05</ele>
   </trkpt>
   <trkpt lat="52.11694000000001" lon="4.40387">
    <ele>0.17</ele>
   </trkpt>
   <trkpt lat="52.116730000000004" lon="4.40428">
    <ele>0.21</ele>
   </trkpt>
   <trkpt lat="52.11625500250964" lon="4.4050600084156954">
    <ele>0.30000000000000004</ele>
   </trkpt>
   <trkpt lat="52.11578" lon="4.40584">
    <ele>0.27</ele>
   </trkpt>
   <trkpt lat="52.115660000000005" lon="4.40608">
    <ele>0.28</ele>
   </trkpt>
   <trkpt lat="52.115590000000005" lon="4.40631">
    <ele>0.28</ele>
   </trkpt>
   <trkpt lat="52.11556" lon="4.40653">
    <ele>0.28</ele>
   </trkpt>
   <trkpt lat="52.115520000000004" lon="4.40721">
    <ele>0.41000000000000003</ele>
   </trkpt>
   <trkpt lat="52.115480000000005" lon="4.40749">
    <ele>0.41000000000000003</ele>
   </trkpt>
   <trkpt lat="52.11543" lon="4.40768">
    <ele>0.41000000000000003</ele>
   </trkpt>
   <trkpt lat="52.11498" lon="4.40889">
    <ele>0.39</ele>
   </trkpt>
   <trkpt lat="52.11469" lon="4.40976">
    <ele>0.42</ele>
   </trkpt>
   <trkpt lat="52.11442000321404" lon="4.410645005683103">
    <ele>0.45</ele>
   </trkpt>
   <trkpt lat="52.11415" lon="4.41153">
    <ele>0.59</ele>
   </trkpt>
   <trkpt lat="52.11384500370579" lon="4.412470006527672">
    <ele>0.6900000000000001</ele>
   </trkpt>
   <trkpt lat="52.11354000000001" lon="4.413410000000001">
    <ele>0.53</ele>
   </trkpt>
   <trkpt lat="52.113490000000006" lon="4.413690000000001">
    <ele>0.22</ele>
   </trkpt>
   <trkpt lat="52.113510000000005" lon="4.41396">
    <ele>0.22</ele>
   </trkpt>
   <trkpt lat="52.113550000000004" lon="4.41415">
    <ele>0.07</ele>
   </trkpt>
   <trkpt lat="52.11363000000001" lon="4.41431">
    <ele>-0.27</ele>
   </trkpt>
   <trkpt lat="52.11400500155723" lon="4.41490499509009">
    <ele>-2.47</ele>
   </trkpt>
   <trkpt lat="52.114380000000004" lon="4.415500000000001">
    <ele>-3.58</ele>
   </trkpt>
   <trkpt lat="52.11446" lon="4.41568">
    <ele>-3.58</ele>
   </trkpt>
   <trkpt lat="52.114520000000006" lon="4.41594">
    <ele>-3.7900000000000005</ele>
   </trkpt>
   <trkpt lat="52.11458500238361" lon="4.4166899989588275">
    <ele>-3.8100000000000005</ele>
   </trkpt>
   <trkpt lat="52.114650000000005" lon="4.41744">
    <ele>-3.33</ele>
   </trkpt>
   <trkpt lat="52.11470500362324" lon="4.418364998932972">
    <ele>-1.07</ele>
   </trkpt>
   <trkpt lat="52.114760000000004" lon="4.41929">
    <ele>0.75</ele>
   </trkpt>
   <trkpt lat="52.114720000000005" lon="4.41957">
    <ele>0.9500000000000001</ele>
   </trkpt>
   <trkpt lat="52.11455" lon="4.42016">
    <ele>1.05</ele>
   </trkpt>
   <trkpt lat="52.114212515078464" lon="4.421250024745072">
    <ele>0.88</ele>
   </trkpt>
   <trkpt lat="52.113875020106555" lon="4.422340032986619">
    <ele>0.78</ele>
   </trkpt>
   <trkpt lat="52.11353751508455" lon="4.423430024724596">
    <ele>0.93</ele>
   </trkpt>
   <trkpt lat="52.113200000000006" lon="4.42452">
    <ele>0.7400000000000001</ele>
   </trkpt>
   <trkpt lat="52.11297000173955" lon="4.425170003487369">
    <ele>0.8200000000000001</ele>
   </trkpt>
   <trkpt lat="52.11274" lon="4.425820000000001">
    <ele>0.84</ele>
   </trkpt>
   <trkpt lat="52.11236000374116" lon="4.426770008287128">
    <ele>0.7400000000000001</ele>
   </trkpt>
   <trkpt lat="52.11198" lon="4.427720000000001">
    <ele>0.9500000000000001</ele>
   </trkpt>
   <trkpt lat="52.111620001856984" lon="4.428400005677218">
    <ele>0.7300000000000001</ele>
   </trkpt>
   <trkpt lat="52.11126" lon="4.429080000000001">
    <ele>0.51</ele>
   </trkpt>
   <trkpt lat="52.111160000000005" lon="4.42931">
    <ele>0.51</ele>
   </trkpt>
   <trkpt lat="52.111050000000006" lon="4.4292300000000004">
    <ele>0.25</ele>
   </trkpt>
   <trkpt lat="52.110610000709734" lon="4.428794995617643">
    <ele>-0.27</ele>
   </trkpt>
   <trkpt lat="52.110170000000004" lon="4.4283600000000005">
    <ele>-1.07</ele>
   </trkpt>
   <trkpt lat="52.10976" lon="4.42915">
    <ele>-0.25</ele>
   </trkpt>
   <trkpt lat="52.10976" lon="4.42928">
    <ele>-0.25</ele>
   </trkpt>
   <trkpt lat="52.109266014764074" lon="4.430214041382038">
    <ele>0.05</ele>
   </trkpt>
   <trkpt lat="52.1087720221481" lon="4.431148062068189">
    <ele>-0.1</ele>
   </trkpt>
   <trkpt lat="52.10827802215242" lon="4.4320820620589725">
    <ele>-0.68</ele>
   </trkpt>
   <trkpt lat="52.10778401477729" lon="4.433016041354905">
    <ele>-0.88</ele>
   </trkpt>
   <trkpt lat="52.107290000000006" lon="4.43395">
    <ele>-0.88</ele>
   </trkpt>
   <trkpt lat="52.107350000000004" lon="4.43405">
    <ele>-0.9700000000000001</ele>
   </trkpt>
   <trkpt lat="52.10737" lon="4.434130000000001">
    <ele>-1.28</ele>
   </trkpt>
   <trkpt lat="52.107020000000006" lon="4.434830000000001">
    <ele>-0.8500000000000001</ele>
   </trkpt>
   <trkpt lat="52.10685" lon="4.4359">
    <ele>0.31</ele>
   </trkpt>
   <trkpt lat="52.10683" lon="4.43588">
    <ele>0.28</ele>
   </trkpt>
   <trkpt lat="52.10696" lon="4.43594">
    <ele>-0.36000000000000004</ele>
   </trkpt>
   <trkpt lat="52.10716000000001" lon="4.43594">
    <ele>-0.58</ele>
   </trkpt>
   <trkpt lat="52.10728" lon="4.43599">
    <ele>-0.71</ele>
   </trkpt>
   <trkpt lat="52.107330000000005" lon="4.436030000000001">
    <ele>-0.71</ele>
   </trkpt>
   <trkpt lat="52.10768" lon="4.4366900000000005">
    <ele>-0.71</ele>
   </trkpt>
   <trkpt lat="52.10783000000001" lon="4.436920000000001">
    <ele>-0.71</ele>
   </trkpt>
   <trkpt lat="52.108200000000004" lon="4.43728">
    <ele>-0.62</ele>
   </trkpt>
   <trkpt lat="52.108610000000006" lon="4.43761">
    <ele>-0.75</ele>
   </trkpt>
   <trkpt lat="52.10884" lon="4.43783">
    <ele>-0.75</ele>
   </trkpt>
   <trkpt lat="52.109320000000004" lon="4.43851">
    <ele>-0.63</ele>
   </trkpt>
   <trkpt lat="52.109590000000004" lon="4.438820000000001">
    <ele>-0.64</ele>
   </trkpt>
   <trkpt lat="52.109700000000004" lon="4.43897">
    <ele>-0.58</ele>
   </trkpt>
   <trkpt lat="52.109840000000005" lon="4.439220000000001">
    <ele>-0.4</ele>
   </trkpt>
   <trkpt lat="52.11007000000001" lon="4.4398">
    <ele>-0.44</ele>
   </trkpt>
   <trkpt lat="52.110510000000005" lon="4.441000000000001">
    <ele>-0.55</ele>
   </trkpt>
   <trkpt lat="52.110760000000006" lon="4.4415700000000005">
    <ele>-0.54</ele>
   </trkpt>
   <trkpt lat="52.11121000000001" lon="4.4428">
    <ele>-0.75</ele>
   </trkpt>
   <trkpt lat="52.111720000000005" lon="4.444">
    <ele>-0.79</ele>
   </trkpt>
   <trkpt lat="52.112170002249414" lon="4.444744992318075">
    <ele>-0.88</ele>
   </trkpt>
   <trkpt lat="52.11262000000001" lon="4.44549">
    <ele>-0.93</ele>
   </trkpt>
   <trkpt lat="52.11300000000001" lon="4.44618">
    <ele>-0.42</ele>
   </trkpt>
   <trkpt lat="52.11312" lon="4.44646">
    <ele>-0.46</ele>
   </trkpt>
   <trkpt lat="52.113420000000005" lon="4.447030000000001">
    <ele>-0.8</ele>
   </trkpt>
   <trkpt lat="52.11372000000001" lon="4.44746">
    <ele>-0.84</ele>
   </trkpt>
   <trkpt lat="52.1139" lon="4.4476700000000005">
    <ele>-0.7200000000000001</ele>
   </trkpt>
   <trkpt lat="52.11432000059253" lon="4.448059996278593">
    <ele>-0.62</ele>
   </trkpt>
   <trkpt lat="52.114740000000005" lon="4.44845">
    <ele>-0.62</ele>
   </trkpt>
   <trkpt lat="52.11524000000001" lon="4.4489600000000005">
    <ele>-0.63</ele>
   </trkpt>
   <trkpt lat="52.11549" lon="4.449260000000001">
    <ele>-0.58</ele>
   </trkpt>
   <trkpt lat="52.11560000000001" lon="4.44956">
    <ele>-0.31</ele>
   </trkpt>
   <trkpt lat="52.11574" lon="4.45031">
    <ele>0.08</ele>
   </trkpt>
   <trkpt lat="52.115790000000004" lon="4.450410000000001">
    <ele>0.15000000000000002</ele>
   </trkpt>
   <trkpt lat="52.116200000000006" lon="4.45082">
    <ele>0.02</ele>
   </trkpt>
   <trkpt lat="52.116290000000006" lon="4.45087">
    <ele>0.02</ele>
   </trkpt>
   <trkpt lat="52.11639" lon="4.45089">
    <ele>-0.02</ele>
   </trkpt>
   <trkpt lat="52.11684" lon="4.450830000000001">
    <ele>-0.42</ele>
   </trkpt>
   <trkpt lat="52.11693" lon="4.45085">
    <ele>-0.42</ele>
   </trkpt>
   <trkpt lat="52.117020000000004" lon="4.450900000000001">
    <ele>-0.55</ele>
   </trkpt>
   <trkpt lat="52.117495000984114" lon="4.451389994746179">
    <ele>-0.53</ele>
   </trkpt>
   <trkpt lat="52.11797000000001" lon="4.45188">
    <ele>-0.46</ele>
   </trkpt>
   <trkpt lat="52.11838" lon="4.452330000000001">
    <ele>-0.5</ele>
   </trkpt>
   <trkpt lat="52.11876" lon="4.45281">
    <ele>-0.68</ele>
   </trkpt>
   <trkpt lat="52.119230002015065" lon="4.45347999310126">
    <ele>-0.55</ele>
   </trkpt>
   <trkpt lat="52.1197" lon="4.45415">
    <ele>-0.16</ele>
   </trkpt>
   <trkpt lat="52.12028000327024" lon="4.4550249886622835">
    <ele>-0.5</ele>
   </trkpt>
   <trkpt lat="52.12086000000001" lon="4.455900000000001">
    <ele>-0.62</ele>
   </trkpt>
   <trkpt lat="52.12115000000001" lon="4.4562800000000005">
    <ele>-0.7200000000000001</ele>
   </trkpt>
   <trkpt lat="52.1215950013052" lon="4.456824994618455">
    <ele>-0.58</ele>
   </trkpt>
   <trkpt lat="52.122040000000005" lon="4.45737">
    <ele>-0.36000000000000004</ele>
   </trkpt>
   <trkpt lat="52.12239" lon="4.45784">
    <ele>-0.32</ele>
   </trkpt>
   <trkpt lat="52.122440000000005" lon="4.45796">
    <ele>-0.32</ele>
   </trkpt>
   <trkpt lat="52.12252" lon="4.458360000000001">
    <ele>-0.16</ele>
   </trkpt>
   <trkpt lat="52.12272501700484" lon="4.459517484062039">
    <ele>-0.08</ele>
   </trkpt>
   <trkpt lat="52.122930022677416" lon="4.460674978773129">
    <ele>-0.1</ele>
   </trkpt>
   <trkpt lat="52.12313501701751" lon="4.461832484132858">
    <ele>-0.17</ele>
   </trkpt>
   <trkpt lat="52.123340000000006" lon="4.4629900000000005">
    <ele>0.17</ele>
   </trkpt>
   <trkpt lat="52.123490000000004" lon="4.46342">
    <ele>0.30000000000000004</ele>
   </trkpt>
   <trkpt lat="52.12409667311144" lon="4.464293309546541">
    <ele>0.30000000000000004</ele>
   </trkpt>
   <trkpt lat="52.12470333977189" lon="4.465166642870462">
    <ele>0.13</ele>
   </trkpt>
   <trkpt lat="52.125310000000006" lon="4.4660400000000005">
    <ele>0.6000000000000001</ele>
   </trkpt>
   <trkpt lat="52.125400000000006" lon="4.4661100000000005">
    <ele>0.58</ele>
   </trkpt>
   <trkpt lat="52.12511000000001" lon="4.4666500000000005">
    <ele>0.32</ele>
   </trkpt>
   <trkpt lat="52.12518000000001" lon="4.466760000000001">
    <ele>0.28</ele>
   </trkpt>
   <trkpt lat="52.12523" lon="4.46689">
    <ele>0.28</ele>
   </trkpt>
   <trkpt lat="52.125170000000004" lon="4.46732">
    <ele>0.22</ele>
   </trkpt>
   <trkpt lat="52.124990000000004" lon="4.4684">
    <ele>-0.34</ele>
   </trkpt>
   <trkpt lat="52.12496" lon="4.46847">
    <ele>-0.34</ele>
   </trkpt>
   <trkpt lat="52.12480000000001" lon="4.468710000000001">
    <ele>-0.27</ele>
   </trkpt>
   <trkpt lat="52.12474" lon="4.46902">
    <ele>-0.11</ele>
   </trkpt>
   <trkpt lat="52.12469" lon="4.46922">
    <ele>-0.27</ele>
   </trkpt>
   <trkpt lat="52.124570000000006" lon="4.4694">
    <ele>-0.32</ele>
   </trkpt>
   <trkpt lat="52.12454" lon="4.469480000000001">
    <ele>-0.32</ele>
   </trkpt>
   <trkpt lat="52.124500000000005" lon="4.46987">
    <ele>-0.25</ele>
   </trkpt>
   <trkpt lat="52.12447" lon="4.469930000000001">
    <ele>-0.25</ele>
   </trkpt>
   <trkpt lat="52.12442000000001" lon="4.46996">
    <ele>-0.25</ele>
   </trkpt>
   <trkpt lat="52.12422" lon="4.470020000000001">
    <ele>-0.29</ele>
   </trkpt>
   <trkpt lat="52.12413" lon="4.47008">
    <ele>-0.29</ele>
   </trkpt>
   <trkpt lat="52.12350000000001" lon="4.470680000000001">
    <ele>-0.11</ele>
   </trkpt>
   <trkpt lat="52.123450000000005" lon="4.47079">
    <ele>0.01</ele>
   </trkpt>
   <trkpt lat="52.12341000000001" lon="4.47118">
    <ele>0.01</ele>
   </trkpt>
   <trkpt lat="52.12335" lon="4.471290000000001">
    <ele>-0.04</ele>
   </trkpt>
   <trkpt lat="52.123180000000005" lon="4.47137">
    <ele>-0.31</ele>
   </trkpt>
   <trkpt lat="52.12297" lon="4.471430000000001">
    <ele>-0.46</ele>
   </trkpt>
   <trkpt lat="52.122960000000006" lon="4.471430000000001">
    <ele>-0.46</ele>
   </trkpt>
   <trkpt lat="52.122150000000005" lon="4.47142">
    <ele>-0.55</ele>
   </trkpt>
   <trkpt lat="52.121610000000004" lon="4.471220000000001">
    <ele>-0.76</ele>
   </trkpt>
   <trkpt lat="52.12153000000001" lon="4.47121">
    <ele>-0.88</ele>
   </trkpt>
   <trkpt lat="52.12145" lon="4.471220000000001">
    <ele>-0.88</ele>
   </trkpt>
   <trkpt lat="52.12104000000001" lon="4.47135">
    <ele>-1.2300000000000002</ele>
   </trkpt>
   <trkpt lat="52.12088000000001" lon="4.47137">
    <ele>-1.2300000000000002</ele>
   </trkpt>
   <trkpt lat="52.120760000000004" lon="4.471360000000001">
    <ele>-1.07</ele>
   </trkpt>
   <trkpt lat="52.12066" lon="4.471310000000001">
    <ele>-1.07</ele>
   </trkpt>
   <trkpt lat="52.11992500219376" lon="4.4705899881282445">
    <ele>-0.79</ele>
   </trkpt>
   <trkpt lat="52.11919" lon="4.46987">
    <ele>-0.62</ele>
   </trkpt>
   <trkpt lat="52.119040000000005" lon="4.46969">
    <ele>-0.46</ele>
   </trkpt>
   <trkpt lat="52.118745003067" lon="4.4688399944070865">
    <ele>-0.11</ele>
   </trkpt>
   <trkpt lat="52.11845" lon="4.46799">
    <ele>-0.36000000000000004</ele>
   </trkpt>
   <trkpt lat="52.118210000000005" lon="4.46736">
    <ele>-0.62</ele>
   </trkpt>
   <trkpt lat="52.11809" lon="4.46718">
    <ele>-0.62</ele>
   </trkpt>
   <trkpt lat="52.118" lon="4.467110000000001">
    <ele>-0.62</ele>
   </trkpt>
   <trkpt lat="52.11787" lon="4.46706">
    <ele>-0.84</ele>
   </trkpt>
   <trkpt lat="52.11768000000001" lon="4.46703">
    <ele>-0.88</ele>
   </trkpt>
   <trkpt lat="52.11750000000001" lon="4.467040000000001">
    <ele>-0.92</ele>
   </trkpt>
   <trkpt lat="52.11721000000001" lon="4.467160000000001">
    <ele>-0.84</ele>
   </trkpt>
   <trkpt lat="52.11713" lon="4.467160000000001">
    <ele>-0.84</ele>
   </trkpt>
   <trkpt lat="52.11706" lon="4.46712">
    <ele>-0.75</ele>
   </trkpt>
   <trkpt lat="52.11697" lon="4.467020000000001">
    <ele>-0.75</ele>
   </trkpt>
   <trkpt lat="52.116820000000004" lon="4.4667900000000005">
    <ele>-0.54</ele>
   </trkpt>
   <trkpt lat="52.116800000000005" lon="4.46673">
    <ele>-0.42</ele>
   </trkpt>
   <trkpt lat="52.11679" lon="4.46664">
    <ele>-0.42</ele>
   </trkpt>
   <trkpt lat="52.11686" lon="4.46628">
    <ele>-0.44</ele>
   </trkpt>
   <trkpt lat="52.11685000000001" lon="4.46623">
    <ele>-0.62</ele>
   </trkpt>
   <trkpt lat="52.116800000000005" lon="4.46612">
    <ele>-0.62</ele>
   </trkpt>
   <trkpt lat="52.116350000000004" lon="4.46572">
    <ele>-0.67</ele>
   </trkpt>
   <trkpt lat="52.11607000000001" lon="4.46539">
    <ele>-0.36000000000000004</ele>
   </trkpt>
   <trkpt lat="52.11596" lon="4.46522">
    <ele>-0.23</ele>
   </trkpt>
   <trkpt lat="52.11574" lon="4.46478">
    <ele>-0.27</ele>
   </trkpt>
   <trkpt lat="52.115680000000005" lon="4.464700000000001">
    <ele>-0.27</ele>
   </trkpt>
   <trkpt lat="52.11529" lon="4.464320000000001">
    <ele>-0.62</ele>
   </trkpt>
   <trkpt lat="52.11489" lon="4.463990000000001">
    <ele>-0.54</ele>
   </trkpt>
   <trkpt lat="52.114375001780815" lon="4.463364992936078">
    <ele>-0.67</ele>
   </trkpt>
   <trkpt lat="52.11386" lon="4.46274">
    <ele>-0.9700000000000001</ele>
   </trkpt>
   <trkpt lat="52.113800000000005" lon="4.46272">
    <ele>-0.9700000000000001</ele>
   </trkpt>
   <trkpt lat="52.11356000000001" lon="4.4627300000000005">
    <ele>-0.81</ele>
   </trkpt>
   <trkpt lat="52.11345000000001" lon="4.46272">
    <ele>-0.79</ele>
   </trkpt>
   <trkpt lat="52.113260000000004" lon="4.46262">
    <ele>-0.62</ele>
   </trkpt>
   <trkpt lat="52.11318000000001" lon="4.46253">
    <ele>-0.62</ele>
   </trkpt>
   <trkpt lat="52.11291000000001" lon="4.46194">
    <ele>-0.1</ele>
   </trkpt>
   <trkpt lat="52.11281" lon="4.4618">
    <ele>0.09000000000000001</ele>
   </trkpt>
   <trkpt lat="52.11280000000001" lon="4.46166">
    <ele>0.16</ele>
   </trkpt>
   <trkpt lat="52.11301" lon="4.461270000000001">
    <ele>0.030000000000000002</ele>
   </trkpt>
   <trkpt lat="52.113020000000006" lon="4.46114">
    <ele>0.030000000000000002</ele>
   </trkpt>
   <trkpt lat="52.11294" lon="4.4609000000000005">
    <ele>-0.21</ele>
   </trkpt>
   <trkpt lat="52.11269000000001" lon="4.460430000000001">
    <ele>-0.6000000000000001</ele>
   </trkpt>
   <trkpt lat="52.11231" lon="4.46107">
    <ele>0.4</ele>
   </trkpt>
   <trkpt lat="52.11191500139288" lon="4.460499994977021">
    <ele>0.34</ele>
   </trkpt>
   <trkpt lat="52.111520000000006" lon="4.45993">
    <ele>0.21</ele>
   </trkpt>
   <trkpt lat="52.11109500584016" lon="4.458759988985706">
    <ele>-0.1</ele>
   </trkpt>
   <trkpt lat="52.110670000000006" lon="4.457590000000001">
    <ele>-0.36000000000000004</ele>
   </trkpt>
   <trkpt lat="52.11063000000001" lon="4.45753">
    <ele>-0.4</ele>
   </trkpt>
   <trkpt lat="52.110580000000006" lon="4.45749">
    <ele>-0.4</ele>
   </trkpt>
   <trkpt lat="52.10990000021155" lon="4.457244996248288">
    <ele>-0.54</ele>
   </trkpt>
   <trkpt lat="52.10922000000001" lon="4.457000000000001">
    <ele>-1.09</ele>
   </trkpt>
   <trkpt lat="52.10906000000001" lon="4.45688">
    <ele>-1.09</ele>
   </trkpt>
   <trkpt lat="52.10895000000001" lon="4.456770000000001">
    <ele>-0.9700000000000001</ele>
   </trkpt>
   <trkpt lat="52.108295002975915" lon="4.455939987886511">
    <ele>-1.16</ele>
   </trkpt>
   <trkpt lat="52.10764" lon="4.45511">
    <ele>-0.84</ele>
   </trkpt>
   <trkpt lat="52.107530000000004" lon="4.45488">
    <ele>-0.67</ele>
   </trkpt>
   <trkpt lat="52.107310000000005" lon="4.4542600000000006">
    <ele>-0.38</ele>
   </trkpt>
   <trkpt lat="52.107220000000005" lon="4.454090000000001">
    <ele>-0.53</ele>
   </trkpt>
   <trkpt lat="52.107150000000004" lon="4.45403">
    <ele>-0.58</ele>
   </trkpt>
   <trkpt lat="52.106820000000006" lon="4.45392">
    <ele>-0.7200000000000001</ele>
   </trkpt>
   <trkpt lat="52.106750000000005" lon="4.45385">
    <ele>-0.7200000000000001</ele>
   </trkpt>
   <trkpt lat="52.10645" lon="4.45331">
    <ele>-0.71</ele>
   </trkpt>
   <trkpt lat="52.106050002884594" lon="4.452469992255458">
    <ele>-0.75</ele>
   </trkpt>
   <trkpt lat="52.105650000000004" lon="4.451630000000001">
    <ele>-0.75</ele>
   </trkpt>
   <trkpt lat="52.105380007302756" lon="4.450699988690487">
    <ele>-0.71</ele>
   </trkpt>
   <trkpt lat="52.105110007288694" lon="4.449769988642266">
    <ele>-0.88</ele>
   </trkpt>
   <trkpt lat="52.10484" lon="4.448840000000001">
    <ele>-0.63</ele>
   </trkpt>
   <trkpt lat="52.104580000000006" lon="4.447850000000001">
    <ele>-0.58</ele>
   </trkpt>
   <trkpt lat="52.10452" lon="4.44775">
    <ele>-0.58</ele>
   </trkpt>
   <trkpt lat="52.10446" lon="4.447710000000001">
    <ele>-0.71</ele>
   </trkpt>
   <trkpt lat="52.10393999995178" lon="4.447494997392336">
    <ele>-0.8</ele>
   </trkpt>
   <trkpt lat="52.10342000000001" lon="4.44728">
    <ele>-0.89</ele>
   </trkpt>
   <trkpt lat="52.10329" lon="4.44709">
    <ele>-0.89</ele>
   </trkpt>
   <trkpt lat="52.10305" lon="4.446470000000001">
    <ele>-1.04</ele>
   </trkpt>
   <trkpt lat="52.102850000000004" lon="4.44601">
    <ele>-1.06</ele>
   </trkpt>
   <trkpt lat="52.10244" lon="4.44482">
    <ele>-1.07</ele>
   </trkpt>
   <trkpt lat="52.102070000000005" lon="4.44411">
    <ele>-0.71</ele>
   </trkpt>
   <trkpt lat="52.101676676062866" lon="4.443056648114413">
    <ele>-0.76</ele>
   </trkpt>
   <trkpt lat="52.10128334273925" lon="4.442003314807386">
    <ele>-1.17</ele>
   </trkpt>
   <trkpt lat="52.10089000000001" lon="4.44095">
    <ele>-2.72</ele>
   </trkpt>
   <trkpt lat="52.10078000000001" lon="4.4407000000000005">
    <ele>-3.4800000000000004</ele>
   </trkpt>
   <trkpt lat="52.10063" lon="4.4404900000000005">
    <ele>-3.74</ele>
   </trkpt>
   <trkpt lat="52.100460000000005" lon="4.440320000000001">
    <ele>-4.13</ele>
   </trkpt>
   <trkpt lat="52.10040000000001" lon="4.44029">
    <ele>-4.13</ele>
   </trkpt>
   <trkpt lat="52.099940000000004" lon="4.44026">
    <ele>-4.32</ele>
   </trkpt>
   <trkpt lat="52.099250000000005" lon="4.4402800000000004">
    <ele>-4.15</ele>
   </trkpt>
   <trkpt lat="52.09919000000001" lon="4.44026">
    <ele>-4.13</ele>
   </trkpt>
   <trkpt lat="52.09913" lon="4.44021">
    <ele>-4.13</ele>
   </trkpt>
   <trkpt lat="52.099120000000006" lon="4.44019">
    <ele>-4.12</ele>
   </trkpt>
   <trkpt lat="52.09863201657399" lon="4.439199956656886">
    <ele>-4.260000000000001</ele>
   </trkpt>
   <trkpt lat="52.098144024855685" lon="4.438209934975714">
    <ele>-4.13</ele>
   </trkpt>
   <trkpt lat="52.097656024845385" lon="4.437219934956002">
    <ele>-4.090000000000001</ele>
   </trkpt>
   <trkpt lat="52.09716801654347" lon="4.436229956597258">
    <ele>-4.109999999999999</ele>
   </trkpt>
   <trkpt lat="52.096680000000006" lon="4.43524">
    <ele>-4.0200000000000005</ele>
   </trkpt>
   <trkpt lat="52.09666000000001" lon="4.4351">
    <ele>-4.04</ele>
   </trkpt>
   <trkpt lat="52.096740000000004" lon="4.43402">
    <ele>-4.0</ele>
   </trkpt>
   <trkpt lat="52.096720000000005" lon="4.433750000000001">
    <ele>-4.0</ele>
   </trkpt>
   <trkpt lat="52.09658" lon="4.43334">
    <ele>-4.1000000000000005</ele>
   </trkpt>
   <trkpt lat="52.096165012081556" lon="4.4323649728304515">
    <ele>-4.0600000000000005</ele>
   </trkpt>
   <trkpt lat="52.095750016120256" lon="4.431389963801556">
    <ele>-3.98</ele>
   </trkpt>
   <trkpt lat="52.09533501211636" lon="4.430414972913061">
    <ele>-4.1000000000000005</ele>
   </trkpt>
   <trkpt lat="52.09492" lon="4.4294400000000005">
    <ele>-4.0</ele>
   </trkpt>
   <trkpt lat="52.0949" lon="4.429130000000001">
    <ele>-3.94</ele>
   </trkpt>
   <trkpt lat="52.09499000280113" lon="4.428315001722709">
    <ele>-3.96</ele>
   </trkpt>
   <trkpt lat="52.09508" lon="4.4275">
    <ele>-4.17</ele>
   </trkpt>
   <trkpt lat="52.09508" lon="4.427350000000001">
    <ele>-4.17</ele>
   </trkpt>
   <trkpt lat="52.09503" lon="4.427180000000001">
    <ele>-3.98</ele>
   </trkpt>
   <trkpt lat="52.09471500157606" lon="4.426574995781377">
    <ele>-3.96</ele>
   </trkpt>
   <trkpt lat="52.09440000000001" lon="4.42597">
    <ele>-3.8400000000000003</ele>
   </trkpt>
   <trkpt lat="52.09414" lon="4.42567">
    <ele>-3.86</ele>
   </trkpt>
   <trkpt lat="52.09371" lon="4.425260000000001">
    <ele>-3.8800000000000003</ele>
   </trkpt>
   <trkpt lat="52.09346000000001" lon="4.42485">
    <ele>-4.3</ele>
   </trkpt>
   <trkpt lat="52.09294430924569" lon="4.42388707607787">
    <ele>-4.430000000000001</ele>
   </trkpt>
   <trkpt lat="52.092428610646785" lon="4.422924174415981">
    <ele>-4.6000000000000005</ele>
   </trkpt>
   <trkpt lat="52.09191290420357" lon="4.4219612950137455">
    <ele>-4.0200000000000005</ele>
   </trkpt>
   <trkpt lat="52.0913971899164" lon="4.420998437870572">
    <ele>-3.85</ele>
   </trkpt>
   <trkpt lat="52.09088146778559" lon="4.420035602985872">
    <ele>-3.7900000000000005</ele>
   </trkpt>
   <trkpt lat="52.09036573781149" lon="4.419072790359055">
    <ele>-4.4</ele>
   </trkpt>
   <trkpt lat="52.089850000000006" lon="4.41811">
    <ele>-3.67</ele>
   </trkpt>
   <trkpt lat="52.08936500418911" lon="4.417104988902794">
    <ele>-4.1000000000000005</ele>
   </trkpt>
   <trkpt lat="52.08888" lon="4.4161">
    <ele>-3.7800000000000002</ele>
   </trkpt>
   <trkpt lat="52.088860000000004" lon="4.4160200000000005">
    <ele>-3.7800000000000002</ele>
   </trkpt>
   <trkpt lat="52.088860000000004" lon="4.41586">
    <ele>-3.85</ele>
   </trkpt>
   <trkpt lat="52.088930000000005" lon="4.41506">
    <ele>-3.74</ele>
   </trkpt>
   <trkpt lat="52.088930000000005" lon="4.414750000000001">
    <ele>-3.52</ele>
   </trkpt>
   <trkpt lat="52.088910000000006" lon="4.41467">
    <ele>-3.52</ele>
   </trkpt>
   <trkpt lat="52.088645001514244" lon="4.4140749965035795">
    <ele>-3.72</ele>
   </trkpt>
   <trkpt lat="52.08838" lon="4.413480000000001">
    <ele>-3.67</ele>
   </trkpt>
   <trkpt lat="52.08782001480761" lon="4.4123999593478125">
    <ele>-3.94</ele>
   </trkpt>
   <trkpt lat="52.087260019745926" lon="4.411319945802855">
    <ele>-4.3</ele>
   </trkpt>
   <trkpt lat="52.08670001481539" lon="4.41023995936438">
    <ele>-4.109999999999999</ele>
   </trkpt>
   <trkpt lat="52.08614000000001" lon="4.40916">
    <ele>-4.109999999999999</ele>
   </trkpt>
   <trkpt lat="52.08667000177224" lon="4.408510007738485">
    <ele>-4.51</ele>
   </trkpt>
   <trkpt lat="52.0872" lon="4.40786">
    <ele>-3.18</ele>
   </trkpt>
   <trkpt lat="52.087320000000005" lon="4.40765">
    <ele>-2.0900000000000003</ele>
   </trkpt>
   <trkpt lat="52.087430000000005" lon="4.407360000000001">
    <ele>-0.71</ele>
   </trkpt>
   <trkpt lat="52.08702" lon="4.40702">
    <ele>-0.58</ele>
   </trkpt>
   <trkpt lat="52.086690000000004" lon="4.406680000000001">
    <ele>-0.53</ele>
   </trkpt>
   <trkpt lat="52.08633000137672" lon="4.4060949951652475">
    <ele>-0.5</ele>
   </trkpt>
   <trkpt lat="52.08597" lon="4.4055100000000005">
    <ele>-0.44</ele>
   </trkpt>
   <trkpt lat="52.08558000000001" lon="4.40491">
    <ele>-0.4900000000000001</ele>
   </trkpt>
   <trkpt lat="52.08534" lon="4.40463">
    <ele>-0.75</ele>
   </trkpt>
   <trkpt lat="52.085240000000006" lon="4.404540000000001">
    <ele>-0.75</ele>
   </trkpt>
   <trkpt lat="52.08484000000001" lon="4.4042900000000005">
    <ele>-0.77</ele>
   </trkpt>
   <trkpt lat="52.084720000000004" lon="4.40428">
    <ele>-0.89</ele>
   </trkpt>
   <trkpt lat="52.08464000000001" lon="4.4041500000000005">
    <ele>-0.8</ele>
   </trkpt>
   <trkpt lat="52.08391000314568" lon="4.403539980042294">
    <ele>-0.62</ele>
   </trkpt>
   <trkpt lat="52.083180003142836" lon="4.402929980040328">
    <ele>-0.38</ele>
   </trkpt>
   <trkpt lat="52.08245" lon="4.4023200000000005">
    <ele>-0.38</ele>
   </trkpt>
   <trkpt lat="52.08202000000001" lon="4.40202">
    <ele>0.27</ele>
   </trkpt>
   <trkpt lat="52.081950000000006" lon="4.4019900000000005">
    <ele>0.27</ele>
   </trkpt>
   <trkpt lat="52.08176" lon="4.401870000000001">
    <ele>0.17</ele>
   </trkpt>
   <trkpt lat="52.08166000000001" lon="4.40177">
    <ele>0.17</ele>
   </trkpt>
   <trkpt lat="52.08124000147022" lon="4.40118499452634">
    <ele>-0.21</ele>
   </trkpt>
   <trkpt lat="52.08082" lon="4.400600000000001">
    <ele>-0.16</ele>
   </trkpt>
   <trkpt lat="52.08049000360383" lon="4.399689993548768">
    <ele>-0.1</ele>
   </trkpt>
   <trkpt lat="52.08016000000001" lon="4.39878">
    <ele>0.30000000000000004</ele>
   </trkpt>
   <trkpt lat="52.080110000000005" lon="4.39851">
    <ele>0.30000000000000004</ele>
   </trkpt>
   <trkpt lat="52.07985000000001" lon="4.39796">
    <ele>0.18000000000000002</ele>
   </trkpt>
   <trkpt lat="52.079800000000006" lon="4.397810000000001">
    <ele>0.38</ele>
   </trkpt>
   <trkpt lat="52.079640000000005" lon="4.39651">
    <ele>-0.08</ele>
   </trkpt>
   <trkpt lat="52.0795" lon="4.395840000000001">
    <ele>0.17</ele>
   </trkpt>
   <trkpt lat="52.07931500210236" lon="4.3951299969408">
    <ele>0.27</ele>
   </trkpt>
   <trkpt lat="52.079130000000006" lon="4.39442">
    <ele>0.23</ele>
   </trkpt>
   <trkpt lat="52.07885" lon="4.39363">
    <ele>0.26</ele>
   </trkpt>
   <trkpt lat="52.078550004335334" lon="4.3926249934537775">
    <ele>0.35000000000000003</ele>
   </trkpt>
   <trkpt lat="52.078250000000004" lon="4.3916200000000005">
    <ele>0.51</ele>
   </trkpt>
   <trkpt lat="52.07788000000001" lon="4.3904700000000005">
    <ele>0.7200000000000001</ele>
   </trkpt>
   <trkpt lat="52.07764" lon="4.38984">
    <ele>0.7300000000000001</ele>
   </trkpt>
   <trkpt lat="52.07743000000001" lon="4.38923">
    <ele>1.58</ele>
   </trkpt>
   <trkpt lat="52.07744" lon="4.38923">
    <ele>1.59</ele>
   </trkpt>
   <trkpt lat="52.077760000000005" lon="4.38869">
    <ele>1.85</ele>
   </trkpt>
   <trkpt lat="52.077740000000006" lon="4.388610000000001">
    <ele>1.85</ele>
   </trkpt>
   <trkpt lat="52.07775" lon="4.38853">
    <ele>1.5700000000000003</ele>
   </trkpt>
   <trkpt lat="52.077940000000005" lon="4.388240000000001">
    <ele>1.41</ele>
   </trkpt>
   <trkpt lat="52.07804" lon="4.38823">
    <ele>1.3800000000000001</ele>
   </trkpt>
   <trkpt lat="52.07844000000001" lon="4.38754">
    <ele>1.36</ele>
   </trkpt>
   <trkpt lat="52.07895000235712" lon="4.386800008396283">
    <ele>1.35</ele>
   </trkpt>
   <trkpt lat="52.079460000000005" lon="4.3860600000000005">
    <ele>1.4800000000000002</ele>
   </trkpt>
   <trkpt lat="52.0795" lon="4.38612">
    <ele>1.3800000000000001</ele>
   </trkpt>
   <trkpt lat="52.07956" lon="4.3861300000000005">
    <ele>1.3800000000000001</ele>
   </trkpt>
   <trkpt lat="52.07963" lon="4.38607">
    <ele>1.35</ele>
   </trkpt>
   <trkpt lat="52.07965" lon="4.3859900000000005">
    <ele>1.35</ele>
   </trkpt>
   <trkpt lat="52.079600000000006" lon="4.38581">
    <ele>1.4000000000000001</ele>
   </trkpt>
   <trkpt lat="52.07979" lon="4.38555">
    <ele>1.1900000000000002</ele>
   </trkpt>
   <trkpt lat="52.07985000000001" lon="4.385660000000001">
    <ele>1.01</ele>
   </trkpt>
   <trkpt lat="52.07994000000001" lon="4.385730000000001">
    <ele>0.88</ele>
   </trkpt>
   <trkpt lat="52.08003" lon="4.3857">
    <ele>0.88</ele>
   </trkpt>
   <trkpt lat="52.08061000926354" lon="4.384845033352354">
    <ele>0.42</ele>
   </trkpt>
   <trkpt lat="52.08119001234185" lon="4.383990044484667">
    <ele>0.48000000000000004</ele>
   </trkpt>
   <trkpt lat="52.081770009234674" lon="4.383135033396138">
    <ele>0.89</ele>
   </trkpt>
   <trkpt lat="52.082350000000005" lon="4.382280000000001">
    <ele>1.2200000000000002</ele>
   </trkpt>
   <trkpt lat="52.08240000000001" lon="4.38222">
    <ele>1.3</ele>
   </trkpt>
   <trkpt lat="52.082440000000005" lon="4.38225">
    <ele>1.3</ele>
   </trkpt>
   <trkpt lat="52.082890000000006" lon="4.3829400000000005">
    <ele>1.27</ele>
   </trkpt>
   <trkpt lat="52.08294000000001" lon="4.38299">
    <ele>1.27</ele>
   </trkpt>
   <trkpt lat="52.083000000000006" lon="4.383">
    <ele>1.27</ele>
   </trkpt>
   <trkpt lat="52.08301" lon="4.38278">
    <ele>0.99</ele>
   </trkpt>
   <trkpt lat="52.083040000000004" lon="4.3826">
    <ele>0.92</ele>
   </trkpt>
   <trkpt lat="52.083090000000006" lon="4.38248">
    <ele>0.8500000000000001</ele>
   </trkpt>
   <trkpt lat="52.08372000000001" lon="4.38159">
    <ele>0.38</ele>
   </trkpt>
   <trkpt lat="52.084120000000006" lon="4.381220000000001">
    <ele>0.01</ele>
   </trkpt>
   <trkpt lat="52.084120000000006" lon="4.38119">
    <ele>0.0</ele>
   </trkpt>
   <trkpt lat="52.08418" lon="4.381150000000001">
    <ele>0.0</ele>
   </trkpt>
   <trkpt lat="52.084480000000006" lon="4.38086">
    <ele>-0.23</ele>
   </trkpt>
   <trkpt lat="52.08511000000001" lon="4.380170000000001">
    <ele>0.38</ele>
   </trkpt>
   <trkpt lat="52.08514" lon="4.3801000000000005">
    <ele>0.38</ele>
   </trkpt>
   <trkpt lat="52.08511000000001" lon="4.379930000000001">
    <ele>0.54</ele>
   </trkpt>
   <trkpt lat="52.08522000000001" lon="4.37962">
    <ele>0.52</ele>
   </trkpt>
   <trkpt lat="52.08545" lon="4.37938">
    <ele>0.37000000000000005</ele>
   </trkpt>
   <trkpt lat="52.085570000000004" lon="4.37936">
    <ele>0.26</ele>
   </trkpt>
   <trkpt lat="52.085820000000005" lon="4.3794200000000005">
    <ele>0.17</ele>
   </trkpt>
   <trkpt lat="52.08594" lon="4.379370000000001">
    <ele>0.21</ele>
   </trkpt>
   <trkpt lat="52.086643335613736" lon="4.378856682810869">
    <ele>0.060000000000000005</ele>
   </trkpt>
   <trkpt lat="52.08734666899797" lon="4.378343349440703">
    <ele>0.24000000000000002</ele>
   </trkpt>
   <trkpt lat="52.08805" lon="4.37783">
    <ele>0.0</ele>
   </trkpt>
   <trkpt lat="52.088370000000005" lon="4.377730000000001">
    <ele>0.2</ele>
   </trkpt>
   <trkpt lat="52.08843" lon="4.377730000000001">
    <ele>0.41000000000000003</ele>
   </trkpt>
   <trkpt lat="52.0885" lon="4.377820000000001">
    <ele>0.41000000000000003</ele>
   </trkpt>
   <trkpt lat="52.088710000000006" lon="4.37831">
    <ele>0.64</ele>
   </trkpt>
   <trkpt lat="52.08876000000001" lon="4.37826">
    <ele>0.64</ele>
   </trkpt>
   <trkpt lat="52.08887000000001" lon="4.37821">
    <ele>0.8500000000000001</ele>
   </trkpt>
   <trkpt lat="52.089040000000004" lon="4.37805">
    <ele>1.07</ele>
   </trkpt>
   <trkpt lat="52.089130000000004" lon="4.377960000000001">
    <ele>0.78</ele>
   </trkpt>
   <trkpt lat="52.0893" lon="4.37776">
    <ele>0.76</ele>
   </trkpt>
   <trkpt lat="52.08963000000001" lon="4.3774500000000005">
    <ele>0.30000000000000004</ele>
   </trkpt>
   <trkpt lat="52.09001000000001" lon="4.377190000000001">
    <ele>0.13</ele>
   </trkpt>
   <trkpt lat="52.090596667780154" lon="4.3768333426899915">
    <ele>0.16</ele>
   </trkpt>
   <trkpt lat="52.091183334484" lon="4.37647667600086">
    <ele>0.15000000000000002</ele>
   </trkpt>
   <trkpt lat="52.091770000000004" lon="4.37612">
    <ele>0.18000000000000002</ele>
   </trkpt>
   <trkpt lat="52.091840000000005" lon="4.3761">
    <ele>0.16</ele>
   </trkpt>
   <trkpt lat="52.09187000000001" lon="4.376110000000001">
    <ele>0.16</ele>
   </trkpt>
   <trkpt lat="52.09216000000001" lon="4.375990000000001">
    <ele>0.13</ele>
   </trkpt>
   <trkpt lat="52.092270000000006" lon="4.375990000000001">
    <ele>0.2</ele>
   </trkpt>
   <trkpt lat="52.09245000000001" lon="4.37607">
    <ele>0.33000000000000007</ele>
   </trkpt>
   <trkpt lat="52.092620000000004" lon="4.375380000000001">
    <ele>0.23</ele>
   </trkpt>
   <trkpt lat="52.092530000000004" lon="4.37516">
    <ele>1.18</ele>
   </trkpt>
   <trkpt lat="52.092490000000005" lon="4.37485">
    <ele>1.37</ele>
   </trkpt>
   <trkpt lat="52.09245000000001" lon="4.37467">
    <ele>1.3800000000000001</ele>
   </trkpt>
   <trkpt lat="52.09197" lon="4.3736500000000005">
    <ele>0.34</ele>
   </trkpt>
   <trkpt lat="52.092060000000004" lon="4.373600000000001">
    <ele>0.0</ele>
   </trkpt>
   <trkpt lat="52.092110000000005" lon="4.373620000000001">
    <ele>0.0</ele>
   </trkpt>
   <trkpt lat="52.09235" lon="4.3741200000000005">
    <ele>-1.67</ele>
   </trkpt>
   <trkpt lat="52.09243000000001" lon="4.37425">
    <ele>-1.67</ele>
   </trkpt>
   <trkpt lat="52.092510000000004" lon="4.374300000000001">
    <ele>-1.93</ele>
   </trkpt>
   <trkpt lat="52.092560000000006" lon="4.37431">
    <ele>-2.1300000000000003</ele>
   </trkpt>
   <trkpt lat="52.09270000000001" lon="4.3742600000000005">
    <ele>-2.23</ele>
   </trkpt>
   <trkpt lat="52.09339666934106" lon="4.373696684268523">
    <ele>-0.36000000000000004</ele>
   </trkpt>
   <trkpt lat="52.094093335997286" lon="4.373133350943967">
    <ele>1.36</ele>
   </trkpt>
   <trkpt lat="52.09479" lon="4.3725700000000005">
    <ele>1.4500000000000002</ele>
   </trkpt>
   <trkpt lat="52.09505000000001" lon="4.372330000000001">
    <ele>1.4400000000000002</ele>
   </trkpt>
   <trkpt lat="52.09525000000001" lon="4.37211">
    <ele>1.4400000000000002</ele>
   </trkpt>
   <trkpt lat="52.09563000000001" lon="4.37161">
    <ele>2.1300000000000003</ele>
   </trkpt>
   <trkpt lat="52.09579" lon="4.371370000000001">
    <ele>2.86</ele>
   </trkpt>
   <trkpt lat="52.09609000141138" lon="4.370775004172348">
    <ele>3.75</ele>
   </trkpt>
   <trkpt lat="52.09639000000001" lon="4.37018">
    <ele>3.7900000000000005</ele>
   </trkpt>
   <trkpt lat="52.09653" lon="4.369940000000001">
    <ele>3.85</ele>
   </trkpt>
   <trkpt lat="52.09671" lon="4.36971">
    <ele>3.85</ele>
   </trkpt>
   <trkpt lat="52.09739001065324" lon="4.36891604843144">
    <ele>3.8400000000000003</ele>
   </trkpt>
   <trkpt lat="52.09807001597335" lon="4.368122072656243">
    <ele>3.6</ele>
   </trkpt>
   <trkpt lat="52.09875001596003" lon="4.3673280726732715">
    <ele>3.8000000000000003</ele>
   </trkpt>
   <trkpt lat="52.099430010613" lon="4.366534048481383">
    <ele>3.7900000000000005</ele>
   </trkpt>
   <trkpt lat="52.10011" lon="4.365740000000001">
    <ele>3.8400000000000003</ele>
   </trkpt>
   <trkpt lat="52.100480000000005" lon="4.365200000000001">
    <ele>3.49</ele>
   </trkpt>
   <trkpt lat="52.100620000000006" lon="4.36493">
    <ele>3.0100000000000002</ele>
   </trkpt>
   <trkpt lat="52.10095500288797" lon="4.364100006298587">
    <ele>1.55</ele>
   </trkpt>
   <trkpt lat="52.101290000000006" lon="4.36327">
    <ele>1.6500000000000001</ele>
   </trkpt>
   <trkpt lat="52.101400000000005" lon="4.36347">
    <ele>1.79</ele>
   </trkpt>
   <trkpt lat="52.10141" lon="4.363650000000001">
    <ele>1.98</ele>
   </trkpt>
   <trkpt lat="52.101440000000004" lon="4.3637500000000005">
    <ele>2.0500000000000003</ele>
   </trkpt>
   <trkpt lat="52.101510000000005" lon="4.363860000000001">
    <ele>2.0500000000000003</ele>
   </trkpt>
   <trkpt lat="52.101710000000004" lon="4.364120000000001">
    <ele>2.1100000000000003</ele>
   </trkpt>
   <trkpt lat="52.10192000000001" lon="4.36411">
    <ele>2.2</ele>
   </trkpt>
   <trkpt lat="52.102090000000004" lon="4.364190000000001">
    <ele>2.17</ele>
   </trkpt>
   <trkpt lat="52.1022" lon="4.3642">
    <ele>2.17</ele>
   </trkpt>
   <trkpt lat="52.10230000000001" lon="4.36418">
    <ele>2.17</ele>
   </trkpt>
   <trkpt lat="52.102430000000005" lon="4.364120000000001">
    <ele>2.1300000000000003</ele>
   </trkpt>
   <trkpt lat="52.10255" lon="4.36402">
    <ele>2.1300000000000003</ele>
   </trkpt>
   <trkpt lat="52.10271" lon="4.36373">
    <ele>1.79</ele>
   </trkpt>
   <trkpt lat="52.10295000000001" lon="4.3627400000000005">
    <ele>1.25</ele>
   </trkpt>
   <trkpt lat="52.10302" lon="4.36254">
    <ele>1.2000000000000002</ele>
   </trkpt>
   <trkpt lat="52.103120000000004" lon="4.36235">
    <ele>1.2000000000000002</ele>
   </trkpt>
   <trkpt lat="52.10324000000001" lon="4.362170000000001">
    <ele>1.2100000000000002</ele>
   </trkpt>
   <trkpt lat="52.103570000000005" lon="4.361750000000001">
    <ele>1.52</ele>
   </trkpt>
   <trkpt lat="52.10401" lon="4.361190000000001">
    <ele>1.59</ele>
   </trkpt>
   <trkpt lat="52.1041" lon="4.361140000000001">
    <ele>1.59</ele>
   </trkpt>
   <trkpt lat="52.10417" lon="4.36106">
    <ele>1.6500000000000001</ele>
   </trkpt>
   <trkpt lat="52.104240000000004" lon="4.36097">
    <ele>1.6500000000000001</ele>
   </trkpt>
   <trkpt lat="52.10428" lon="4.36085">
    <ele>1.6500000000000001</ele>
   </trkpt>
   <trkpt lat="52.10443000000001" lon="4.360650000000001">
    <ele>1.86</ele>
   </trkpt>
   <trkpt lat="52.10465000000001" lon="4.3604">
    <ele>1.86</ele>
   </trkpt>
   <trkpt lat="52.10490000000001" lon="4.36003">
    <ele>2.0900000000000003</ele>
   </trkpt>
   <trkpt lat="52.105470000000004" lon="4.359170000000001">
    <ele>2.7</ele>
   </trkpt>
   <trkpt lat="52.105500000000006" lon="4.35914">
    <ele>2.7</ele>
   </trkpt>
   <trkpt lat="52.10553" lon="4.3591500000000005">
    <ele>2.7</ele>
   </trkpt>
   <trkpt lat="52.10562" lon="4.35913">
    <ele>2.7600000000000002</ele>
   </trkpt>
   <trkpt lat="52.10569" lon="4.35904">
    <ele>2.7600000000000002</ele>
   </trkpt>
   <trkpt lat="52.10604000000001" lon="4.358490000000001">
    <ele>2.7800000000000002</ele>
   </trkpt>
   <trkpt lat="52.106030000000004" lon="4.35848">
    <ele>2.7700000000000005</ele>
   </trkpt>
   <trkpt lat="52.105880000000006" lon="4.358370000000001">
    <ele>2.73</ele>
   </trkpt>
   <trkpt lat="52.10537000000001" lon="4.3575">
    <ele>2.71</ele>
   </trkpt>
   <trkpt lat="52.10512000000001" lon="4.35728">
    <ele>2.36</ele>
   </trkpt>
   <trkpt lat="52.10465333776054" lon="4.356556651529899">
    <ele>2.33</ele>
   </trkpt>
   <trkpt lat="52.10418667109482" lon="4.355833318198236">
    <ele>2.5</ele>
   </trkpt>
   <trkpt lat="52.10372" lon="4.355110000000001">
    <ele>2.84</ele>
   </trkpt>
   <trkpt lat="52.103080000000006" lon="4.3541300000000005">
    <ele>2.8100000000000005</ele>
   </trkpt>
   <trkpt lat="52.1027800015952" lon="4.353534996191444">
    <ele>2.7800000000000002</ele>
   </trkpt>
   <trkpt lat="52.10248000000001" lon="4.35294">
    <ele>2.7700000000000005</ele>
   </trkpt>
   <trkpt lat="52.101910000000004" lon="4.35189">
    <ele>2.83</ele>
   </trkpt>
   <trkpt lat="52.10142500369428" lon="4.3509599899557125">
    <ele>2.93</ele>
   </trkpt>
   <trkpt lat="52.10094" lon="4.35003">
    <ele>2.7600000000000002</ele>
   </trkpt>
   <trkpt lat="52.10069000000001" lon="4.3495800000000004">
    <ele>2.69</ele>
   </trkpt>
   <trkpt lat="52.100220008490474" lon="4.348579978990042">
    <ele>2.5700000000000003</ele>
   </trkpt>
   <trkpt lat="52.09975000852074" lon="4.347579979054836">
    <ele>2.47</ele>
   </trkpt>
   <trkpt lat="52.09928000000001" lon="4.34658">
    <ele>3.2800000000000002</ele>
   </trkpt>
   <trkpt lat="52.099470000000004" lon="4.34637">
    <ele>3.04</ele>
   </trkpt>
   <trkpt lat="52.099120000000006" lon="4.3456600000000005">
    <ele>2.4600000000000004</ele>
   </trkpt>
   <trkpt lat="52.09873500313871" lon="4.344799992599824">
    <ele>2.95</ele>
   </trkpt>
   <trkpt lat="52.09835" lon="4.34394">
    <ele>3.2700000000000005</ele>
   </trkpt>
   <trkpt lat="52.09834000000001" lon="4.34379">
    <ele>3.24</ele>
   </trkpt>
   <trkpt lat="52.09834000000001" lon="4.34382">
    <ele>3.24</ele>
   </trkpt>
   <trkpt lat="52.098380000000006" lon="4.343730000000001">
    <ele>3.24</ele>
   </trkpt>
   <trkpt lat="52.098983344602956" lon="4.34300004937202">
    <ele>2.7600000000000002</ele>
   </trkpt>
   <trkpt lat="52.09958668469798" lon="4.342270078996734">
    <ele>2.3800000000000003</ele>
   </trkpt>
   <trkpt lat="52.10019002028493" lon="4.341540088873324">
    <ele>2.4899999999999998</ele>
   </trkpt>
   <trkpt lat="52.100793351363535" lon="4.3408100790009785">
    <ele>2.54</ele>
   </trkpt>
   <trkpt lat="52.101396677933586" lon="4.340080049378877">
    <ele>2.75</ele>
   </trkpt>
   <trkpt lat="52.102000000000004" lon="4.3393500000000005">
    <ele>3.0</ele>
   </trkpt>
   <trkpt lat="52.1024" lon="4.33896">
    <ele>2.91</ele>
   </trkpt>
   <trkpt lat="52.10301000140561" lon="4.338550011226668">
    <ele>2.33</ele>
   </trkpt>
   <trkpt lat="52.10362000138918" lon="4.338140011237907">
    <ele>2.3000000000000003</ele>
   </trkpt>
   <trkpt lat="52.10423" lon="4.3377300000000005">
    <ele>2.25</ele>
   </trkpt>
   <trkpt lat="52.104580000000006" lon="4.337560000000001">
    <ele>2.4000000000000004</ele>
   </trkpt>
   <trkpt lat="52.104670000000006" lon="4.337490000000001">
    <ele>2.4000000000000004</ele>
   </trkpt>
   <trkpt lat="52.105000000000004" lon="4.337350000000001">
    <ele>2.4000000000000004</ele>
   </trkpt>
   <trkpt lat="52.105380000000004" lon="4.337140000000001">
    <ele>2.7700000000000005</ele>
   </trkpt>
   <trkpt lat="52.105500000000006" lon="4.33701">
    <ele>2.7700000000000005</ele>
   </trkpt>
   <trkpt lat="52.10555" lon="4.336880000000001">
    <ele>2.74</ele>
   </trkpt>
   <trkpt lat="52.10574500622024" lon="4.335670005120963">
    <ele>2.7800000000000002</ele>
   </trkpt>
   <trkpt lat="52.105940000000004" lon="4.33446">
    <ele>3.25</ele>
   </trkpt>
   <trkpt lat="52.105970000000006" lon="4.33405">
    <ele>3.3100000000000005</ele>
   </trkpt>
   <trkpt lat="52.106010000000005" lon="4.3339300000000005">
    <ele>3.41</ele>
   </trkpt>
   <trkpt lat="52.106100000000005" lon="4.333830000000001">
    <ele>3.45</ele>
   </trkpt>
   <trkpt lat="52.106280000000005" lon="4.334350000000001">
    <ele>3.4400000000000004</ele>
   </trkpt>
   <trkpt lat="52.10638" lon="4.33452">
    <ele>3.35</ele>
   </trkpt>
   <trkpt lat="52.106700000000004" lon="4.33544">
    <ele>3.3200000000000003</ele>
   </trkpt>
   <trkpt lat="52.10744000341553" lon="4.3348066876679905">
    <ele>2.86</ele>
   </trkpt>
   <trkpt lat="52.108180003438" lon="4.33417335431588">
    <ele>2.8000000000000003</ele>
   </trkpt>
   <trkpt lat="52.108920000000005" lon="4.33354">
    <ele>3.49</ele>
   </trkpt>
   <trkpt lat="52.10911" lon="4.33335">
    <ele>3.6</ele>
   </trkpt>
   <trkpt lat="52.109210000000004" lon="4.333130000000001">
    <ele>3.93</ele>
   </trkpt>
   <trkpt lat="52.10929" lon="4.3327800000000005">
    <ele>4.2700000000000005</ele>
   </trkpt>
   <trkpt lat="52.109280000000005" lon="4.33239">
    <ele>5.17</ele>
   </trkpt>
   <trkpt lat="52.109260000000006" lon="4.332210000000001">
    <ele>6.04</ele>
   </trkpt>
   <trkpt lat="52.10927" lon="4.33202">
    <ele>6.04</ele>
   </trkpt>
   <trkpt lat="52.10938" lon="4.33141">
    <ele>7.490000000000001</ele>
   </trkpt>
   <trkpt lat="52.10936" lon="4.33117">
    <ele>7.800000000000001</ele>
   </trkpt>
   <trkpt lat="52.10913000000001" lon="4.33044">
    <ele>10.13</ele>
   </trkpt>
   <trkpt lat="52.10913000000001" lon="4.3303400000000005">
    <ele>10.5</ele>
   </trkpt>
   <trkpt lat="52.109440000000006" lon="4.33014">
    <ele>10.51</ele>
   </trkpt>
   <trkpt lat="52.109550000000006" lon="4.330030000000001">
    <ele>10.4</ele>
   </trkpt>
   <trkpt lat="52.10963" lon="4.32983">
    <ele>10.21</ele>
   </trkpt>
   <trkpt lat="52.10963" lon="4.32976">
    <ele>10.180000000000001</ele>
   </trkpt>
   <trkpt lat="52.10954" lon="4.32927">
    <ele>8.72</ele>
   </trkpt>
   <trkpt lat="52.10949" lon="4.329140000000001">
    <ele>8.39</ele>
   </trkpt>
   <trkpt lat="52.10943" lon="4.32906">
    <ele>8.25</ele>
   </trkpt>
   <trkpt lat="52.109370000000006" lon="4.32894">
    <ele>8.049999999999999</ele>
   </trkpt>
   <trkpt lat="52.109300000000005" lon="4.328670000000001">
    <ele>7.78</ele>
   </trkpt>
   <trkpt lat="52.10931000000001" lon="4.32852">
    <ele>7.59</ele>
   </trkpt>
   <trkpt lat="52.109370000000006" lon="4.32824">
    <ele>7.320000000000001</ele>
   </trkpt>
   <trkpt lat="52.10934" lon="4.3278300000000005">
    <ele>6.04</ele>
   </trkpt>
   <trkpt lat="52.10929" lon="4.32758">
    <ele>5.710000000000001</ele>
   </trkpt>
   <trkpt lat="52.109210000000004" lon="4.32734">
    <ele>5.69</ele>
   </trkpt>
   <trkpt lat="52.109060002212345" lon="4.326614997508448">
    <ele>5.580000000000001</ele>
   </trkpt>
   <trkpt lat="52.10891" lon="4.32589">
    <ele>5.82</ele>
   </trkpt>
   <trkpt lat="52.108750002141285" lon="4.325179997492709">
    <ele>6.050000000000001</ele>
   </trkpt>
   <trkpt lat="52.10859000000001" lon="4.324470000000001">
    <ele>6.390000000000001</ele>
   </trkpt>
   <trkpt lat="52.10858" lon="4.32348">
    <ele>6.540000000000001</ele>
   </trkpt>
   <trkpt lat="52.108560000000004" lon="4.32324">
    <ele>6.630000000000001</ele>
   </trkpt>
   <trkpt lat="52.10853" lon="4.32314">
    <ele>6.630000000000001</ele>
   </trkpt>
   <trkpt lat="52.10857000000001" lon="4.323040000000001">
    <ele>6.620000000000001</ele>
   </trkpt>
   <trkpt lat="52.108560000000004" lon="4.32296">
    <ele>6.620000000000001</ele>
   </trkpt>
  </trkseg>
 </trk>
</gpx>
