<?xml version="1.0" encoding="UTF-8"?>
<gpx creator="StravaGPX" version="1.1" xmlns="http://www.topografix.com/GPX/1/1" xmlns:xsi="http://www.w3.org/2001/XMLSchema-instance" xsi:schemaLocation="http://www.topografix.com/GPX/1/1 http://www.topografix.com/GPX/1/1/gpx.xsd">
 <metadata>
  <name>Alfold Loxwood Plaistow and back to Dunsfold</name>
  <author>
   <name>Andrew Goudie</name>
  </author>
  <copyright author="OpenStreetMap contributors">
   <year>2020</year>
   <license>https://www.openstreetmap.org/copyright</license>
  </copyright>
 </metadata>
 <trk>
  <name>Alfold Loxwood Plaistow and back to Dunsfold</name>
  <link href=""/>
  <type>cycling</type>
  <trkseg>
   <trkpt lat="51.11883" lon="-0.5732400000000001">
    <ele>50.580000000000005</ele>
   </trkpt>
   <trkpt lat="51.118880000000004" lon="-0.57318">
    <ele>50.0</ele>
   </trkpt>
   <trkpt lat="51.119060000000005" lon="-0.57289">
    <ele>49.160000000000004</ele>
   </trkpt>
   <trkpt lat="51.11912" lon="-0.57272">
    <ele>49.260000000000005</ele>
   </trkpt>
   <trkpt lat="51.11919" lon="-0.57228">
    <ele>50.260000000000005</ele>
   </trkpt>
   <trkpt lat="51.119170000000004" lon="-0.57174">
    <ele>50.57</ele>
   </trkpt>
   <trkpt lat="51.119200000000006" lon="-0.5714">
    <ele>50.28</ele>
   </trkpt>
   <trkpt lat="51.11901" lon="-0.57133">
    <ele>48.88</ele>
   </trkpt>
   <trkpt lat="51.11892" lon="-0.57125">
    <ele>48.290000000000006</ele>
   </trkpt>
   <trkpt lat="51.11854" lon="-0.57072">
    <ele>41.370000000000005</ele>
   </trkpt>
   <trkpt lat="51.118140000000004" lon="-0.57004">
    <ele>35.26</ele>
   </trkpt>
   <trkpt lat="51.117990000000006" lon="-0.5696">
    <ele>35.29</ele>
   </trkpt>
   <trkpt lat="51.11795000000001" lon="-0.56943">
    <ele>35.51</ele>
   </trkpt>
   <trkpt lat="51.11802" lon="-0.56869">
    <ele>39.940000000000005</ele>
   </trkpt>
   <trkpt lat="51.11816" lon="-0.56808">
    <ele>44.02</ele>
   </trkpt>
   <trkpt lat="51.118460000000006" lon="-0.56711">
    <ele>51.39</ele>
   </trkpt>
   <trkpt lat="51.11881" lon="-0.5661900000000001">
    <ele>54.900000000000006</ele>
   </trkpt>
   <trkpt lat="51.118970000000004" lon="-0.5657300000000001">
    <ele>54.730000000000004</ele>
   </trkpt>
   <trkpt lat="51.11903" lon="-0.5654800000000001">
    <ele>54.730000000000004</ele>
   </trkpt>
   <trkpt lat="51.119110000000006" lon="-0.56508">
    <ele>54.42</ele>
   </trkpt>
   <trkpt lat="51.11921000240212" lon="-0.564325001849845">
    <ele>54.27</ele>
   </trkpt>
   <trkpt lat="51.119310000000006" lon="-0.56357">
    <ele>54.19</ele>
   </trkpt>
   <trkpt lat="51.119310000000006" lon="-0.5635600000000001">
    <ele>54.2</ele>
   </trkpt>
   <trkpt lat="51.12006" lon="-0.56362">
    <ele>54.44</ele>
   </trkpt>
   <trkpt lat="51.120490000000004" lon="-0.56362">
    <ele>54.86000000000001</ele>
   </trkpt>
   <trkpt lat="51.12122" lon="-0.5635100000000001">
    <ele>56.07</ele>
   </trkpt>
   <trkpt lat="51.12190500011157" lon="-0.5633700020702315">
    <ele>56.53</ele>
   </trkpt>
   <trkpt lat="51.12259" lon="-0.56323">
    <ele>56.85</ele>
   </trkpt>
   <trkpt lat="51.12283000000001" lon="-0.5632">
    <ele>56.85</ele>
   </trkpt>
   <trkpt lat="51.123050000000006" lon="-0.56303">
    <ele>56.82</ele>
   </trkpt>
   <trkpt lat="51.12314000000001" lon="-0.56291">
    <ele>56.85</ele>
   </trkpt>
   <trkpt lat="51.12335" lon="-0.5625300000000001">
    <ele>57.25</ele>
   </trkpt>
   <trkpt lat="51.12397000000001" lon="-0.56152">
    <ele>58.52</ele>
   </trkpt>
   <trkpt lat="51.124623340683684" lon="-0.5605900263443465">
    <ele>60.61</ele>
   </trkpt>
   <trkpt lat="51.12527667399173" lon="-0.5596600263808915">
    <ele>61.93000000000001</ele>
   </trkpt>
   <trkpt lat="51.125930000000004" lon="-0.5587300000000001">
    <ele>62.83000000000001</ele>
   </trkpt>
   <trkpt lat="51.12633" lon="-0.55822">
    <ele>63.230000000000004</ele>
   </trkpt>
   <trkpt lat="51.126786669937786" lon="-0.557596679050497">
    <ele>63.54</ele>
   </trkpt>
   <trkpt lat="51.12724333656219" lon="-0.5569733457750287">
    <ele>63.54</ele>
   </trkpt>
   <trkpt lat="51.127700000000004" lon="-0.55635">
    <ele>64.59</ele>
   </trkpt>
   <trkpt lat="51.128170000000004" lon="-0.55562">
    <ele>65.42</ele>
   </trkpt>
   <trkpt lat="51.12847000000001" lon="-0.55501">
    <ele>66.10000000000001</ele>
   </trkpt>
   <trkpt lat="51.12865000000001" lon="-0.55469">
    <ele>66.27000000000001</ele>
   </trkpt>
   <trkpt lat="51.12876000000001" lon="-0.55454">
    <ele>66.39</ele>
   </trkpt>
   <trkpt lat="51.128890000000006" lon="-0.55442">
    <ele>66.87</ele>
   </trkpt>
   <trkpt lat="51.12895" lon="-0.55439">
    <ele>66.87</ele>
   </trkpt>
   <trkpt lat="51.128930000000004" lon="-0.5542">
    <ele>66.77000000000001</ele>
   </trkpt>
   <trkpt lat="51.12895" lon="-0.55393">
    <ele>66.77000000000001</ele>
   </trkpt>
   <trkpt lat="51.12901" lon="-0.5536000000000001">
    <ele>66.74000000000001</ele>
   </trkpt>
   <trkpt lat="51.129220000000004" lon="-0.55279">
    <ele>67.09</ele>
   </trkpt>
   <trkpt lat="51.129440002060456" lon="-0.552095003307806">
    <ele>66.51</ele>
   </trkpt>
   <trkpt lat="51.12966" lon="-0.5514">
    <ele>65.75</ele>
   </trkpt>
   <trkpt lat="51.12982000274755" lon="-0.5505950028669161">
    <ele>65.79</ele>
   </trkpt>
   <trkpt lat="51.12998" lon="-0.54979">
    <ele>65.42</ele>
   </trkpt>
   <trkpt lat="51.13024000000001" lon="-0.54884">
    <ele>65.68</ele>
   </trkpt>
   <trkpt lat="51.130430000000004" lon="-0.54823">
    <ele>66.0</ele>
   </trkpt>
   <trkpt lat="51.13078500411815" lon="-0.5472500074693141">
    <ele>66.86</ele>
   </trkpt>
   <trkpt lat="51.13114" lon="-0.54627">
    <ele>67.23</ele>
   </trkpt>
   <trkpt lat="51.13154" lon="-0.54539">
    <ele>65.55000000000001</ele>
   </trkpt>
   <trkpt lat="51.13183500137364" lon="-0.5447950040749229">
    <ele>64.52000000000001</ele>
   </trkpt>
   <trkpt lat="51.132130000000004" lon="-0.5442">
    <ele>63.1</ele>
   </trkpt>
   <trkpt lat="51.13261000677595" lon="-0.5433066852928522">
    <ele>59.870000000000005</ele>
   </trkpt>
   <trkpt lat="51.133090006746755" lon="-0.5424133520141734">
    <ele>59.160000000000004</ele>
   </trkpt>
   <trkpt lat="51.133570000000006" lon="-0.54152">
    <ele>59.65</ele>
   </trkpt>
   <trkpt lat="51.13396000244581" lon="-0.5407600064519178">
    <ele>60.36</ele>
   </trkpt>
   <trkpt lat="51.134350000000005" lon="-0.54">
    <ele>63.77</ele>
   </trkpt>
   <trkpt lat="51.13445" lon="-0.53974">
    <ele>64.22</ele>
   </trkpt>
   <trkpt lat="51.13449000000001" lon="-0.53957">
    <ele>64.66000000000001</ele>
   </trkpt>
   <trkpt lat="51.13447000000001" lon="-0.5393600000000001">
    <ele>64.78</ele>
   </trkpt>
   <trkpt lat="51.13438000000001" lon="-0.53918">
    <ele>63.92</ele>
   </trkpt>
   <trkpt lat="51.13425" lon="-0.53903">
    <ele>63.35</ele>
   </trkpt>
   <trkpt lat="51.1336600012079" lon="-0.5385149934870468">
    <ele>58.940000000000005</ele>
   </trkpt>
   <trkpt lat="51.133070000000004" lon="-0.538">
    <ele>57.730000000000004</ele>
   </trkpt>
   <trkpt lat="51.13298" lon="-0.53788">
    <ele>57.730000000000004</ele>
   </trkpt>
   <trkpt lat="51.132940000000005" lon="-0.5376700000000001">
    <ele>57.940000000000005</ele>
   </trkpt>
   <trkpt lat="51.13304" lon="-0.53747">
    <ele>57.88000000000001</ele>
   </trkpt>
   <trkpt lat="51.133370000000006" lon="-0.53717">
    <ele>58.81000000000001</ele>
   </trkpt>
   <trkpt lat="51.13376" lon="-0.53674">
    <ele>59.21000000000001</ele>
   </trkpt>
   <trkpt lat="51.134190000000004" lon="-0.53613">
    <ele>58.03</ele>
   </trkpt>
   <trkpt lat="51.13457000283476" lon="-0.5353250064727513">
    <ele>57.28</ele>
   </trkpt>
   <trkpt lat="51.13495" lon="-0.53452">
    <ele>58.010000000000005</ele>
   </trkpt>
   <trkpt lat="51.135290000000005" lon="-0.53391">
    <ele>58.45</ele>
   </trkpt>
   <trkpt lat="51.13591" lon="-0.5332800000000001">
    <ele>59.22</ele>
   </trkpt>
   <trkpt lat="51.136230000000005" lon="-0.53298">
    <ele>59.050000000000004</ele>
   </trkpt>
   <trkpt lat="51.136480000000006" lon="-0.53286">
    <ele>58.81000000000001</ele>
   </trkpt>
   <trkpt lat="51.13662000000001" lon="-0.53286">
    <ele>58.38</ele>
   </trkpt>
   <trkpt lat="51.13703" lon="-0.5329">
    <ele>58.010000000000005</ele>
   </trkpt>
   <trkpt lat="51.13716" lon="-0.53288">
    <ele>57.85</ele>
   </trkpt>
   <trkpt lat="51.13723" lon="-0.53283">
    <ele>57.85</ele>
   </trkpt>
   <trkpt lat="51.137640000000005" lon="-0.53208">
    <ele>56.290000000000006</ele>
   </trkpt>
   <trkpt lat="51.13774" lon="-0.53186">
    <ele>56.190000000000005</ele>
   </trkpt>
   <trkpt lat="51.137890000000006" lon="-0.53132">
    <ele>56.18000000000001</ele>
   </trkpt>
   <trkpt lat="51.138000000000005" lon="-0.53042">
    <ele>56.86000000000001</ele>
   </trkpt>
   <trkpt lat="51.1381" lon="-0.5301">
    <ele>57.32</ele>
   </trkpt>
   <trkpt lat="51.138180000000006" lon="-0.52991">
    <ele>58.34</ele>
   </trkpt>
   <trkpt lat="51.138560000000005" lon="-0.52917">
    <ele>61.95</ele>
   </trkpt>
   <trkpt lat="51.13897000000001" lon="-0.52832">
    <ele>65.05000000000001</ele>
   </trkpt>
   <trkpt lat="51.13871" lon="-0.5279200000000001">
    <ele>65.25999999999999</ele>
   </trkpt>
   <trkpt lat="51.13871" lon="-0.52791">
    <ele>65.27000000000001</ele>
   </trkpt>
   <trkpt lat="51.13852000000001" lon="-0.52771">
    <ele>64.71000000000001</ele>
   </trkpt>
   <trkpt lat="51.137825001080834" lon="-0.5272149925743959">
    <ele>61.33</ele>
   </trkpt>
   <trkpt lat="51.137130000000006" lon="-0.5267200000000001">
    <ele>56.75</ele>
   </trkpt>
   <trkpt lat="51.13643666900849" lon="-0.5261966509543691">
    <ele>54.37</ele>
   </trkpt>
   <trkpt lat="51.13574333568147" lon="-0.5256733176261141">
    <ele>52.65</ele>
   </trkpt>
   <trkpt lat="51.13505000000001" lon="-0.52515">
    <ele>51.370000000000005</ele>
   </trkpt>
   <trkpt lat="51.1349" lon="-0.52508">
    <ele>51.370000000000005</ele>
   </trkpt>
   <trkpt lat="51.13440000000001" lon="-0.52483">
    <ele>50.63</ele>
   </trkpt>
   <trkpt lat="51.134280000000004" lon="-0.52481">
    <ele>50.59</ele>
   </trkpt>
   <trkpt lat="51.133840000000006" lon="-0.52476">
    <ele>50.53</ele>
   </trkpt>
   <trkpt lat="51.133300000000006" lon="-0.52473">
    <ele>50.580000000000005</ele>
   </trkpt>
   <trkpt lat="51.132674999945955" lon="-0.5246949995229703">
    <ele>50.95</ele>
   </trkpt>
   <trkpt lat="51.13205000000001" lon="-0.52466">
    <ele>51.620000000000005</ele>
   </trkpt>
   <trkpt lat="51.131460000000004" lon="-0.52449">
    <ele>52.31</ele>
   </trkpt>
   <trkpt lat="51.13067" lon="-0.52398">
    <ele>53.78</ele>
   </trkpt>
   <trkpt lat="51.12990000178271" lon="-0.5233349892533551">
    <ele>54.8</ele>
   </trkpt>
   <trkpt lat="51.12913" lon="-0.52269">
    <ele>54.59</ele>
   </trkpt>
   <trkpt lat="51.128780000000006" lon="-0.52234">
    <ele>53.88</ele>
   </trkpt>
   <trkpt lat="51.1283" lon="-0.5216900000000001">
    <ele>52.010000000000005</ele>
   </trkpt>
   <trkpt lat="51.127853337569135" lon="-0.5209899865501534">
    <ele>50.67000000000001</ele>
   </trkpt>
   <trkpt lat="51.12740667095959" lon="-0.5202899866398578">
    <ele>49.52</ele>
   </trkpt>
   <trkpt lat="51.126960000000004" lon="-0.51959">
    <ele>48.800000000000004</ele>
   </trkpt>
   <trkpt lat="51.126630000000006" lon="-0.51919">
    <ele>48.59</ele>
   </trkpt>
   <trkpt lat="51.12635" lon="-0.51888">
    <ele>48.650000000000006</ele>
   </trkpt>
   <trkpt lat="51.12606" lon="-0.51861">
    <ele>49.06</ele>
   </trkpt>
   <trkpt lat="51.12534333527489" lon="-0.5181233181783763">
    <ele>49.580000000000005</ele>
   </trkpt>
   <trkpt lat="51.1246266685299" lon="-0.5176366514588309">
    <ele>50.34</ele>
   </trkpt>
   <trkpt lat="51.12391" lon="-0.51715">
    <ele>50.27</ele>
   </trkpt>
   <trkpt lat="51.12357" lon="-0.5170100000000001">
    <ele>50.410000000000004</ele>
   </trkpt>
   <trkpt lat="51.12350000000001" lon="-0.51683">
    <ele>50.260000000000005</ele>
   </trkpt>
   <trkpt lat="51.123450000000005" lon="-0.51678">
    <ele>49.92</ele>
   </trkpt>
   <trkpt lat="51.122930000658684" lon="-0.5164199960209517">
    <ele>49.81000000000001</ele>
   </trkpt>
   <trkpt lat="51.12241" lon="-0.5160600000000001">
    <ele>50.31000000000001</ele>
   </trkpt>
   <trkpt lat="51.12167" lon="-0.51559">
    <ele>50.410000000000004</ele>
   </trkpt>
   <trkpt lat="51.121140000000004" lon="-0.5153300000000001">
    <ele>50.31000000000001</ele>
   </trkpt>
   <trkpt lat="51.120990000000006" lon="-0.51522">
    <ele>50.25</ele>
   </trkpt>
   <trkpt lat="51.12055" lon="-0.51503">
    <ele>49.760000000000005</ele>
   </trkpt>
   <trkpt lat="51.12053" lon="-0.5150800000000001">
    <ele>49.760000000000005</ele>
   </trkpt>
   <trkpt lat="51.12022" lon="-0.51495">
    <ele>49.290000000000006</ele>
   </trkpt>
   <trkpt lat="51.120020000000004" lon="-0.5148400000000001">
    <ele>49.1</ele>
   </trkpt>
   <trkpt lat="51.119510000000005" lon="-0.51448">
    <ele>48.67</ele>
   </trkpt>
   <trkpt lat="51.11903" lon="-0.5141">
    <ele>47.59</ele>
   </trkpt>
   <trkpt lat="51.11835500179602" lon="-0.5134399902973684">
    <ele>47.580000000000005</ele>
   </trkpt>
   <trkpt lat="51.11768000000001" lon="-0.51278">
    <ele>48.220000000000006</ele>
   </trkpt>
   <trkpt lat="51.11713000067677" lon="-0.5124399960663208">
    <ele>48.63</ele>
   </trkpt>
   <trkpt lat="51.116580000000006" lon="-0.5121">
    <ele>49.1</ele>
   </trkpt>
   <trkpt lat="51.11597000016998" lon="-0.5118899972213795">
    <ele>49.59</ele>
   </trkpt>
   <trkpt lat="51.11536" lon="-0.51168">
    <ele>50.120000000000005</ele>
   </trkpt>
   <trkpt lat="51.114630000000005" lon="-0.5115000000000001">
    <ele>50.22</ele>
   </trkpt>
   <trkpt lat="51.114160000000005" lon="-0.51146">
    <ele>49.42</ele>
   </trkpt>
   <trkpt lat="51.11338000000001" lon="-0.51158">
    <ele>49.03</ele>
   </trkpt>
   <trkpt lat="51.11303" lon="-0.51171">
    <ele>49.400000000000006</ele>
   </trkpt>
   <trkpt lat="51.11234000079259" lon="-0.5121550066778936">
    <ele>49.79</ele>
   </trkpt>
   <trkpt lat="51.111650000000004" lon="-0.5126000000000001">
    <ele>50.980000000000004</ele>
   </trkpt>
   <trkpt lat="51.11119000000001" lon="-0.5129400000000001">
    <ele>51.980000000000004</ele>
   </trkpt>
   <trkpt lat="51.11076000025355" lon="-0.5132900034754174">
    <ele>54.2</ele>
   </trkpt>
   <trkpt lat="51.110330000000005" lon="-0.5136400000000001">
    <ele>55.03</ele>
   </trkpt>
   <trkpt lat="51.1099" lon="-0.51402">
    <ele>55.440000000000005</ele>
   </trkpt>
   <trkpt lat="51.10974" lon="-0.51415">
    <ele>55.510000000000005</ele>
   </trkpt>
   <trkpt lat="51.10930500038024" lon="-0.5144600029388673">
    <ele>55.510000000000005</ele>
   </trkpt>
   <trkpt lat="51.10887" lon="-0.5147700000000001">
    <ele>55.440000000000005</ele>
   </trkpt>
   <trkpt lat="51.10855" lon="-0.51498">
    <ele>55.290000000000006</ele>
   </trkpt>
   <trkpt lat="51.10835" lon="-0.51503">
    <ele>55.190000000000005</ele>
   </trkpt>
   <trkpt lat="51.10810000000001" lon="-0.515">
    <ele>54.410000000000004</ele>
   </trkpt>
   <trkpt lat="51.10797" lon="-0.51493">
    <ele>54.24</ele>
   </trkpt>
   <trkpt lat="51.10786" lon="-0.51478">
    <ele>54.09</ele>
   </trkpt>
   <trkpt lat="51.107760000000006" lon="-0.5146200000000001">
    <ele>54.050000000000004</ele>
   </trkpt>
   <trkpt lat="51.107730000000004" lon="-0.51468">
    <ele>54.050000000000004</ele>
   </trkpt>
   <trkpt lat="51.10764" lon="-0.5149600000000001">
    <ele>53.82000000000001</ele>
   </trkpt>
   <trkpt lat="51.10755" lon="-0.51493">
    <ele>53.82000000000001</ele>
   </trkpt>
   <trkpt lat="51.107420000000005" lon="-0.51493">
    <ele>53.71000000000001</ele>
   </trkpt>
   <trkpt lat="51.10708" lon="-0.51498">
    <ele>53.28</ele>
   </trkpt>
   <trkpt lat="51.10667" lon="-0.51515">
    <ele>53.21000000000001</ele>
   </trkpt>
   <trkpt lat="51.10636" lon="-0.51532">
    <ele>53.17</ele>
   </trkpt>
   <trkpt lat="51.106170000000006" lon="-0.5154500000000001">
    <ele>53.22</ele>
   </trkpt>
   <trkpt lat="51.10576000055623" lon="-0.5157900029634225">
    <ele>53.160000000000004</ele>
   </trkpt>
   <trkpt lat="51.10535" lon="-0.5161300000000001">
    <ele>53.01</ele>
   </trkpt>
   <trkpt lat="51.105160000000005" lon="-0.51627">
    <ele>53.01</ele>
   </trkpt>
   <trkpt lat="51.10430500077208" lon="-0.5166850076578359">
    <ele>53.11000000000001</ele>
   </trkpt>
   <trkpt lat="51.10345" lon="-0.5171">
    <ele>53.74</ele>
   </trkpt>
   <trkpt lat="51.10290500025402" lon="-0.5173450028893445">
    <ele>54.040000000000006</ele>
   </trkpt>
   <trkpt lat="51.102360000000004" lon="-0.51759">
    <ele>54.13</ele>
   </trkpt>
   <trkpt lat="51.10217" lon="-0.5177400000000001">
    <ele>54.32000000000001</ele>
   </trkpt>
   <trkpt lat="51.10181000000001" lon="-0.51807">
    <ele>54.44</ele>
   </trkpt>
   <trkpt lat="51.10161" lon="-0.51822">
    <ele>54.540000000000006</ele>
   </trkpt>
   <trkpt lat="51.10137" lon="-0.51834">
    <ele>54.690000000000005</ele>
   </trkpt>
   <trkpt lat="51.101290000000006" lon="-0.51834">
    <ele>55.09</ele>
   </trkpt>
   <trkpt lat="51.10065" lon="-0.5181100000000001">
    <ele>55.71</ele>
   </trkpt>
   <trkpt lat="51.100190000000005" lon="-0.51795">
    <ele>56.2</ele>
   </trkpt>
   <trkpt lat="51.0996" lon="-0.5177700000000001">
    <ele>55.650000000000006</ele>
   </trkpt>
   <trkpt lat="51.09882" lon="-0.5175500000000001">
    <ele>55.38</ele>
   </trkpt>
   <trkpt lat="51.09854000000001" lon="-0.51746">
    <ele>55.580000000000005</ele>
   </trkpt>
   <trkpt lat="51.09826" lon="-0.51729">
    <ele>55.67</ele>
   </trkpt>
   <trkpt lat="51.09789000000001" lon="-0.51703">
    <ele>55.940000000000005</ele>
   </trkpt>
   <trkpt lat="51.09741" lon="-0.51676">
    <ele>56.27</ele>
   </trkpt>
   <trkpt lat="51.097240000000006" lon="-0.51671">
    <ele>56.410000000000004</ele>
   </trkpt>
   <trkpt lat="51.097030000000004" lon="-0.5166900000000001">
    <ele>56.5</ele>
   </trkpt>
   <trkpt lat="51.096830000000004" lon="-0.51673">
    <ele>56.59</ele>
   </trkpt>
   <trkpt lat="51.096540000000005" lon="-0.51683">
    <ele>56.510000000000005</ele>
   </trkpt>
   <trkpt lat="51.09642" lon="-0.5168900000000001">
    <ele>56.400000000000006</ele>
   </trkpt>
   <trkpt lat="51.09624" lon="-0.5170600000000001">
    <ele>56.080000000000005</ele>
   </trkpt>
   <trkpt lat="51.096120000000006" lon="-0.51732">
    <ele>55.00000000000001</ele>
   </trkpt>
   <trkpt lat="51.09581000000001" lon="-0.51861">
    <ele>51.300000000000004</ele>
   </trkpt>
   <trkpt lat="51.095740000000006" lon="-0.51875">
    <ele>50.39</ele>
   </trkpt>
   <trkpt lat="51.09568" lon="-0.51886">
    <ele>48.77</ele>
   </trkpt>
   <trkpt lat="51.09548" lon="-0.51912">
    <ele>47.21</ele>
   </trkpt>
   <trkpt lat="51.095090000000006" lon="-0.5194300000000001">
    <ele>44.38</ele>
   </trkpt>
   <trkpt lat="51.09476" lon="-0.51964">
    <ele>40.49</ele>
   </trkpt>
   <trkpt lat="51.09456" lon="-0.5197400000000001">
    <ele>39.400000000000006</ele>
   </trkpt>
   <trkpt lat="51.09378000086987" lon="-0.5200000131550986">
    <ele>36.61</ele>
   </trkpt>
   <trkpt lat="51.093000001163055" lon="-0.5202600175386866">
    <ele>36.04</ele>
   </trkpt>
   <trkpt lat="51.092220000879635" lon="-0.5205200131512981">
    <ele>35.56</ele>
   </trkpt>
   <trkpt lat="51.091440000000006" lon="-0.52078">
    <ele>35.13</ele>
   </trkpt>
   <trkpt lat="51.09109" lon="-0.52085">
    <ele>35.14</ele>
   </trkpt>
   <trkpt lat="51.09111000000001" lon="-0.52085">
    <ele>35.14</ele>
   </trkpt>
   <trkpt lat="51.09046500016094" lon="-0.5208550000684865">
    <ele>35.75</ele>
   </trkpt>
   <trkpt lat="51.08982" lon="-0.52086">
    <ele>36.93000000000001</ele>
   </trkpt>
   <trkpt lat="51.08966" lon="-0.5208900000000001">
    <ele>37.040000000000006</ele>
   </trkpt>
   <trkpt lat="51.08916999977247" lon="-0.520895000055296">
    <ele>36.67</ele>
   </trkpt>
   <trkpt lat="51.088680000000004" lon="-0.5209">
    <ele>36.17</ele>
   </trkpt>
   <trkpt lat="51.087920000000004" lon="-0.52088">
    <ele>34.27</ele>
   </trkpt>
   <trkpt lat="51.087374999962556" lon="-0.5209050002964172">
    <ele>32.77</ele>
   </trkpt>
   <trkpt lat="51.086830000000006" lon="-0.52093">
    <ele>31.27</ele>
   </trkpt>
   <trkpt lat="51.08662" lon="-0.5209">
    <ele>30.680000000000003</ele>
   </trkpt>
   <trkpt lat="51.08643000000001" lon="-0.52085">
    <ele>30.330000000000002</ele>
   </trkpt>
   <trkpt lat="51.086220000000004" lon="-0.52076">
    <ele>29.110000000000003</ele>
   </trkpt>
   <trkpt lat="51.08603" lon="-0.52064">
    <ele>29.17</ele>
   </trkpt>
   <trkpt lat="51.08532750538005" lon="-0.5199924705131727">
    <ele>30.8</ele>
   </trkpt>
   <trkpt lat="51.08462500718343" lon="-0.5193449606942494">
    <ele>29.69</ele>
   </trkpt>
   <trkpt lat="51.08392250541033" lon="-0.5186974705422394">
    <ele>27.770000000000003</ele>
   </trkpt>
   <trkpt lat="51.083220000000004" lon="-0.51805">
    <ele>27.87</ele>
   </trkpt>
   <trkpt lat="51.082600000678944" lon="-0.5176949953231358">
    <ele>27.650000000000002</ele>
   </trkpt>
   <trkpt lat="51.08198" lon="-0.51734">
    <ele>28.25</ele>
   </trkpt>
   <trkpt lat="51.08138000030964" lon="-0.5170749965675617">
    <ele>29.7</ele>
   </trkpt>
   <trkpt lat="51.080780000000004" lon="-0.51681">
    <ele>29.35</ele>
   </trkpt>
   <trkpt lat="51.080580000000005" lon="-0.51676">
    <ele>28.91</ele>
   </trkpt>
   <trkpt lat="51.080330000000004" lon="-0.51671">
    <ele>27.96</ele>
   </trkpt>
   <trkpt lat="51.0801" lon="-0.51678">
    <ele>27.270000000000003</ele>
   </trkpt>
   <trkpt lat="51.07987000000001" lon="-0.5169">
    <ele>26.67</ele>
   </trkpt>
   <trkpt lat="51.07967000000001" lon="-0.51707">
    <ele>26.04</ele>
   </trkpt>
   <trkpt lat="51.079390000000004" lon="-0.5173500000000001">
    <ele>25.27</ele>
   </trkpt>
   <trkpt lat="51.07867" lon="-0.5181800000000001">
    <ele>24.05</ele>
   </trkpt>
   <trkpt lat="51.07844000000001" lon="-0.51839">
    <ele>23.680000000000003</ele>
   </trkpt>
   <trkpt lat="51.07827" lon="-0.51851">
    <ele>23.64</ele>
   </trkpt>
   <trkpt lat="51.07808000000001" lon="-0.51859">
    <ele>23.75</ele>
   </trkpt>
   <trkpt lat="51.077400000000004" lon="-0.51876">
    <ele>24.380000000000003</ele>
   </trkpt>
   <trkpt lat="51.07708" lon="-0.51887">
    <ele>24.580000000000002</ele>
   </trkpt>
   <trkpt lat="51.07637000058155" lon="-0.5192300055094242">
    <ele>26.55</ele>
   </trkpt>
   <trkpt lat="51.075660000000006" lon="-0.51959">
    <ele>31.160000000000004</ele>
   </trkpt>
   <trkpt lat="51.07531" lon="-0.5196500000000001">
    <ele>33.050000000000004</ele>
   </trkpt>
   <trkpt lat="51.07479000000001" lon="-0.51963">
    <ele>32.940000000000005</ele>
   </trkpt>
   <trkpt lat="51.07437" lon="-0.51954">
    <ele>32.6</ele>
   </trkpt>
   <trkpt lat="51.07388" lon="-0.51939">
    <ele>31.96</ele>
   </trkpt>
   <trkpt lat="51.07338000000001" lon="-0.51932">
    <ele>32.11</ele>
   </trkpt>
   <trkpt lat="51.07300000000001" lon="-0.5192">
    <ele>32.31</ele>
   </trkpt>
   <trkpt lat="51.07251000035062" lon="-0.5189649975669088">
    <ele>32.220000000000006</ele>
   </trkpt>
   <trkpt lat="51.07202" lon="-0.51873">
    <ele>30.92</ele>
   </trkpt>
   <trkpt lat="51.07179000000001" lon="-0.51856">
    <ele>29.66</ele>
   </trkpt>
   <trkpt lat="51.07155" lon="-0.51824">
    <ele>27.19</ele>
   </trkpt>
   <trkpt lat="51.07129500220736" lon="-0.5175149959062973">
    <ele>24.290000000000003</ele>
   </trkpt>
   <trkpt lat="51.07104" lon="-0.5167900000000001">
    <ele>22.73</ele>
   </trkpt>
   <trkpt lat="51.070820000000005" lon="-0.5162100000000001">
    <ele>21.76</ele>
   </trkpt>
   <trkpt lat="51.07059" lon="-0.5158200000000001">
    <ele>20.790000000000003</ele>
   </trkpt>
   <trkpt lat="51.070420000000006" lon="-0.51561">
    <ele>20.62</ele>
   </trkpt>
   <trkpt lat="51.07012" lon="-0.51537">
    <ele>20.05</ele>
   </trkpt>
   <trkpt lat="51.06994" lon="-0.51529">
    <ele>20.05</ele>
   </trkpt>
   <trkpt lat="51.069700000000005" lon="-0.51522">
    <ele>20.330000000000002</ele>
   </trkpt>
   <trkpt lat="51.06926000000001" lon="-0.5152">
    <ele>21.290000000000003</ele>
   </trkpt>
   <trkpt lat="51.068623333767746" lon="-0.5154100057582113">
    <ele>24.16</ele>
   </trkpt>
   <trkpt lat="51.067986667159246" lon="-0.5156200057389333">
    <ele>24.77</ele>
   </trkpt>
   <trkpt lat="51.067350000000005" lon="-0.51583">
    <ele>25.45</ele>
   </trkpt>
   <trkpt lat="51.06721" lon="-0.5159">
    <ele>25.52</ele>
   </trkpt>
   <trkpt lat="51.06651" lon="-0.51612">
    <ele>28.330000000000002</ele>
   </trkpt>
   <trkpt lat="51.066" lon="-0.51624">
    <ele>31.990000000000006</ele>
   </trkpt>
   <trkpt lat="51.06577000000001" lon="-0.51627">
    <ele>33.690000000000005</ele>
   </trkpt>
   <trkpt lat="51.06553" lon="-0.51627">
    <ele>34.49</ele>
   </trkpt>
   <trkpt lat="51.065310000000004" lon="-0.5162300000000001">
    <ele>35.410000000000004</ele>
   </trkpt>
   <trkpt lat="51.06443500030534" lon="-0.5159849953827311">
    <ele>37.480000000000004</ele>
   </trkpt>
   <trkpt lat="51.06356" lon="-0.5157400000000001">
    <ele>38.32</ele>
   </trkpt>
   <trkpt lat="51.063590000000005" lon="-0.51575">
    <ele>38.290000000000006</ele>
   </trkpt>
   <trkpt lat="51.063570000000006" lon="-0.5159">
    <ele>37.74</ele>
   </trkpt>
   <trkpt lat="51.06362000000001" lon="-0.51688">
    <ele>36.25000000000001</ele>
   </trkpt>
   <trkpt lat="51.06363" lon="-0.5178200000000001">
    <ele>34.83</ele>
   </trkpt>
   <trkpt lat="51.06362000000001" lon="-0.51892">
    <ele>33.82</ele>
   </trkpt>
   <trkpt lat="51.063680000000005" lon="-0.52025">
    <ele>32.230000000000004</ele>
   </trkpt>
   <trkpt lat="51.06377334562679" lon="-0.521449995258026">
    <ele>31.580000000000002</ele>
   </trkpt>
   <trkpt lat="51.06386667896769" lon="-0.5226499953552411">
    <ele>30.67</ele>
   </trkpt>
   <trkpt lat="51.06396" lon="-0.52385">
    <ele>29.53</ele>
   </trkpt>
   <trkpt lat="51.06401" lon="-0.5246700000000001">
    <ele>28.540000000000003</ele>
   </trkpt>
   <trkpt lat="51.064020000000006" lon="-0.525">
    <ele>28.130000000000003</ele>
   </trkpt>
   <trkpt lat="51.06425500379558" lon="-0.5259399953328281">
    <ele>24.35</ele>
   </trkpt>
   <trkpt lat="51.064490000000006" lon="-0.52688">
    <ele>23.080000000000002</ele>
   </trkpt>
   <trkpt lat="51.064510000000006" lon="-0.52732">
    <ele>24.07</ele>
   </trkpt>
   <trkpt lat="51.0645" lon="-0.5277400000000001">
    <ele>25.490000000000002</ele>
   </trkpt>
   <trkpt lat="51.06441" lon="-0.5284500000000001">
    <ele>27.240000000000002</ele>
   </trkpt>
   <trkpt lat="51.06429000000001" lon="-0.52937">
    <ele>28.040000000000003</ele>
   </trkpt>
   <trkpt lat="51.064140003540516" lon="-0.5302750026513676">
    <ele>28.76</ele>
   </trkpt>
   <trkpt lat="51.063990000000004" lon="-0.5311800000000001">
    <ele>29.330000000000002</ele>
   </trkpt>
   <trkpt lat="51.06387" lon="-0.53225">
    <ele>30.44</ele>
   </trkpt>
   <trkpt lat="51.06385" lon="-0.53325">
    <ele>30.71</ele>
   </trkpt>
   <trkpt lat="51.06394" lon="-0.53369">
    <ele>30.300000000000004</ele>
   </trkpt>
   <trkpt lat="51.06428500370708" lon="-0.5346249929711326">
    <ele>30.04</ele>
   </trkpt>
   <trkpt lat="51.06463" lon="-0.53556">
    <ele>31.03</ele>
   </trkpt>
   <trkpt lat="51.06479" lon="-0.53595">
    <ele>31.69</ele>
   </trkpt>
   <trkpt lat="51.064890000000005" lon="-0.5363100000000001">
    <ele>31.830000000000002</ele>
   </trkpt>
   <trkpt lat="51.065020000000004" lon="-0.53693">
    <ele>32.36</ele>
   </trkpt>
   <trkpt lat="51.06505000000001" lon="-0.53822">
    <ele>32.81</ele>
   </trkpt>
   <trkpt lat="51.065090000000005" lon="-0.53844">
    <ele>32.980000000000004</ele>
   </trkpt>
   <trkpt lat="51.065160000000006" lon="-0.53861">
    <ele>33.260000000000005</ele>
   </trkpt>
   <trkpt lat="51.0656" lon="-0.5394100000000001">
    <ele>34.35</ele>
   </trkpt>
   <trkpt lat="51.06595333925834" lon="-0.5402433206115204">
    <ele>34.160000000000004</ele>
   </trkpt>
   <trkpt lat="51.066306672591935" lon="-0.5410766539453006">
    <ele>33.32</ele>
   </trkpt>
   <trkpt lat="51.066660000000006" lon="-0.54191">
    <ele>32.49</ele>
   </trkpt>
   <trkpt lat="51.06702000000001" lon="-0.54235">
    <ele>32.31</ele>
   </trkpt>
   <trkpt lat="51.06716" lon="-0.54257">
    <ele>32.39</ele>
   </trkpt>
   <trkpt lat="51.067690000000006" lon="-0.54354">
    <ele>33.620000000000005</ele>
   </trkpt>
   <trkpt lat="51.067930000000004" lon="-0.54383">
    <ele>33.440000000000005</ele>
   </trkpt>
   <trkpt lat="51.06814000000001" lon="-0.5439900000000001">
    <ele>32.67</ele>
   </trkpt>
   <trkpt lat="51.068400000000004" lon="-0.54439">
    <ele>32.449999999999996</ele>
   </trkpt>
   <trkpt lat="51.06869500253454" lon="-0.5451599951061831">
    <ele>33.300000000000004</ele>
   </trkpt>
   <trkpt lat="51.06899000000001" lon="-0.54593">
    <ele>36.18</ele>
   </trkpt>
   <trkpt lat="51.069280000000006" lon="-0.54637">
    <ele>37.84</ele>
   </trkpt>
   <trkpt lat="51.06992" lon="-0.5471">
    <ele>38.45</ele>
   </trkpt>
   <trkpt lat="51.06996" lon="-0.5473">
    <ele>38.57</ele>
   </trkpt>
   <trkpt lat="51.06991000000001" lon="-0.54801">
    <ele>39.290000000000006</ele>
   </trkpt>
   <trkpt lat="51.06973500208692" lon="-0.5487050025228516">
    <ele>41.61</ele>
   </trkpt>
   <trkpt lat="51.06956" lon="-0.5494">
    <ele>44.49</ele>
   </trkpt>
   <trkpt lat="51.06916000477672" lon="-0.5504500088811771">
    <ele>52.15</ele>
   </trkpt>
   <trkpt lat="51.068760000000005" lon="-0.5515">
    <ele>56.050000000000004</ele>
   </trkpt>
   <trkpt lat="51.06864" lon="-0.55193">
    <ele>56.290000000000006</ele>
   </trkpt>
   <trkpt lat="51.06855" lon="-0.55291">
    <ele>56.470000000000006</ele>
   </trkpt>
   <trkpt lat="51.06861000000001" lon="-0.55379">
    <ele>57.28</ele>
   </trkpt>
   <trkpt lat="51.06876500417661" lon="-0.5547749969417591">
    <ele>59.910000000000004</ele>
   </trkpt>
   <trkpt lat="51.068920000000006" lon="-0.55576">
    <ele>58.260000000000005</ele>
   </trkpt>
   <trkpt lat="51.06899000000001" lon="-0.55669">
    <ele>52.81</ele>
   </trkpt>
   <trkpt lat="51.069" lon="-0.55733">
    <ele>50.800000000000004</ele>
   </trkpt>
   <trkpt lat="51.06890000422297" lon="-0.5583300025887769">
    <ele>52.75000000000001</ele>
   </trkpt>
   <trkpt lat="51.0688" lon="-0.55933">
    <ele>55.190000000000005</ele>
   </trkpt>
   <trkpt lat="51.0688" lon="-0.55957">
    <ele>57.14</ele>
   </trkpt>
   <trkpt lat="51.068960000000004" lon="-0.56084">
    <ele>59.32</ele>
   </trkpt>
   <trkpt lat="51.06895" lon="-0.56108">
    <ele>59.60000000000001</ele>
   </trkpt>
   <trkpt lat="51.068920000000006" lon="-0.56133">
    <ele>60.50000000000001</ele>
   </trkpt>
   <trkpt lat="51.06884" lon="-0.56155">
    <ele>61.03000000000001</ele>
   </trkpt>
   <trkpt lat="51.06848" lon="-0.56213">
    <ele>63.85</ele>
   </trkpt>
   <trkpt lat="51.068270000000005" lon="-0.56311">
    <ele>67.06</ele>
   </trkpt>
   <trkpt lat="51.068305002646326" lon="-0.5638999990421072">
    <ele>68.35000000000001</ele>
   </trkpt>
   <trkpt lat="51.068340000000006" lon="-0.56469">
    <ele>69.59</ele>
   </trkpt>
   <trkpt lat="51.068450000000006" lon="-0.56499">
    <ele>71.42000000000002</ele>
   </trkpt>
   <trkpt lat="51.06864" lon="-0.56538">
    <ele>72.54</ele>
   </trkpt>
   <trkpt lat="51.068870000000004" lon="-0.56572">
    <ele>73.27</ele>
   </trkpt>
   <trkpt lat="51.069190000000006" lon="-0.56611">
    <ele>73.44</ele>
   </trkpt>
   <trkpt lat="51.06931" lon="-0.56652">
    <ele>73.46000000000001</ele>
   </trkpt>
   <trkpt lat="51.0694" lon="-0.5677500000000001">
    <ele>73.23</ele>
   </trkpt>
   <trkpt lat="51.06956" lon="-0.56788">
    <ele>73.19</ele>
   </trkpt>
   <trkpt lat="51.0696" lon="-0.56811">
    <ele>73.02</ele>
   </trkpt>
   <trkpt lat="51.06945" lon="-0.5694100000000001">
    <ele>73.86000000000001</ele>
   </trkpt>
   <trkpt lat="51.069350002626116" lon="-0.5702000019924693">
    <ele>73.83</ele>
   </trkpt>
   <trkpt lat="51.069250000000004" lon="-0.57099">
    <ele>73.77</ele>
   </trkpt>
   <trkpt lat="51.06924" lon="-0.57128">
    <ele>73.89000000000001</ele>
   </trkpt>
   <trkpt lat="51.06931" lon="-0.57152">
    <ele>73.88</ele>
   </trkpt>
   <trkpt lat="51.069810000000004" lon="-0.57201">
    <ele>73.53000000000002</ele>
   </trkpt>
   <trkpt lat="51.06992" lon="-0.57235">
    <ele>73.11000000000001</ele>
   </trkpt>
   <trkpt lat="51.069990000000004" lon="-0.57272">
    <ele>72.65</ele>
   </trkpt>
   <trkpt lat="51.07009000000001" lon="-0.57304">
    <ele>72.65</ele>
   </trkpt>
   <trkpt lat="51.07044500131862" lon="-0.573624995279973">
    <ele>72.01</ele>
   </trkpt>
   <trkpt lat="51.070800000000006" lon="-0.57421">
    <ele>71.35000000000001</ele>
   </trkpt>
   <trkpt lat="51.07103000000001" lon="-0.5745300000000001">
    <ele>69.97</ele>
   </trkpt>
   <trkpt lat="51.071020000000004" lon="-0.57452">
    <ele>69.98</ele>
   </trkpt>
   <trkpt lat="51.071270000000005" lon="-0.57467">
    <ele>69.63000000000001</ele>
   </trkpt>
   <trkpt lat="51.072120000000005" lon="-0.5748300000000001">
    <ele>66.88000000000001</ele>
   </trkpt>
   <trkpt lat="51.0726" lon="-0.57489">
    <ele>66.83</ele>
   </trkpt>
   <trkpt lat="51.07289" lon="-0.57504">
    <ele>67.7</ele>
   </trkpt>
   <trkpt lat="51.07356000000001" lon="-0.5755">
    <ele>70.17</ele>
   </trkpt>
   <trkpt lat="51.07361" lon="-0.5754900000000001">
    <ele>70.17</ele>
   </trkpt>
   <trkpt lat="51.073780000000006" lon="-0.57552">
    <ele>70.55</ele>
   </trkpt>
   <trkpt lat="51.07446" lon="-0.57516">
    <ele>69.58</ele>
   </trkpt>
   <trkpt lat="51.074870000000004" lon="-0.57504">
    <ele>69.03</ele>
   </trkpt>
   <trkpt lat="51.07544000054169" lon="-0.5746950042292649">
    <ele>68.49000000000001</ele>
   </trkpt>
   <trkpt lat="51.076010000000004" lon="-0.57435">
    <ele>68.54</ele>
   </trkpt>
   <trkpt lat="51.076350000000005" lon="-0.57428">
    <ele>68.76</ele>
   </trkpt>
   <trkpt lat="51.076640000000005" lon="-0.57433">
    <ele>68.7</ele>
   </trkpt>
   <trkpt lat="51.07697" lon="-0.5742400000000001">
    <ele>68.73</ele>
   </trkpt>
   <trkpt lat="51.0773" lon="-0.57396">
    <ele>68.34</ele>
   </trkpt>
   <trkpt lat="51.07762" lon="-0.57382">
    <ele>68.36</ele>
   </trkpt>
   <trkpt lat="51.07797000000001" lon="-0.5738800000000001">
    <ele>68.67</ele>
   </trkpt>
   <trkpt lat="51.07855000000001" lon="-0.57426">
    <ele>69.4</ele>
   </trkpt>
   <trkpt lat="51.07891000000001" lon="-0.57433">
    <ele>69.54</ele>
   </trkpt>
   <trkpt lat="51.07945" lon="-0.5743">
    <ele>69.92</ele>
   </trkpt>
   <trkpt lat="51.0801" lon="-0.57433">
    <ele>71.33</ele>
   </trkpt>
   <trkpt lat="51.08044" lon="-0.5745">
    <ele>71.47</ele>
   </trkpt>
   <trkpt lat="51.0808" lon="-0.57491">
    <ele>71.32000000000001</ele>
   </trkpt>
   <trkpt lat="51.08108000000001" lon="-0.57521">
    <ele>71.21000000000001</ele>
   </trkpt>
   <trkpt lat="51.081430000000005" lon="-0.57543">
    <ele>70.55</ele>
   </trkpt>
   <trkpt lat="51.08173000000001" lon="-0.57555">
    <ele>70.24000000000001</ele>
   </trkpt>
   <trkpt lat="51.082214999909006" lon="-0.575654998869306">
    <ele>70.22</ele>
   </trkpt>
   <trkpt lat="51.0827" lon="-0.57576">
    <ele>69.96000000000001</ele>
   </trkpt>
   <trkpt lat="51.083470000000005" lon="-0.57596">
    <ele>69.69</ele>
   </trkpt>
   <trkpt lat="51.084230000000005" lon="-0.57606">
    <ele>69.75</ele>
   </trkpt>
   <trkpt lat="51.084630000000004" lon="-0.5760900000000001">
    <ele>69.79</ele>
   </trkpt>
   <trkpt lat="51.08493000000001" lon="-0.57623">
    <ele>69.82000000000001</ele>
   </trkpt>
   <trkpt lat="51.08503" lon="-0.5763">
    <ele>69.82000000000001</ele>
   </trkpt>
   <trkpt lat="51.08512" lon="-0.57643">
    <ele>69.92</ele>
   </trkpt>
   <trkpt lat="51.08522000000001" lon="-0.5766">
    <ele>69.92</ele>
   </trkpt>
   <trkpt lat="51.08536" lon="-0.5769000000000001">
    <ele>70.09</ele>
   </trkpt>
   <trkpt lat="51.085530000000006" lon="-0.57732">
    <ele>70.33</ele>
   </trkpt>
   <trkpt lat="51.08579" lon="-0.5777000000000001">
    <ele>70.75</ele>
   </trkpt>
   <trkpt lat="51.08603" lon="-0.57784">
    <ele>71.17000000000002</ele>
   </trkpt>
   <trkpt lat="51.086330000000004" lon="-0.57794">
    <ele>71.98</ele>
   </trkpt>
   <trkpt lat="51.08653" lon="-0.5781400000000001">
    <ele>72.39000000000001</ele>
   </trkpt>
   <trkpt lat="51.08655" lon="-0.57838">
    <ele>72.43</ele>
   </trkpt>
   <trkpt lat="51.08653" lon="-0.57877">
    <ele>72.2</ele>
   </trkpt>
   <trkpt lat="51.086580000000005" lon="-0.57916">
    <ele>71.37</ele>
   </trkpt>
   <trkpt lat="51.08672000000001" lon="-0.57945">
    <ele>70.9</ele>
   </trkpt>
   <trkpt lat="51.08730000292661" lon="-0.5802899893465024">
    <ele>69.32000000000001</ele>
   </trkpt>
   <trkpt lat="51.087880000000006" lon="-0.58113">
    <ele>68.44</ele>
   </trkpt>
   <trkpt lat="51.08843" lon="-0.58213">
    <ele>68.72</ele>
   </trkpt>
   <trkpt lat="51.08856" lon="-0.58223">
    <ele>68.63000000000001</ele>
   </trkpt>
   <trkpt lat="51.08867000000001" lon="-0.58228">
    <ele>68.52000000000001</ele>
   </trkpt>
   <trkpt lat="51.08907000000001" lon="-0.58235">
    <ele>68.35000000000001</ele>
   </trkpt>
   <trkpt lat="51.08976666668166" lon="-0.58235">
    <ele>67.43</ele>
   </trkpt>
   <trkpt lat="51.09046333336328" lon="-0.58235">
    <ele>63.89</ele>
   </trkpt>
   <trkpt lat="51.09116" lon="-0.58235">
    <ele>61.480000000000004</ele>
   </trkpt>
   <trkpt lat="51.09160000000001" lon="-0.58231">
    <ele>60.11</ele>
   </trkpt>
   <trkpt lat="51.092020000000005" lon="-0.58231">
    <ele>59.29</ele>
   </trkpt>
   <trkpt lat="51.092380000000006" lon="-0.5822200000000001">
    <ele>58.910000000000004</ele>
   </trkpt>
   <trkpt lat="51.092400000000005" lon="-0.58221">
    <ele>58.900000000000006</ele>
   </trkpt>
   <trkpt lat="51.09286500016885" lon="-0.582025001851152">
    <ele>58.830000000000005</ele>
   </trkpt>
   <trkpt lat="51.09333" lon="-0.58184">
    <ele>59.03000000000001</ele>
   </trkpt>
   <trkpt lat="51.09407500005675" lon="-0.5816600029196594">
    <ele>59.940000000000005</ele>
   </trkpt>
   <trkpt lat="51.094820000000006" lon="-0.58148">
    <ele>60.910000000000004</ele>
   </trkpt>
   <trkpt lat="51.095020000000005" lon="-0.58138">
    <ele>61.040000000000006</ele>
   </trkpt>
   <trkpt lat="51.09553500010772" lon="-0.5811350027992849">
    <ele>61.64000000000001</ele>
   </trkpt>
   <trkpt lat="51.096050000000005" lon="-0.58089">
    <ele>61.76</ele>
   </trkpt>
   <trkpt lat="51.09637000000001" lon="-0.58081">
    <ele>61.71000000000001</ele>
   </trkpt>
   <trkpt lat="51.09678" lon="-0.58082">
    <ele>61.6</ele>
   </trkpt>
   <trkpt lat="51.0972" lon="-0.5807">
    <ele>60.7</ele>
   </trkpt>
   <trkpt lat="51.097590000000004" lon="-0.58057">
    <ele>60.300000000000004</ele>
   </trkpt>
   <trkpt lat="51.097970000000004" lon="-0.58038">
    <ele>59.60000000000001</ele>
   </trkpt>
   <trkpt lat="51.098200000000006" lon="-0.58018">
    <ele>58.74000000000001</ele>
   </trkpt>
   <trkpt lat="51.09834000000001" lon="-0.57999">
    <ele>58.080000000000005</ele>
   </trkpt>
   <trkpt lat="51.098710000000004" lon="-0.57928">
    <ele>54.790000000000006</ele>
   </trkpt>
   <trkpt lat="51.09926000230136" lon="-0.578555008546131">
    <ele>48.85</ele>
   </trkpt>
   <trkpt lat="51.099810000000005" lon="-0.5778300000000001">
    <ele>44.44</ele>
   </trkpt>
   <trkpt lat="51.100350000000006" lon="-0.57738">
    <ele>42.010000000000005</ele>
   </trkpt>
   <trkpt lat="51.100620000000006" lon="-0.57706">
    <ele>40.970000000000006</ele>
   </trkpt>
   <trkpt lat="51.100770000000004" lon="-0.5766800000000001">
    <ele>40.18</ele>
   </trkpt>
   <trkpt lat="51.101040000000005" lon="-0.57574">
    <ele>38.7</ele>
   </trkpt>
   <trkpt lat="51.101090000000006" lon="-0.57552">
    <ele>38.31</ele>
   </trkpt>
   <trkpt lat="51.10114" lon="-0.57506">
    <ele>37.95</ele>
   </trkpt>
   <trkpt lat="51.101200000000006" lon="-0.57484">
    <ele>37.95</ele>
   </trkpt>
   <trkpt lat="51.10126" lon="-0.57469">
    <ele>37.63</ele>
   </trkpt>
   <trkpt lat="51.101530000000004" lon="-0.57433">
    <ele>37.37</ele>
   </trkpt>
   <trkpt lat="51.10172000000001" lon="-0.57416">
    <ele>37.17</ele>
   </trkpt>
   <trkpt lat="51.10192000000001" lon="-0.57406">
    <ele>37.17</ele>
   </trkpt>
   <trkpt lat="51.102090000000004" lon="-0.57404">
    <ele>36.7</ele>
   </trkpt>
   <trkpt lat="51.102630000000005" lon="-0.57404">
    <ele>36.18</ele>
   </trkpt>
   <trkpt lat="51.102900000000005" lon="-0.57396">
    <ele>35.120000000000005</ele>
   </trkpt>
   <trkpt lat="51.10361" lon="-0.5736300000000001">
    <ele>33.480000000000004</ele>
   </trkpt>
   <trkpt lat="51.103950000000005" lon="-0.5734400000000001">
    <ele>33.68</ele>
   </trkpt>
   <trkpt lat="51.10437" lon="-0.57313">
    <ele>34.230000000000004</ele>
   </trkpt>
   <trkpt lat="51.10495" lon="-0.57286">
    <ele>37.36000000000001</ele>
   </trkpt>
   <trkpt lat="51.10548500097879" lon="-0.5723900054076797">
    <ele>38.73</ele>
   </trkpt>
   <trkpt lat="51.10602" lon="-0.5719200000000001">
    <ele>40.18</ele>
   </trkpt>
   <trkpt lat="51.10649500086318" lon="-0.5714800044869641">
    <ele>40.74</ele>
   </trkpt>
   <trkpt lat="51.106970000000004" lon="-0.57104">
    <ele>41.04</ele>
   </trkpt>
   <trkpt lat="51.10750000081681" lon="-0.5706000050528034">
    <ele>38.34</ele>
   </trkpt>
   <trkpt lat="51.10803000000001" lon="-0.57016">
    <ele>33.72</ele>
   </trkpt>
   <trkpt lat="51.10828000000001" lon="-0.56984">
    <ele>32.68</ele>
   </trkpt>
   <trkpt lat="51.1084" lon="-0.56976">
    <ele>32.550000000000004</ele>
   </trkpt>
   <trkpt lat="51.10869" lon="-0.5689000000000001">
    <ele>32.080000000000005</ele>
   </trkpt>
   <trkpt lat="51.10887" lon="-0.56823">
    <ele>32.690000000000005</ele>
   </trkpt>
   <trkpt lat="51.109030000000004" lon="-0.56784">
    <ele>33.830000000000005</ele>
   </trkpt>
   <trkpt lat="51.109405001533396" lon="-0.5672550046312904">
    <ele>40.56</ele>
   </trkpt>
   <trkpt lat="51.10978" lon="-0.56667">
    <ele>45.49</ele>
   </trkpt>
   <trkpt lat="51.110440000000004" lon="-0.5658700000000001">
    <ele>51.870000000000005</ele>
   </trkpt>
   <trkpt lat="51.11099" lon="-0.56542">
    <ele>52.870000000000005</ele>
   </trkpt>
   <trkpt lat="51.11166000119767" lon="-0.5649100073267276">
    <ele>53.14000000000001</ele>
   </trkpt>
   <trkpt lat="51.11233000000001" lon="-0.5644">
    <ele>53.21000000000001</ele>
   </trkpt>
   <trkpt lat="51.11258" lon="-0.56425">
    <ele>53.2</ele>
   </trkpt>
   <trkpt lat="51.1132300019669" lon="-0.5637733467218305">
    <ele>53.34</ele>
   </trkpt>
   <trkpt lat="51.11388000199603" lon="-0.5632966800340403">
    <ele>53.08</ele>
   </trkpt>
   <trkpt lat="51.11453" lon="-0.5628200000000001">
    <ele>52.76</ele>
   </trkpt>
   <trkpt lat="51.114900000000006" lon="-0.5626000000000001">
    <ele>52.6</ele>
   </trkpt>
   <trkpt lat="51.11525" lon="-0.56245">
    <ele>52.56</ele>
   </trkpt>
   <trkpt lat="51.115500000000004" lon="-0.56237">
    <ele>52.620000000000005</ele>
   </trkpt>
   <trkpt lat="51.115590000000005" lon="-0.5623600000000001">
    <ele>52.61</ele>
   </trkpt>
   <trkpt lat="51.11560000000001" lon="-0.5623600000000001">
    <ele>52.61</ele>
   </trkpt>
   <trkpt lat="51.115700000000004" lon="-0.5623600000000001">
    <ele>52.61</ele>
   </trkpt>
   <trkpt lat="51.11591000000001" lon="-0.56238">
    <ele>52.61</ele>
   </trkpt>
   <trkpt lat="51.11623" lon="-0.56249">
    <ele>52.79</ele>
   </trkpt>
   <trkpt lat="51.116960000708815" lon="-0.5628849937827145">
    <ele>52.89000000000001</ele>
   </trkpt>
   <trkpt lat="51.11769" lon="-0.56328">
    <ele>53.39000000000001</ele>
   </trkpt>
   <trkpt lat="51.117830000000005" lon="-0.56333">
    <ele>53.39000000000001</ele>
   </trkpt>
   <trkpt lat="51.11857000008948" lon="-0.5634449981631979">
    <ele>53.78</ele>
   </trkpt>
   <trkpt lat="51.119310000000006" lon="-0.5635600000000001">
    <ele>54.2</ele>
   </trkpt>
   <trkpt lat="51.119210002496146" lon="-0.5643200013929908">
    <ele>54.27</ele>
   </trkpt>
   <trkpt lat="51.119110000000006" lon="-0.56508">
    <ele>54.42</ele>
   </trkpt>
   <trkpt lat="51.118970000000004" lon="-0.5657300000000001">
    <ele>54.730000000000004</ele>
   </trkpt>
   <trkpt lat="51.11878" lon="-0.56628">
    <ele>54.89</ele>
   </trkpt>
   <trkpt lat="51.118460000000006" lon="-0.56711">
    <ele>51.39</ele>
   </trkpt>
   <trkpt lat="51.11816" lon="-0.56808">
    <ele>44.4</ele>
   </trkpt>
   <trkpt lat="51.11802" lon="-0.56869">
    <ele>38.91</ele>
   </trkpt>
   <trkpt lat="51.11795000000001" lon="-0.56943">
    <ele>35.51</ele>
   </trkpt>
   <trkpt lat="51.117990000000006" lon="-0.5696">
    <ele>35.29</ele>
   </trkpt>
   <trkpt lat="51.118140000000004" lon="-0.57004">
    <ele>35.26</ele>
   </trkpt>
   <trkpt lat="51.118100000000005" lon="-0.57018">
    <ele>35.09</ele>
   </trkpt>
   <trkpt lat="51.11780000200064" lon="-0.5708650044483513">
    <ele>35.79</ele>
   </trkpt>
   <trkpt lat="51.11750000000001" lon="-0.57155">
    <ele>37.37</ele>
   </trkpt>
   <trkpt lat="51.11744" lon="-0.57177">
    <ele>38.63</ele>
   </trkpt>
   <trkpt lat="51.11742" lon="-0.57199">
    <ele>40.18</ele>
   </trkpt>
   <trkpt lat="51.117490000000004" lon="-0.57252">
    <ele>43.0</ele>
   </trkpt>
   <trkpt lat="51.117520000000006" lon="-0.57265">
    <ele>45.34</ele>
   </trkpt>
   <trkpt lat="51.11779000000001" lon="-0.57333">
    <ele>47.25000000000001</ele>
   </trkpt>
   <trkpt lat="51.11797000000001" lon="-0.5739700000000001">
    <ele>48.52</ele>
   </trkpt>
   <trkpt lat="51.11816" lon="-0.57413">
    <ele>50.46</ele>
   </trkpt>
   <trkpt lat="51.1182" lon="-0.57411">
    <ele>50.46</ele>
   </trkpt>
   <trkpt lat="51.11845" lon="-0.57369">
    <ele>51.93</ele>
   </trkpt>
   <trkpt lat="51.118680000000005" lon="-0.5734">
    <ele>51.52</ele>
   </trkpt>
  </trkseg>
 </trk>
</gpx>
