<?xml version="1.0" encoding="UTF-8"?>
<gpx creator="StravaGPX" version="1.1" xmlns="http://www.topografix.com/GPX/1/1" xmlns:xsi="http://www.w3.org/2001/XMLSchema-instance" xsi:schemaLocation="http://www.topografix.com/GPX/1/1 http://www.topografix.com/GPX/1/1/gpx.xsd">
 <metadata>
  <name>50km country wide Delft Loop</name>
  <author>
   <name>Andrew Goudie</name>
  </author>
  <copyright author="OpenStreetMap contributors">
   <year>2020</year>
   <license>https://www.openstreetmap.org/copyright</license>
  </copyright>
 </metadata>
 <trk>
  <name>50km country wide Delft Loop</name>
  <link href=""/>
  <type>cycling</type>
  <trkseg>
   <trkpt lat="52.077470000000005" lon="4.31507">
    <ele>4.760000000000001</ele>
   </trkpt>
   <trkpt lat="52.07708000196249" lon="4.315785006614035">
    <ele>4.3100000000000005</ele>
   </trkpt>
   <trkpt lat="52.076690000000006" lon="4.3165000000000004">
    <ele>4.410000000000001</ele>
   </trkpt>
   <trkpt lat="52.07639500130532" lon="4.317065003820348">
    <ele>4.0</ele>
   </trkpt>
   <trkpt lat="52.076100000000004" lon="4.31763">
    <ele>3.9000000000000004</ele>
   </trkpt>
   <trkpt lat="52.075860000000006" lon="4.3181400000000005">
    <ele>3.87</ele>
   </trkpt>
   <trkpt lat="52.07545500228323" lon="4.318890006982996">
    <ele>3.7600000000000002</ele>
   </trkpt>
   <trkpt lat="52.075050000000005" lon="4.319640000000001">
    <ele>4.57</ele>
   </trkpt>
   <trkpt lat="52.07504" lon="4.3197">
    <ele>4.57</ele>
   </trkpt>
   <trkpt lat="52.075140000000005" lon="4.320530000000001">
    <ele>4.6000000000000005</ele>
   </trkpt>
   <trkpt lat="52.07513" lon="4.32063">
    <ele>4.6000000000000005</ele>
   </trkpt>
   <trkpt lat="52.07509" lon="4.32071">
    <ele>4.64</ele>
   </trkpt>
   <trkpt lat="52.07475" lon="4.32117">
    <ele>3.6600000000000006</ele>
   </trkpt>
   <trkpt lat="52.07452000000001" lon="4.32158">
    <ele>3.33</ele>
   </trkpt>
   <trkpt lat="52.0741700019334" lon="4.322260005375606">
    <ele>3.19</ele>
   </trkpt>
   <trkpt lat="52.073820000000005" lon="4.32294">
    <ele>3.23</ele>
   </trkpt>
   <trkpt lat="52.0735" lon="4.32348">
    <ele>3.3200000000000003</ele>
   </trkpt>
   <trkpt lat="52.073240000000006" lon="4.32394">
    <ele>3.94</ele>
   </trkpt>
   <trkpt lat="52.073190000000004" lon="4.324070000000001">
    <ele>4.38</ele>
   </trkpt>
   <trkpt lat="52.073130000000006" lon="4.32416">
    <ele>4.19</ele>
   </trkpt>
   <trkpt lat="52.0728" lon="4.32383">
    <ele>4.07</ele>
   </trkpt>
   <trkpt lat="52.07267" lon="4.32366">
    <ele>3.8300000000000005</ele>
   </trkpt>
   <trkpt lat="52.07247" lon="4.3230900000000005">
    <ele>3.1100000000000003</ele>
   </trkpt>
   <trkpt lat="52.07211" lon="4.323530000000001">
    <ele>2.75</ele>
   </trkpt>
   <trkpt lat="52.07195" lon="4.3236300000000005">
    <ele>2.9200000000000004</ele>
   </trkpt>
   <trkpt lat="52.07184" lon="4.323670000000001">
    <ele>3.17</ele>
   </trkpt>
   <trkpt lat="52.07171" lon="4.32368">
    <ele>3.1100000000000003</ele>
   </trkpt>
   <trkpt lat="52.07157" lon="4.32366">
    <ele>3.1100000000000003</ele>
   </trkpt>
   <trkpt lat="52.07144" lon="4.32362">
    <ele>3.0500000000000003</ele>
   </trkpt>
   <trkpt lat="52.07157" lon="4.32366">
    <ele>3.1100000000000003</ele>
   </trkpt>
   <trkpt lat="52.071810000000006" lon="4.323670000000001">
    <ele>3.16</ele>
   </trkpt>
   <trkpt lat="52.071830000000006" lon="4.32413">
    <ele>3.4000000000000004</ele>
   </trkpt>
   <trkpt lat="52.07213" lon="4.324450000000001">
    <ele>2.9400000000000004</ele>
   </trkpt>
   <trkpt lat="52.07202" lon="4.3245000000000005">
    <ele>2.7</ele>
   </trkpt>
   <trkpt lat="52.07151" lon="4.32497">
    <ele>2.4000000000000004</ele>
   </trkpt>
   <trkpt lat="52.071250000000006" lon="4.32512">
    <ele>1.9600000000000004</ele>
   </trkpt>
   <trkpt lat="52.070800000000006" lon="4.325550000000001">
    <ele>2.0700000000000003</ele>
   </trkpt>
   <trkpt lat="52.070730000000005" lon="4.32565">
    <ele>2.0700000000000003</ele>
   </trkpt>
   <trkpt lat="52.07054" lon="4.32585">
    <ele>2.33</ele>
   </trkpt>
   <trkpt lat="52.07023" lon="4.32613">
    <ele>2.5900000000000003</ele>
   </trkpt>
   <trkpt lat="52.07020000000001" lon="4.32608">
    <ele>2.5900000000000003</ele>
   </trkpt>
   <trkpt lat="52.07014" lon="4.3261400000000005">
    <ele>2.6400000000000006</ele>
   </trkpt>
   <trkpt lat="52.07011000000001" lon="4.32594">
    <ele>3.08</ele>
   </trkpt>
   <trkpt lat="52.06969" lon="4.32631">
    <ele>3.16</ele>
   </trkpt>
   <trkpt lat="52.06967" lon="4.32627">
    <ele>3.16</ele>
   </trkpt>
   <trkpt lat="52.06942" lon="4.3265">
    <ele>3.16</ele>
   </trkpt>
   <trkpt lat="52.06881500096346" lon="4.326985006596626">
    <ele>3.16</ele>
   </trkpt>
   <trkpt lat="52.06821000000001" lon="4.32747">
    <ele>3.4200000000000004</ele>
   </trkpt>
   <trkpt lat="52.06780500071637" lon="4.327890003840314">
    <ele>4.12</ele>
   </trkpt>
   <trkpt lat="52.067400000000006" lon="4.32831">
    <ele>4.760000000000001</ele>
   </trkpt>
   <trkpt lat="52.067080000000004" lon="4.32862">
    <ele>4.24</ele>
   </trkpt>
   <trkpt lat="52.066790000000005" lon="4.328880000000001">
    <ele>3.49</ele>
   </trkpt>
   <trkpt lat="52.066610000000004" lon="4.329000000000001">
    <ele>2.8100000000000005</ele>
   </trkpt>
   <trkpt lat="52.06680000000001" lon="4.32941">
    <ele>2.45</ele>
   </trkpt>
   <trkpt lat="52.067195004301524" lon="4.3304199910284735">
    <ele>2.47</ele>
   </trkpt>
   <trkpt lat="52.06759" lon="4.33143">
    <ele>2.3000000000000003</ele>
   </trkpt>
   <trkpt lat="52.06785000000001" lon="4.3319600000000005">
    <ele>2.7</ele>
   </trkpt>
   <trkpt lat="52.06761" lon="4.33222">
    <ele>2.5900000000000003</ele>
   </trkpt>
   <trkpt lat="52.06749000000001" lon="4.33303">
    <ele>2.2600000000000002</ele>
   </trkpt>
   <trkpt lat="52.067460000000004" lon="4.3331100000000005">
    <ele>2.2600000000000002</ele>
   </trkpt>
   <trkpt lat="52.067220000000006" lon="4.33337">
    <ele>2.2600000000000002</ele>
   </trkpt>
   <trkpt lat="52.066900000000004" lon="4.333690000000001">
    <ele>2.04</ele>
   </trkpt>
   <trkpt lat="52.06678" lon="4.334020000000001">
    <ele>2.02</ele>
   </trkpt>
   <trkpt lat="52.066700000000004" lon="4.33412">
    <ele>2.02</ele>
   </trkpt>
   <trkpt lat="52.06602500303432" lon="4.334955012516768">
    <ele>2.0500000000000003</ele>
   </trkpt>
   <trkpt lat="52.06535" lon="4.33579">
    <ele>2.02</ele>
   </trkpt>
   <trkpt lat="52.06466401178402" lon="4.336624051228066">
    <ele>1.98</ele>
   </trkpt>
   <trkpt lat="52.06397801768125" lon="4.337458076834152">
    <ele>1.9400000000000002</ele>
   </trkpt>
   <trkpt lat="52.06329201769202" lon="4.338292076819457">
    <ele>2.0500000000000003</ele>
   </trkpt>
   <trkpt lat="52.06260601181667" lon="4.339126051185182">
    <ele>1.98</ele>
   </trkpt>
   <trkpt lat="52.06192000000001" lon="4.3399600000000005">
    <ele>2.15</ele>
   </trkpt>
   <trkpt lat="52.06175" lon="4.34023">
    <ele>2.15</ele>
   </trkpt>
   <trkpt lat="52.06136000000001" lon="4.34091">
    <ele>2.0900000000000003</ele>
   </trkpt>
   <trkpt lat="52.060930000000006" lon="4.34159">
    <ele>2.14</ele>
   </trkpt>
   <trkpt lat="52.060480000000005" lon="4.342230000000001">
    <ele>2.19</ele>
   </trkpt>
   <trkpt lat="52.05990500245782" lon="4.34299500987233">
    <ele>2.17</ele>
   </trkpt>
   <trkpt lat="52.05933" lon="4.3437600000000005">
    <ele>3.45</ele>
   </trkpt>
   <trkpt lat="52.05928" lon="4.34396">
    <ele>3.33</ele>
   </trkpt>
   <trkpt lat="52.059180000000005" lon="4.34421">
    <ele>2.86</ele>
   </trkpt>
   <trkpt lat="52.05895" lon="4.34463">
    <ele>2.5</ele>
   </trkpt>
   <trkpt lat="52.05888" lon="4.344740000000001">
    <ele>2.31</ele>
   </trkpt>
   <trkpt lat="52.05828" lon="4.345400000000001">
    <ele>2.12</ele>
   </trkpt>
   <trkpt lat="52.05774500139866" lon="4.345985007060279">
    <ele>1.99</ele>
   </trkpt>
   <trkpt lat="52.057210000000005" lon="4.346570000000001">
    <ele>2.12</ele>
   </trkpt>
   <trkpt lat="52.05697000000001" lon="4.346780000000001">
    <ele>2.1</ele>
   </trkpt>
   <trkpt lat="52.05695000000001" lon="4.34679">
    <ele>2.1</ele>
   </trkpt>
   <trkpt lat="52.05666" lon="4.34696">
    <ele>2.15</ele>
   </trkpt>
   <trkpt lat="52.05644" lon="4.347">
    <ele>2.1300000000000003</ele>
   </trkpt>
   <trkpt lat="52.05622" lon="4.34696">
    <ele>2.17</ele>
   </trkpt>
   <trkpt lat="52.056050000000006" lon="4.34689">
    <ele>2.16</ele>
   </trkpt>
   <trkpt lat="52.05592000000001" lon="4.34679">
    <ele>2.16</ele>
   </trkpt>
   <trkpt lat="52.05576000000001" lon="4.346640000000001">
    <ele>2.18</ele>
   </trkpt>
   <trkpt lat="52.055090010410154" lon="4.345734959300322">
    <ele>2.12</ele>
   </trkpt>
   <trkpt lat="52.05442001388819" lon="4.3448299457456745">
    <ele>2.1</ele>
   </trkpt>
   <trkpt lat="52.05375001043448" lon="4.3439249593348706">
    <ele>2.0100000000000002</ele>
   </trkpt>
   <trkpt lat="52.05308" lon="4.34302">
    <ele>1.84</ele>
   </trkpt>
   <trkpt lat="52.05261" lon="4.342230000000001">
    <ele>1.86</ele>
   </trkpt>
   <trkpt lat="52.0525" lon="4.34241">
    <ele>1.61</ele>
   </trkpt>
   <trkpt lat="52.05238000000001" lon="4.34272">
    <ele>1.3900000000000001</ele>
   </trkpt>
   <trkpt lat="52.05234" lon="4.34279">
    <ele>1.25</ele>
   </trkpt>
   <trkpt lat="52.052260000000004" lon="4.3428700000000005">
    <ele>1.25</ele>
   </trkpt>
   <trkpt lat="52.052170000000004" lon="4.342890000000001">
    <ele>1.2000000000000002</ele>
   </trkpt>
   <trkpt lat="52.05199" lon="4.342840000000001">
    <ele>1.2300000000000002</ele>
   </trkpt>
   <trkpt lat="52.051840000000006" lon="4.342700000000001">
    <ele>1.41</ele>
   </trkpt>
   <trkpt lat="52.051790000000004" lon="4.34262">
    <ele>1.41</ele>
   </trkpt>
   <trkpt lat="52.05178" lon="4.342510000000001">
    <ele>1.8200000000000003</ele>
   </trkpt>
   <trkpt lat="52.05180000000001" lon="4.34241">
    <ele>1.8200000000000003</ele>
   </trkpt>
   <trkpt lat="52.05169000000001" lon="4.342440000000001">
    <ele>1.86</ele>
   </trkpt>
   <trkpt lat="52.05145" lon="4.3424000000000005">
    <ele>1.86</ele>
   </trkpt>
   <trkpt lat="52.051" lon="4.34239">
    <ele>1.9100000000000001</ele>
   </trkpt>
   <trkpt lat="52.05015666684714" lon="4.342513337981194">
    <ele>1.85</ele>
   </trkpt>
   <trkpt lat="52.049313333565536" lon="4.342636671306858">
    <ele>1.85</ele>
   </trkpt>
   <trkpt lat="52.04847" lon="4.34276">
    <ele>2.75</ele>
   </trkpt>
   <trkpt lat="52.04838" lon="4.34274">
    <ele>2.75</ele>
   </trkpt>
   <trkpt lat="52.048260000000006" lon="4.342650000000001">
    <ele>2.9400000000000004</ele>
   </trkpt>
   <trkpt lat="52.048170000000006" lon="4.34264">
    <ele>2.9400000000000004</ele>
   </trkpt>
   <trkpt lat="52.047990000000006" lon="4.34276">
    <ele>2.83</ele>
   </trkpt>
   <trkpt lat="52.04719000009106" lon="4.34288000214369">
    <ele>2.69</ele>
   </trkpt>
   <trkpt lat="52.04639" lon="4.343">
    <ele>2.4200000000000004</ele>
   </trkpt>
   <trkpt lat="52.046350000000004" lon="4.342980000000001">
    <ele>2.4200000000000004</ele>
   </trkpt>
   <trkpt lat="52.04618000000001" lon="4.34299">
    <ele>2.06</ele>
   </trkpt>
   <trkpt lat="52.045880000000004" lon="4.34292">
    <ele>2.0100000000000002</ele>
   </trkpt>
   <trkpt lat="52.04561" lon="4.34293">
    <ele>2.2700000000000005</ele>
   </trkpt>
   <trkpt lat="52.04552" lon="4.342890000000001">
    <ele>2.39</ele>
   </trkpt>
   <trkpt lat="52.045460000000006" lon="4.34286">
    <ele>2.39</ele>
   </trkpt>
   <trkpt lat="52.04527" lon="4.342580000000001">
    <ele>2.2900000000000005</ele>
   </trkpt>
   <trkpt lat="52.04504000000001" lon="4.3423300000000005">
    <ele>1.9000000000000001</ele>
   </trkpt>
   <trkpt lat="52.04467" lon="4.3429400000000005">
    <ele>1.08</ele>
   </trkpt>
   <trkpt lat="52.04449" lon="4.343190000000001">
    <ele>1.1500000000000001</ele>
   </trkpt>
   <trkpt lat="52.044290000000004" lon="4.34337">
    <ele>1.2200000000000002</ele>
   </trkpt>
   <trkpt lat="52.044090000000004" lon="4.343450000000001">
    <ele>1.33</ele>
   </trkpt>
   <trkpt lat="52.04403000000001" lon="4.34349">
    <ele>1.33</ele>
   </trkpt>
   <trkpt lat="52.0434300000157" lon="4.343560000940303">
    <ele>1.01</ele>
   </trkpt>
   <trkpt lat="52.04283" lon="4.34363">
    <ele>1.09</ele>
   </trkpt>
   <trkpt lat="52.04227" lon="4.34372">
    <ele>1.25</ele>
   </trkpt>
   <trkpt lat="52.04207" lon="4.34368">
    <ele>1.28</ele>
   </trkpt>
   <trkpt lat="52.04189" lon="4.34358">
    <ele>1.3900000000000001</ele>
   </trkpt>
   <trkpt lat="52.04186000000001" lon="4.3437">
    <ele>1.3800000000000001</ele>
   </trkpt>
   <trkpt lat="52.04177000000001" lon="4.34384">
    <ele>1.3900000000000001</ele>
   </trkpt>
   <trkpt lat="52.04171" lon="4.343870000000001">
    <ele>1.3900000000000001</ele>
   </trkpt>
   <trkpt lat="52.041500000000006" lon="4.34391">
    <ele>1.4600000000000002</ele>
   </trkpt>
   <trkpt lat="52.040890000097434" lon="4.344010001355665">
    <ele>1.51</ele>
   </trkpt>
   <trkpt lat="52.04028" lon="4.344110000000001">
    <ele>1.3900000000000001</ele>
   </trkpt>
   <trkpt lat="52.04018000000001" lon="4.34419">
    <ele>1.3900000000000001</ele>
   </trkpt>
   <trkpt lat="52.03971000000001" lon="4.34428">
    <ele>1.34</ele>
   </trkpt>
   <trkpt lat="52.03887" lon="4.344410000000001">
    <ele>1.4000000000000001</ele>
   </trkpt>
   <trkpt lat="52.03877000000001" lon="4.344410000000001">
    <ele>1.42</ele>
   </trkpt>
   <trkpt lat="52.03842" lon="4.344270000000001">
    <ele>1.36</ele>
   </trkpt>
   <trkpt lat="52.03824" lon="4.344320000000001">
    <ele>1.36</ele>
   </trkpt>
   <trkpt lat="52.037960000000005" lon="4.3445800000000006">
    <ele>1.36</ele>
   </trkpt>
   <trkpt lat="52.037670000000006" lon="4.344650000000001">
    <ele>1.37</ele>
   </trkpt>
   <trkpt lat="52.03689500003087" lon="4.344770002084963">
    <ele>1.3900000000000001</ele>
   </trkpt>
   <trkpt lat="52.036120000000004" lon="4.34489">
    <ele>1.36</ele>
   </trkpt>
   <trkpt lat="52.03595000000001" lon="4.34496">
    <ele>1.37</ele>
   </trkpt>
   <trkpt lat="52.035720000000005" lon="4.3451">
    <ele>1.33</ele>
   </trkpt>
   <trkpt lat="52.035590000000006" lon="4.34513">
    <ele>1.33</ele>
   </trkpt>
   <trkpt lat="52.035250000000005" lon="4.3451200000000005">
    <ele>1.41</ele>
   </trkpt>
   <trkpt lat="52.03455" lon="4.3452">
    <ele>1.1900000000000002</ele>
   </trkpt>
   <trkpt lat="52.03423" lon="4.34522">
    <ele>1.24</ele>
   </trkpt>
   <trkpt lat="52.033480000000004" lon="4.345350000000001">
    <ele>1.2300000000000002</ele>
   </trkpt>
   <trkpt lat="52.032830000000004" lon="4.34553">
    <ele>1.24</ele>
   </trkpt>
   <trkpt lat="52.03212250022938" lon="4.345655005928213">
    <ele>1.2100000000000002</ele>
   </trkpt>
   <trkpt lat="52.03141500032646" lon="4.345780007900488">
    <ele>1.2300000000000002</ele>
   </trkpt>
   <trkpt lat="52.0307075002913" lon="4.345905005917047">
    <ele>1.25</ele>
   </trkpt>
   <trkpt lat="52.03" lon="4.346030000000001">
    <ele>1.16</ele>
   </trkpt>
   <trkpt lat="52.029500000000006" lon="4.346150000000001">
    <ele>1.1300000000000001</ele>
   </trkpt>
   <trkpt lat="52.02872500002942" lon="4.346235001473245">
    <ele>1.16</ele>
   </trkpt>
   <trkpt lat="52.027950000000004" lon="4.34632">
    <ele>1.16</ele>
   </trkpt>
   <trkpt lat="52.02743500001408" lon="4.346415001098475">
    <ele>1.2000000000000002</ele>
   </trkpt>
   <trkpt lat="52.026920000000004" lon="4.34651">
    <ele>1.4700000000000002</ele>
   </trkpt>
   <trkpt lat="52.02676" lon="4.3465300000000004">
    <ele>1.41</ele>
   </trkpt>
   <trkpt lat="52.02666000000001" lon="4.34659">
    <ele>1.16</ele>
   </trkpt>
   <trkpt lat="52.02624" lon="4.3466700000000005">
    <ele>1.12</ele>
   </trkpt>
   <trkpt lat="52.026" lon="4.346710000000001">
    <ele>0.99</ele>
   </trkpt>
   <trkpt lat="52.02595" lon="4.346690000000001">
    <ele>0.99</ele>
   </trkpt>
   <trkpt lat="52.02533000019853" lon="4.3467900013611">
    <ele>0.99</ele>
   </trkpt>
   <trkpt lat="52.024710000000006" lon="4.34689">
    <ele>0.99</ele>
   </trkpt>
   <trkpt lat="52.02420499983943" lon="4.346990001169291">
    <ele>0.99</ele>
   </trkpt>
   <trkpt lat="52.023700000000005" lon="4.347090000000001">
    <ele>0.9</ele>
   </trkpt>
   <trkpt lat="52.02344" lon="4.34719">
    <ele>0.9500000000000001</ele>
   </trkpt>
   <trkpt lat="52.02337000000001" lon="4.347250000000001">
    <ele>0.93</ele>
   </trkpt>
   <trkpt lat="52.02275" lon="4.347530000000001">
    <ele>1.53</ele>
   </trkpt>
   <trkpt lat="52.022670000000005" lon="4.347530000000001">
    <ele>1.53</ele>
   </trkpt>
   <trkpt lat="52.02253" lon="4.34741">
    <ele>1.7000000000000002</ele>
   </trkpt>
   <trkpt lat="52.02237" lon="4.3476300000000005">
    <ele>1.6600000000000001</ele>
   </trkpt>
   <trkpt lat="52.02208" lon="4.3478200000000005">
    <ele>1.2300000000000002</ele>
   </trkpt>
   <trkpt lat="52.02156" lon="4.348070000000001">
    <ele>1.12</ele>
   </trkpt>
   <trkpt lat="52.02129000000001" lon="4.34818">
    <ele>0.8700000000000001</ele>
   </trkpt>
   <trkpt lat="52.02121" lon="4.348190000000001">
    <ele>0.8700000000000001</ele>
   </trkpt>
   <trkpt lat="52.021170000000005" lon="4.34818">
    <ele>0.8700000000000001</ele>
   </trkpt>
   <trkpt lat="52.020830000000004" lon="4.3478900000000005">
    <ele>1.03</ele>
   </trkpt>
   <trkpt lat="52.02075000000001" lon="4.34785">
    <ele>1.2000000000000002</ele>
   </trkpt>
   <trkpt lat="52.02067" lon="4.34785">
    <ele>1.2000000000000002</ele>
   </trkpt>
   <trkpt lat="52.02067" lon="4.347860000000001">
    <ele>1.2000000000000002</ele>
   </trkpt>
   <trkpt lat="52.02055000000001" lon="4.347930000000001">
    <ele>1.2100000000000002</ele>
   </trkpt>
   <trkpt lat="52.02051" lon="4.348000000000001">
    <ele>0.9700000000000001</ele>
   </trkpt>
   <trkpt lat="52.020480000000006" lon="4.3481000000000005">
    <ele>0.9700000000000001</ele>
   </trkpt>
   <trkpt lat="52.020450000000004" lon="4.3484300000000005">
    <ele>0.6100000000000001</ele>
   </trkpt>
   <trkpt lat="52.02037000000001" lon="4.34874">
    <ele>0.5700000000000001</ele>
   </trkpt>
   <trkpt lat="52.0202" lon="4.349080000000001">
    <ele>0.59</ele>
   </trkpt>
   <trkpt lat="52.02009" lon="4.349200000000001">
    <ele>0.71</ele>
   </trkpt>
   <trkpt lat="52.01938500105852" lon="4.3496900076931455">
    <ele>0.89</ele>
   </trkpt>
   <trkpt lat="52.01868" lon="4.35018">
    <ele>1.1900000000000002</ele>
   </trkpt>
   <trkpt lat="52.017970000000005" lon="4.35066">
    <ele>1.79</ele>
   </trkpt>
   <trkpt lat="52.01789" lon="4.35074">
    <ele>2.22</ele>
   </trkpt>
   <trkpt lat="52.01787" lon="4.35081">
    <ele>2.22</ele>
   </trkpt>
   <trkpt lat="52.017900000000004" lon="4.35116">
    <ele>2.2700000000000005</ele>
   </trkpt>
   <trkpt lat="52.018010000000004" lon="4.35163">
    <ele>1.98</ele>
   </trkpt>
   <trkpt lat="52.018010000000004" lon="4.351780000000001">
    <ele>1.86</ele>
   </trkpt>
   <trkpt lat="52.01796" lon="4.35196">
    <ele>1.7400000000000002</ele>
   </trkpt>
   <trkpt lat="52.01787" lon="4.35214">
    <ele>1.6900000000000002</ele>
   </trkpt>
   <trkpt lat="52.01767" lon="4.352650000000001">
    <ele>1.77</ele>
   </trkpt>
   <trkpt lat="52.01753" lon="4.35294">
    <ele>1.86</ele>
   </trkpt>
   <trkpt lat="52.01747" lon="4.353140000000001">
    <ele>1.35</ele>
   </trkpt>
   <trkpt lat="52.01747" lon="4.35329">
    <ele>1.35</ele>
   </trkpt>
   <trkpt lat="52.017500000000005" lon="4.35339">
    <ele>1.31</ele>
   </trkpt>
   <trkpt lat="52.017450000000004" lon="4.35341">
    <ele>1.79</ele>
   </trkpt>
   <trkpt lat="52.017320000000005" lon="4.353210000000001">
    <ele>2.0700000000000003</ele>
   </trkpt>
   <trkpt lat="52.01728000000001" lon="4.35324">
    <ele>2.0700000000000003</ele>
   </trkpt>
   <trkpt lat="52.0172" lon="4.35322">
    <ele>2.04</ele>
   </trkpt>
   <trkpt lat="52.017100000000006" lon="4.353140000000001">
    <ele>1.97</ele>
   </trkpt>
   <trkpt lat="52.017070000000004" lon="4.35308">
    <ele>1.97</ele>
   </trkpt>
   <trkpt lat="52.01695" lon="4.353190000000001">
    <ele>1.67</ele>
   </trkpt>
   <trkpt lat="52.01650000056916" lon="4.353535003420156">
    <ele>1.79</ele>
   </trkpt>
   <trkpt lat="52.01605000000001" lon="4.35388">
    <ele>1.85</ele>
   </trkpt>
   <trkpt lat="52.015620000000006" lon="4.3542000000000005">
    <ele>2.36</ele>
   </trkpt>
   <trkpt lat="52.01549000000001" lon="4.35428">
    <ele>2.5100000000000002</ele>
   </trkpt>
   <trkpt lat="52.015420000000006" lon="4.354100000000001">
    <ele>2.52</ele>
   </trkpt>
   <trkpt lat="52.01503000070924" lon="4.354510003576446">
    <ele>1.7200000000000002</ele>
   </trkpt>
   <trkpt lat="52.01464000000001" lon="4.354920000000001">
    <ele>1.81</ele>
   </trkpt>
   <trkpt lat="52.01393" lon="4.3556">
    <ele>2.1</ele>
   </trkpt>
   <trkpt lat="52.01343000000001" lon="4.35602">
    <ele>2.35</ele>
   </trkpt>
   <trkpt lat="52.012980000000006" lon="4.35635">
    <ele>3.1</ele>
   </trkpt>
   <trkpt lat="52.01256000000001" lon="4.35663">
    <ele>3.3000000000000003</ele>
   </trkpt>
   <trkpt lat="52.0120550006785" lon="4.357010004238181">
    <ele>2.67</ele>
   </trkpt>
   <trkpt lat="52.01155000000001" lon="4.3573900000000005">
    <ele>3.3000000000000003</ele>
   </trkpt>
   <trkpt lat="52.01115000000001" lon="4.35771">
    <ele>3.3000000000000003</ele>
   </trkpt>
   <trkpt lat="52.010760000000005" lon="4.35799">
    <ele>2.84</ele>
   </trkpt>
   <trkpt lat="52.01048" lon="4.35815">
    <ele>2.48</ele>
   </trkpt>
   <trkpt lat="52.010200000000005" lon="4.35724">
    <ele>2.65</ele>
   </trkpt>
   <trkpt lat="52.01008" lon="4.35703">
    <ele>2.5900000000000003</ele>
   </trkpt>
   <trkpt lat="52.00979000167904" lon="4.356404996004301">
    <ele>1.42</ele>
   </trkpt>
   <trkpt lat="52.0095" lon="4.35578">
    <ele>2.5</ele>
   </trkpt>
   <trkpt lat="52.00932" lon="4.355930000000001">
    <ele>2.5700000000000003</ele>
   </trkpt>
   <trkpt lat="52.00867" lon="4.35655">
    <ele>2.39</ele>
   </trkpt>
   <trkpt lat="52.008410000000005" lon="4.356800000000001">
    <ele>2.4400000000000004</ele>
   </trkpt>
   <trkpt lat="52.008120000000005" lon="4.3571100000000005">
    <ele>2.7</ele>
   </trkpt>
   <trkpt lat="52.00767500065573" lon="4.357500003867666">
    <ele>2.9800000000000004</ele>
   </trkpt>
   <trkpt lat="52.00723000000001" lon="4.35789">
    <ele>3.0300000000000002</ele>
   </trkpt>
   <trkpt lat="52.00692" lon="4.35806">
    <ele>2.54</ele>
   </trkpt>
   <trkpt lat="52.006620000000005" lon="4.35834">
    <ele>2.45</ele>
   </trkpt>
   <trkpt lat="52.006100000610125" lon="4.358770005138912">
    <ele>2.4600000000000004</ele>
   </trkpt>
   <trkpt lat="52.00558" lon="4.3592">
    <ele>3.0700000000000003</ele>
   </trkpt>
   <trkpt lat="52.00544000000001" lon="4.359660000000001">
    <ele>3.22</ele>
   </trkpt>
   <trkpt lat="52.00545" lon="4.35984">
    <ele>3.2600000000000002</ele>
   </trkpt>
   <trkpt lat="52.005300000000005" lon="4.35996">
    <ele>2.7</ele>
   </trkpt>
   <trkpt lat="52.00498" lon="4.35951">
    <ele>2.87</ele>
   </trkpt>
   <trkpt lat="52.00484" lon="4.35934">
    <ele>2.6100000000000003</ele>
   </trkpt>
   <trkpt lat="52.00471" lon="4.35963">
    <ele>1.6</ele>
   </trkpt>
   <trkpt lat="52.00468000000001" lon="4.36007">
    <ele>1.54</ele>
   </trkpt>
   <trkpt lat="52.00453" lon="4.361260000000001">
    <ele>1.43</ele>
   </trkpt>
   <trkpt lat="52.00450000000001" lon="4.361350000000001">
    <ele>1.34</ele>
   </trkpt>
   <trkpt lat="52.00437" lon="4.3615">
    <ele>1.34</ele>
   </trkpt>
   <trkpt lat="52.003870000000006" lon="4.36177">
    <ele>1.31</ele>
   </trkpt>
   <trkpt lat="52.0033" lon="4.36204">
    <ele>1.24</ele>
   </trkpt>
   <trkpt lat="52.002460000000006" lon="4.362550000000001">
    <ele>1.1500000000000001</ele>
   </trkpt>
   <trkpt lat="52.002120000000005" lon="4.362780000000001">
    <ele>1.16</ele>
   </trkpt>
   <trkpt lat="52.00163500050972" lon="4.363155004129401">
    <ele>1.18</ele>
   </trkpt>
   <trkpt lat="52.00115" lon="4.363530000000001">
    <ele>0.9400000000000001</ele>
   </trkpt>
   <trkpt lat="52.00072" lon="4.3638900000000005">
    <ele>0.9700000000000001</ele>
   </trkpt>
   <trkpt lat="52.00000000000001" lon="4.364470000000001">
    <ele>0.8200000000000001</ele>
   </trkpt>
   <trkpt lat="51.99932000234798" lon="4.364993349210206">
    <ele>0.62</ele>
   </trkpt>
   <trkpt lat="51.99864000237683" lon="4.365516682521036">
    <ele>0.7300000000000001</ele>
   </trkpt>
   <trkpt lat="51.997960000000006" lon="4.36604">
    <ele>0.77</ele>
   </trkpt>
   <trkpt lat="51.997190000835104" lon="4.366510008144869">
    <ele>0.68</ele>
   </trkpt>
   <trkpt lat="51.99642000000001" lon="4.366980000000001">
    <ele>0.58</ele>
   </trkpt>
   <trkpt lat="51.99582000127928" lon="4.367363343585448">
    <ele>0.6000000000000001</ele>
   </trkpt>
   <trkpt lat="51.995220001314216" lon="4.367746676896284">
    <ele>0.67</ele>
   </trkpt>
   <trkpt lat="51.994620000000005" lon="4.368130000000001">
    <ele>0.76</ele>
   </trkpt>
   <trkpt lat="51.99456000000001" lon="4.368200000000001">
    <ele>0.78</ele>
   </trkpt>
   <trkpt lat="51.99439" lon="4.368600000000001">
    <ele>0.7400000000000001</ele>
   </trkpt>
   <trkpt lat="51.9943" lon="4.36869">
    <ele>0.59</ele>
   </trkpt>
   <trkpt lat="51.99409000000001" lon="4.3688400000000005">
    <ele>0.59</ele>
   </trkpt>
   <trkpt lat="51.99365" lon="4.369140000000001">
    <ele>0.65</ele>
   </trkpt>
   <trkpt lat="51.99354" lon="4.36917">
    <ele>0.8600000000000001</ele>
   </trkpt>
   <trkpt lat="51.993460000000006" lon="4.3691">
    <ele>0.8600000000000001</ele>
   </trkpt>
   <trkpt lat="51.99342000000001" lon="4.3689800000000005">
    <ele>0.92</ele>
   </trkpt>
   <trkpt lat="51.993270003680735" lon="4.3680499970008295">
    <ele>0.52</ele>
   </trkpt>
   <trkpt lat="51.993120000000005" lon="4.367120000000001">
    <ele>0.54</ele>
   </trkpt>
   <trkpt lat="51.993080000000006" lon="4.36702">
    <ele>0.54</ele>
   </trkpt>
   <trkpt lat="51.99302" lon="4.36697">
    <ele>0.54</ele>
   </trkpt>
   <trkpt lat="51.992940000000004" lon="4.366960000000001">
    <ele>0.54</ele>
   </trkpt>
   <trkpt lat="51.99210000000001" lon="4.36735">
    <ele>0.89</ele>
   </trkpt>
   <trkpt lat="51.991960000000006" lon="4.367290000000001">
    <ele>0.9800000000000002</ele>
   </trkpt>
   <trkpt lat="51.99179" lon="4.36735">
    <ele>1.2000000000000002</ele>
   </trkpt>
   <trkpt lat="51.99161" lon="4.36735">
    <ele>1.4600000000000002</ele>
   </trkpt>
   <trkpt lat="51.991510000000005" lon="4.367430000000001">
    <ele>1.5700000000000003</ele>
   </trkpt>
   <trkpt lat="51.99159" lon="4.367730000000001">
    <ele>1.56</ele>
   </trkpt>
   <trkpt lat="51.99147000000001" lon="4.36782">
    <ele>1.33</ele>
   </trkpt>
   <trkpt lat="51.991040000000005" lon="4.36805">
    <ele>1.1</ele>
   </trkpt>
   <trkpt lat="51.99101" lon="4.36821">
    <ele>1.1</ele>
   </trkpt>
   <trkpt lat="51.990990000000004" lon="4.368270000000001">
    <ele>0.9500000000000001</ele>
   </trkpt>
   <trkpt lat="51.99043500046996" lon="4.368550003400694">
    <ele>0.68</ele>
   </trkpt>
   <trkpt lat="51.98988000000001" lon="4.36883">
    <ele>0.9500000000000001</ele>
   </trkpt>
   <trkpt lat="51.99003000225302" lon="4.3695599975386">
    <ele>0.6100000000000001</ele>
   </trkpt>
   <trkpt lat="51.99018" lon="4.370290000000001">
    <ele>0.52</ele>
   </trkpt>
   <trkpt lat="51.990370000000006" lon="4.371300000000001">
    <ele>0.7400000000000001</ele>
   </trkpt>
   <trkpt lat="51.99043" lon="4.37131">
    <ele>0.7400000000000001</ele>
   </trkpt>
   <trkpt lat="51.990390000000005" lon="4.3714200000000005">
    <ele>0.8200000000000001</ele>
   </trkpt>
   <trkpt lat="51.990230000000004" lon="4.37153">
    <ele>0.8200000000000001</ele>
   </trkpt>
   <trkpt lat="51.989700000000006" lon="4.372170000000001">
    <ele>0.6900000000000001</ele>
   </trkpt>
   <trkpt lat="51.98937" lon="4.372470000000001">
    <ele>0.59</ele>
   </trkpt>
   <trkpt lat="51.9889" lon="4.37283">
    <ele>0.45</ele>
   </trkpt>
   <trkpt lat="51.98823666926189" lon="4.373383349723291">
    <ele>0.63</ele>
   </trkpt>
   <trkpt lat="51.98757333593091" lon="4.373936683054355">
    <ele>0.55</ele>
   </trkpt>
   <trkpt lat="51.98691" lon="4.374490000000001">
    <ele>0.62</ele>
   </trkpt>
   <trkpt lat="51.98653" lon="4.374770000000001">
    <ele>0.59</ele>
   </trkpt>
   <trkpt lat="51.985910000000004" lon="4.37513">
    <ele>0.27</ele>
   </trkpt>
   <trkpt lat="51.985600000000005" lon="4.37527">
    <ele>0.22</ele>
   </trkpt>
   <trkpt lat="51.98516000000001" lon="4.375450000000001">
    <ele>0.17</ele>
   </trkpt>
   <trkpt lat="51.984370000000006" lon="4.37603">
    <ele>0.060000000000000005</ele>
   </trkpt>
   <trkpt lat="51.98361500173771" lon="4.376675010892608">
    <ele>0.07</ele>
   </trkpt>
   <trkpt lat="51.98286" lon="4.37732">
    <ele>0.060000000000000005</ele>
   </trkpt>
   <trkpt lat="51.982780000000005" lon="4.377350000000001">
    <ele>0.060000000000000005</ele>
   </trkpt>
   <trkpt lat="51.9827" lon="4.37734">
    <ele>0.060000000000000005</ele>
   </trkpt>
   <trkpt lat="51.982620000000004" lon="4.376930000000001">
    <ele>-0.55</ele>
   </trkpt>
   <trkpt lat="51.982440000000004" lon="4.37713">
    <ele>-1.58</ele>
   </trkpt>
   <trkpt lat="51.98221" lon="4.37732">
    <ele>-1.9400000000000002</ele>
   </trkpt>
   <trkpt lat="51.982150000000004" lon="4.37732">
    <ele>-1.9400000000000002</ele>
   </trkpt>
   <trkpt lat="51.982130000000005" lon="4.37732">
    <ele>-1.9500000000000002</ele>
   </trkpt>
   <trkpt lat="51.98209000000001" lon="4.3773100000000005">
    <ele>-1.9500000000000002</ele>
   </trkpt>
   <trkpt lat="51.982020000000006" lon="4.37718">
    <ele>-2.2800000000000002</ele>
   </trkpt>
   <trkpt lat="51.981745003421224" lon="4.376284994600971">
    <ele>-2.17</ele>
   </trkpt>
   <trkpt lat="51.98147" lon="4.37539">
    <ele>-0.84</ele>
   </trkpt>
   <trkpt lat="51.98143" lon="4.37539">
    <ele>-0.84</ele>
   </trkpt>
   <trkpt lat="51.981260000000006" lon="4.37547">
    <ele>-0.88</ele>
   </trkpt>
   <trkpt lat="51.980810000000005" lon="4.3756200000000005">
    <ele>-1.1</ele>
   </trkpt>
   <trkpt lat="51.980430000000005" lon="4.37577">
    <ele>-1.1500000000000001</ele>
   </trkpt>
   <trkpt lat="51.98033" lon="4.3757600000000005">
    <ele>-1.1500000000000001</ele>
   </trkpt>
   <trkpt lat="51.979870000000005" lon="4.37506">
    <ele>-1.33</ele>
   </trkpt>
   <trkpt lat="51.97977" lon="4.37495">
    <ele>-1.24</ele>
   </trkpt>
   <trkpt lat="51.97931500213134" lon="4.37427999353434">
    <ele>-1.41</ele>
   </trkpt>
   <trkpt lat="51.978860000000005" lon="4.37361">
    <ele>-1.62</ele>
   </trkpt>
   <trkpt lat="51.978660000000005" lon="4.37345">
    <ele>-1.34</ele>
   </trkpt>
   <trkpt lat="51.978570000000005" lon="4.37342">
    <ele>-1.34</ele>
   </trkpt>
   <trkpt lat="51.978480000000005" lon="4.37343">
    <ele>-1.18</ele>
   </trkpt>
   <trkpt lat="51.97778000066" lon="4.373795005653123">
    <ele>-1.16</ele>
   </trkpt>
   <trkpt lat="51.97708" lon="4.374160000000001">
    <ele>-1.67</ele>
   </trkpt>
   <trkpt lat="51.97683000000001" lon="4.37432">
    <ele>-1.75</ele>
   </trkpt>
   <trkpt lat="51.97633500019327" lon="4.374555002615667">
    <ele>-2.14</ele>
   </trkpt>
   <trkpt lat="51.975840000000005" lon="4.37479">
    <ele>-2.14</ele>
   </trkpt>
   <trkpt lat="51.97552" lon="4.37481">
    <ele>-2.14</ele>
   </trkpt>
   <trkpt lat="51.97545" lon="4.37474">
    <ele>-2.14</ele>
   </trkpt>
   <trkpt lat="51.97536" lon="4.3746">
    <ele>-2.15</ele>
   </trkpt>
   <trkpt lat="51.97527" lon="4.3744000000000005">
    <ele>-2.19</ele>
   </trkpt>
   <trkpt lat="51.97502000000001" lon="4.373220000000001">
    <ele>-3.74</ele>
   </trkpt>
   <trkpt lat="51.97489" lon="4.372520000000001">
    <ele>-2.71</ele>
   </trkpt>
   <trkpt lat="51.97472334168288" lon="4.371526659233669">
    <ele>-2.4400000000000004</ele>
   </trkpt>
   <trkpt lat="51.974556675008955" lon="4.370533325857214">
    <ele>-1.7000000000000002</ele>
   </trkpt>
   <trkpt lat="51.97439000000001" lon="4.369540000000001">
    <ele>-1.93</ele>
   </trkpt>
   <trkpt lat="51.97424" lon="4.369730000000001">
    <ele>-1.93</ele>
   </trkpt>
   <trkpt lat="51.97355" lon="4.3704600000000005">
    <ele>-1.99</ele>
   </trkpt>
   <trkpt lat="51.97284500049521" lon="4.370820005691529">
    <ele>-2.74</ele>
   </trkpt>
   <trkpt lat="51.97214" lon="4.371180000000001">
    <ele>-2.65</ele>
   </trkpt>
   <trkpt lat="51.97192672343464" lon="4.369885506264134">
    <ele>-2.82</ele>
   </trkpt>
   <trkpt lat="51.971713432676964" lon="4.36859102485121">
    <ele>-2.56</ele>
   </trkpt>
   <trkpt lat="51.971500127727204" lon="4.367296555761837">
    <ele>-2.56</ele>
   </trkpt>
   <trkpt lat="51.97128680858564" lon="4.366002098996624">
    <ele>-2.5700000000000003</ele>
   </trkpt>
   <trkpt lat="51.971073475252474" lon="4.364707654556179">
    <ele>-2.82</ele>
   </trkpt>
   <trkpt lat="51.97086012772798" lon="4.363413222441108">
    <ele>-2.82</ele>
   </trkpt>
   <trkpt lat="51.97064676601241" lon="4.362118802652021">
    <ele>-2.97</ele>
   </trkpt>
   <trkpt lat="51.97043339010598" lon="4.360824395189525">
    <ele>-2.8000000000000003</ele>
   </trkpt>
   <trkpt lat="51.970220000000005" lon="4.35953">
    <ele>-2.48</ele>
   </trkpt>
   <trkpt lat="51.96943" lon="4.359870000000001">
    <ele>-2.47</ele>
   </trkpt>
   <trkpt lat="51.969120000000004" lon="4.3600200000000005">
    <ele>-2.45</ele>
   </trkpt>
   <trkpt lat="51.968270000000004" lon="4.360480000000001">
    <ele>-2.2800000000000002</ele>
   </trkpt>
   <trkpt lat="51.96757" lon="4.36089">
    <ele>-2.48</ele>
   </trkpt>
   <trkpt lat="51.96678600308936" lon="4.361318029955255">
    <ele>-2.65</ele>
   </trkpt>
   <trkpt lat="51.96600200462703" lon="4.361746044935745">
    <ele>-2.52</ele>
   </trkpt>
   <trkpt lat="51.96521800461309" lon="4.362174044942385">
    <ele>-2.58</ele>
   </trkpt>
   <trkpt lat="51.964434003047636" lon="4.362602029976094">
    <ele>-2.52</ele>
   </trkpt>
   <trkpt lat="51.96365" lon="4.36303">
    <ele>-2.9899999999999998</ele>
   </trkpt>
   <trkpt lat="51.96285600453376" lon="4.363548036709994">
    <ele>-2.9899999999999998</ele>
   </trkpt>
   <trkpt lat="51.96206200679452" lon="4.36406605506776">
    <ele>-2.9899999999999998</ele>
   </trkpt>
   <trkpt lat="51.96126800678245" lon="4.364584055074421">
    <ele>-2.73</ele>
   </trkpt>
   <trkpt lat="51.960474004497684" lon="4.3651020367310975">
    <ele>-2.65</ele>
   </trkpt>
   <trkpt lat="51.959680000000006" lon="4.365620000000001">
    <ele>-2.6400000000000006</ele>
   </trkpt>
   <trkpt lat="51.958875001194635" lon="4.366165009829152">
    <ele>-2.56</ele>
   </trkpt>
   <trkpt lat="51.958070000000006" lon="4.36671">
    <ele>-2.7</ele>
   </trkpt>
   <trkpt lat="51.958070000000006" lon="4.36669">
    <ele>-2.7</ele>
   </trkpt>
   <trkpt lat="51.95799" lon="4.36641">
    <ele>-2.8000000000000003</ele>
   </trkpt>
   <trkpt lat="51.957815002871854" lon="4.365589996911922">
    <ele>-2.97</ele>
   </trkpt>
   <trkpt lat="51.957640000000005" lon="4.36477">
    <ele>-3.1300000000000003</ele>
   </trkpt>
   <trkpt lat="51.95749000000001" lon="4.36378">
    <ele>-3.04</ele>
   </trkpt>
   <trkpt lat="51.95741" lon="4.363300000000001">
    <ele>-3.16</ele>
   </trkpt>
   <trkpt lat="51.957170000000005" lon="4.362290000000001">
    <ele>-3.1500000000000004</ele>
   </trkpt>
   <trkpt lat="51.95698000473316" lon="4.361229995364964">
    <ele>-2.8800000000000003</ele>
   </trkpt>
   <trkpt lat="51.956790000000005" lon="4.36017">
    <ele>-2.82</ele>
   </trkpt>
   <trkpt lat="51.95675000000001" lon="4.36001">
    <ele>-2.82</ele>
   </trkpt>
   <trkpt lat="51.956570000000006" lon="4.359640000000001">
    <ele>-2.82</ele>
   </trkpt>
   <trkpt lat="51.956500000000005" lon="4.35946">
    <ele>-2.82</ele>
   </trkpt>
   <trkpt lat="51.956300000000006" lon="4.358210000000001">
    <ele>-2.87</ele>
   </trkpt>
   <trkpt lat="51.956230000000005" lon="4.35787">
    <ele>-2.87</ele>
   </trkpt>
   <trkpt lat="51.95608000000001" lon="4.357360000000001">
    <ele>-2.82</ele>
   </trkpt>
   <trkpt lat="51.95593" lon="4.35691">
    <ele>-2.82</ele>
   </trkpt>
   <trkpt lat="51.955890000000004" lon="4.35672">
    <ele>-2.9800000000000004</ele>
   </trkpt>
   <trkpt lat="51.95572000000001" lon="4.35531">
    <ele>-2.9899999999999998</ele>
   </trkpt>
   <trkpt lat="51.955490000000005" lon="4.35402">
    <ele>-2.9800000000000004</ele>
   </trkpt>
   <trkpt lat="51.95534000000001" lon="4.35278">
    <ele>-2.82</ele>
   </trkpt>
   <trkpt lat="51.95515" lon="4.35174">
    <ele>-2.69</ele>
   </trkpt>
   <trkpt lat="51.955000000000005" lon="4.35118">
    <ele>-2.75</ele>
   </trkpt>
   <trkpt lat="51.954860000000004" lon="4.35055">
    <ele>-2.31</ele>
   </trkpt>
   <trkpt lat="51.954710000000006" lon="4.34954">
    <ele>-2.47</ele>
   </trkpt>
   <trkpt lat="51.9547" lon="4.34942">
    <ele>-2.4899999999999998</ele>
   </trkpt>
   <trkpt lat="51.954730000000005" lon="4.34917">
    <ele>-2.73</ele>
   </trkpt>
   <trkpt lat="51.95485000000001" lon="4.348870000000001">
    <ele>-2.97</ele>
   </trkpt>
   <trkpt lat="51.954890000000006" lon="4.34869">
    <ele>-2.9899999999999998</ele>
   </trkpt>
   <trkpt lat="51.95488" lon="4.34851">
    <ele>-2.9899999999999998</ele>
   </trkpt>
   <trkpt lat="51.95476000000001" lon="4.3477500000000004">
    <ele>-3.08</ele>
   </trkpt>
   <trkpt lat="51.954620000000006" lon="4.34691">
    <ele>-2.9899999999999998</ele>
   </trkpt>
   <trkpt lat="51.9545" lon="4.34649">
    <ele>-3.04</ele>
   </trkpt>
   <trkpt lat="51.95434" lon="4.346030000000001">
    <ele>-3.02</ele>
   </trkpt>
   <trkpt lat="51.95414" lon="4.3448">
    <ele>-2.47</ele>
   </trkpt>
   <trkpt lat="51.95394" lon="4.34396">
    <ele>-2.5700000000000003</ele>
   </trkpt>
   <trkpt lat="51.953720000000004" lon="4.34342">
    <ele>-2.65</ele>
   </trkpt>
   <trkpt lat="51.95335000000001" lon="4.34262">
    <ele>-2.84</ele>
   </trkpt>
   <trkpt lat="51.952995003583446" lon="4.3416949925712025">
    <ele>-2.4400000000000004</ele>
   </trkpt>
   <trkpt lat="51.95264" lon="4.34077">
    <ele>-2.14</ele>
   </trkpt>
   <trkpt lat="51.95241000176667" lon="4.340114996496674">
    <ele>-2.2</ele>
   </trkpt>
   <trkpt lat="51.952180000000006" lon="4.339460000000001">
    <ele>-2.6300000000000003</ele>
   </trkpt>
   <trkpt lat="51.9521" lon="4.33934">
    <ele>-2.68</ele>
   </trkpt>
   <trkpt lat="51.9519" lon="4.33919">
    <ele>-2.82</ele>
   </trkpt>
   <trkpt lat="51.951840000000004" lon="4.3391">
    <ele>-2.82</ele>
   </trkpt>
   <trkpt lat="51.951550000000005" lon="4.33854">
    <ele>-2.8100000000000005</ele>
   </trkpt>
   <trkpt lat="51.951150000000005" lon="4.3379">
    <ele>-2.6400000000000006</ele>
   </trkpt>
   <trkpt lat="51.95096" lon="4.33753">
    <ele>-2.31</ele>
   </trkpt>
   <trkpt lat="51.95071500149148" lon="4.336914996362602">
    <ele>-2.5</ele>
   </trkpt>
   <trkpt lat="51.95047" lon="4.3363000000000005">
    <ele>-2.31</ele>
   </trkpt>
   <trkpt lat="51.95018" lon="4.33539">
    <ele>-2.5300000000000002</ele>
   </trkpt>
   <trkpt lat="51.95009" lon="4.33514">
    <ele>-2.56</ele>
   </trkpt>
   <trkpt lat="51.950010000000006" lon="4.335030000000001">
    <ele>-2.56</ele>
   </trkpt>
   <trkpt lat="51.94977" lon="4.334820000000001">
    <ele>-2.84</ele>
   </trkpt>
   <trkpt lat="51.94966" lon="4.334700000000001">
    <ele>-2.84</ele>
   </trkpt>
   <trkpt lat="51.94942" lon="4.33427">
    <ele>-3.0</ele>
   </trkpt>
   <trkpt lat="51.94879" lon="4.33344">
    <ele>-2.82</ele>
   </trkpt>
   <trkpt lat="51.94858000000001" lon="4.33303">
    <ele>-2.82</ele>
   </trkpt>
   <trkpt lat="51.9483" lon="4.3325700000000005">
    <ele>-2.9000000000000004</ele>
   </trkpt>
   <trkpt lat="51.947920001190425" lon="4.33203499543608">
    <ele>-2.9600000000000004</ele>
   </trkpt>
   <trkpt lat="51.947540000000004" lon="4.3315">
    <ele>-3.17</ele>
   </trkpt>
   <trkpt lat="51.94742" lon="4.33094">
    <ele>-3.17</ele>
   </trkpt>
   <trkpt lat="51.946920000000006" lon="4.329750000000001">
    <ele>-3.35</ele>
   </trkpt>
   <trkpt lat="51.946540000000006" lon="4.32892">
    <ele>-3.21</ele>
   </trkpt>
   <trkpt lat="51.946200000000005" lon="4.32838">
    <ele>-3.3000000000000003</ele>
   </trkpt>
   <trkpt lat="51.94579" lon="4.3275500000000005">
    <ele>-3.16</ele>
   </trkpt>
   <trkpt lat="51.945570000000004" lon="4.32716">
    <ele>-3.34</ele>
   </trkpt>
   <trkpt lat="51.945530000000005" lon="4.32706">
    <ele>-3.33</ele>
   </trkpt>
   <trkpt lat="51.945330000000006" lon="4.326230000000001">
    <ele>-2.82</ele>
   </trkpt>
   <trkpt lat="51.945280000000004" lon="4.326110000000001">
    <ele>-2.8000000000000003</ele>
   </trkpt>
   <trkpt lat="51.94492000117727" lon="4.32560499608292">
    <ele>-3.0100000000000002</ele>
   </trkpt>
   <trkpt lat="51.94456" lon="4.3251">
    <ele>-3.5</ele>
   </trkpt>
   <trkpt lat="51.94438" lon="4.324680000000001">
    <ele>-3.4800000000000004</ele>
   </trkpt>
   <trkpt lat="51.944010000000006" lon="4.32361">
    <ele>-2.8800000000000003</ele>
   </trkpt>
   <trkpt lat="51.944010000000006" lon="4.32362">
    <ele>-2.8800000000000003</ele>
   </trkpt>
   <trkpt lat="51.94413" lon="4.323530000000001">
    <ele>-3.06</ele>
   </trkpt>
   <trkpt lat="51.9444" lon="4.323370000000001">
    <ele>-3.21</ele>
   </trkpt>
   <trkpt lat="51.944860000000006" lon="4.322620000000001">
    <ele>-2.5</ele>
   </trkpt>
   <trkpt lat="51.944970000000005" lon="4.3224800000000005">
    <ele>-2.5</ele>
   </trkpt>
   <trkpt lat="51.945190000000004" lon="4.3223400000000005">
    <ele>-2.31</ele>
   </trkpt>
   <trkpt lat="51.945350000000005" lon="4.32218">
    <ele>-2.31</ele>
   </trkpt>
   <trkpt lat="51.94549000000001" lon="4.321960000000001">
    <ele>-2.16</ele>
   </trkpt>
   <trkpt lat="51.94556000000001" lon="4.321890000000001">
    <ele>-1.79</ele>
   </trkpt>
   <trkpt lat="51.94602000037103" lon="4.321630002618715">
    <ele>-1.67</ele>
   </trkpt>
   <trkpt lat="51.94648" lon="4.32137">
    <ele>-1.51</ele>
   </trkpt>
   <trkpt lat="51.94704" lon="4.32115">
    <ele>-1.18</ele>
   </trkpt>
   <trkpt lat="51.94713" lon="4.32104">
    <ele>-0.9700000000000001</ele>
   </trkpt>
   <trkpt lat="51.947500000000005" lon="4.320860000000001">
    <ele>-0.64</ele>
   </trkpt>
   <trkpt lat="51.94769" lon="4.32064">
    <ele>-0.71</ele>
   </trkpt>
   <trkpt lat="51.94794" lon="4.3204400000000005">
    <ele>-0.93</ele>
   </trkpt>
   <trkpt lat="51.948370000000004" lon="4.32022">
    <ele>-1.33</ele>
   </trkpt>
   <trkpt lat="51.948570000000004" lon="4.320270000000001">
    <ele>-1.93</ele>
   </trkpt>
   <trkpt lat="51.94915" lon="4.319920000000001">
    <ele>-2.2600000000000002</ele>
   </trkpt>
   <trkpt lat="51.94935" lon="4.31968">
    <ele>-1.67</ele>
   </trkpt>
   <trkpt lat="51.949720000000006" lon="4.319570000000001">
    <ele>-2.6400000000000006</ele>
   </trkpt>
   <trkpt lat="51.950450000000004" lon="4.31913">
    <ele>-2.87</ele>
   </trkpt>
   <trkpt lat="51.95082000000001" lon="4.318980000000001">
    <ele>-2.73</ele>
   </trkpt>
   <trkpt lat="51.95163" lon="4.318580000000001">
    <ele>-2.9800000000000004</ele>
   </trkpt>
   <trkpt lat="51.952040000000004" lon="4.3183300000000004">
    <ele>-2.1100000000000003</ele>
   </trkpt>
   <trkpt lat="51.95219" lon="4.318090000000001">
    <ele>-1.16</ele>
   </trkpt>
   <trkpt lat="51.95244" lon="4.31791">
    <ele>-0.8500000000000001</ele>
   </trkpt>
   <trkpt lat="51.953100000000006" lon="4.31751">
    <ele>-0.9700000000000001</ele>
   </trkpt>
   <trkpt lat="51.95336" lon="4.31737">
    <ele>-0.7200000000000001</ele>
   </trkpt>
   <trkpt lat="51.953140000000005" lon="4.3162400000000005">
    <ele>-3.1500000000000004</ele>
   </trkpt>
   <trkpt lat="51.953140000000005" lon="4.31625">
    <ele>-3.16</ele>
   </trkpt>
   <trkpt lat="51.95308000000001" lon="4.316260000000001">
    <ele>-3.16</ele>
   </trkpt>
   <trkpt lat="51.95241750162526" lon="4.316617515844776">
    <ele>-3.6500000000000004</ele>
   </trkpt>
   <trkpt lat="51.95175500216779" lon="4.316975021125553">
    <ele>-3.5</ele>
   </trkpt>
   <trkpt lat="51.951092501627706" lon="4.317332515842879">
    <ele>-3.22</ele>
   </trkpt>
   <trkpt lat="51.950430000000004" lon="4.317690000000001">
    <ele>-2.6400000000000006</ele>
   </trkpt>
   <trkpt lat="51.95009" lon="4.31784">
    <ele>-2.5700000000000003</ele>
   </trkpt>
   <trkpt lat="51.949920000000006" lon="4.317970000000001">
    <ele>-2.67</ele>
   </trkpt>
   <trkpt lat="51.94977" lon="4.31819">
    <ele>-2.9899999999999998</ele>
   </trkpt>
   <trkpt lat="51.949490000000004" lon="4.31852">
    <ele>-3.3000000000000003</ele>
   </trkpt>
   <trkpt lat="51.94886000047498" lon="4.318825004245393">
    <ele>-3.16</ele>
   </trkpt>
   <trkpt lat="51.94823" lon="4.31913">
    <ele>-2.83</ele>
   </trkpt>
   <trkpt lat="51.947705000501415" lon="4.319505004457068">
    <ele>-3.02</ele>
   </trkpt>
   <trkpt lat="51.94718" lon="4.31988">
    <ele>-2.9000000000000004</ele>
   </trkpt>
   <trkpt lat="51.94709" lon="4.3199000000000005">
    <ele>-2.75</ele>
   </trkpt>
   <trkpt lat="51.947030000000005" lon="4.3198300000000005">
    <ele>-2.75</ele>
   </trkpt>
   <trkpt lat="51.946630000000006" lon="4.3187500000000005">
    <ele>-2.2600000000000002</ele>
   </trkpt>
   <trkpt lat="51.946290000000005" lon="4.31843">
    <ele>-1.07</ele>
   </trkpt>
   <trkpt lat="51.94615" lon="4.31805">
    <ele>-0.59</ele>
   </trkpt>
   <trkpt lat="51.94599" lon="4.317810000000001">
    <ele>-0.88</ele>
   </trkpt>
   <trkpt lat="51.94572" lon="4.317480000000001">
    <ele>-1.36</ele>
   </trkpt>
   <trkpt lat="51.94556000000001" lon="4.31719">
    <ele>-1.41</ele>
   </trkpt>
   <trkpt lat="51.94541" lon="4.31683">
    <ele>-1.36</ele>
   </trkpt>
   <trkpt lat="51.94510500284697" lon="4.316014994547494">
    <ele>-1.42</ele>
   </trkpt>
   <trkpt lat="51.9448" lon="4.3152">
    <ele>-1.28</ele>
   </trkpt>
   <trkpt lat="51.94452500182527" lon="4.31452499560466">
    <ele>-1.24</ele>
   </trkpt>
   <trkpt lat="51.944250000000004" lon="4.31385">
    <ele>-1.01</ele>
   </trkpt>
   <trkpt lat="51.94379500629621" lon="4.312629987602267">
    <ele>-0.92</ele>
   </trkpt>
   <trkpt lat="51.943340000000006" lon="4.31141">
    <ele>-0.79</ele>
   </trkpt>
   <trkpt lat="51.9428700058045" lon="4.310239987756052">
    <ele>-0.75</ele>
   </trkpt>
   <trkpt lat="51.942400000000006" lon="4.30907">
    <ele>-0.88</ele>
   </trkpt>
   <trkpt lat="51.9419733598153" lon="4.307951613464273">
    <ele>-1.01</ele>
   </trkpt>
   <trkpt lat="51.94154670903452" lon="4.3068332482023965">
    <ele>-1.07</ele>
   </trkpt>
   <trkpt lat="51.941120047658" lon="4.305714904214169">
    <ele>-1.24</ele>
   </trkpt>
   <trkpt lat="51.940693375686145" lon="4.304596581499387">
    <ele>-1.1500000000000001</ele>
   </trkpt>
   <trkpt lat="51.94026669311928" lon="4.303478280057847">
    <ele>-1.33</ele>
   </trkpt>
   <trkpt lat="51.939840000000004" lon="4.30236">
    <ele>-1.28</ele>
   </trkpt>
   <trkpt lat="51.93940000526743" lon="4.301244989067315">
    <ele>-1.25</ele>
   </trkpt>
   <trkpt lat="51.93896" lon="4.30013">
    <ele>-0.7200000000000001</ele>
   </trkpt>
   <trkpt lat="51.93898" lon="4.300140000000001">
    <ele>-0.71</ele>
   </trkpt>
   <trkpt lat="51.939060000000005" lon="4.30006">
    <ele>-0.92</ele>
   </trkpt>
   <trkpt lat="51.939350000000005" lon="4.2999">
    <ele>-1.16</ele>
   </trkpt>
   <trkpt lat="51.93947000000001" lon="4.2997000000000005">
    <ele>-1.01</ele>
   </trkpt>
   <trkpt lat="51.93966" lon="4.2994900000000005">
    <ele>-0.9700000000000001</ele>
   </trkpt>
   <trkpt lat="51.93988" lon="4.29928">
    <ele>-0.9700000000000001</ele>
   </trkpt>
   <trkpt lat="51.94013" lon="4.2991">
    <ele>-0.76</ele>
   </trkpt>
   <trkpt lat="51.940250000000006" lon="4.299060000000001">
    <ele>-0.7200000000000001</ele>
   </trkpt>
   <trkpt lat="51.94042" lon="4.29894">
    <ele>-0.75</ele>
   </trkpt>
   <trkpt lat="51.94055" lon="4.298780000000001">
    <ele>-0.67</ele>
   </trkpt>
   <trkpt lat="51.94077000000001" lon="4.298570000000001">
    <ele>-0.42</ele>
   </trkpt>
   <trkpt lat="51.94145" lon="4.298150000000001">
    <ele>-0.46</ele>
   </trkpt>
   <trkpt lat="51.941720000000004" lon="4.29792">
    <ele>-0.42</ele>
   </trkpt>
   <trkpt lat="51.942130000000006" lon="4.2976600000000005">
    <ele>-0.36000000000000004</ele>
   </trkpt>
   <trkpt lat="51.94262000026191" lon="4.297440002377654">
    <ele>-0.38</ele>
   </trkpt>
   <trkpt lat="51.943110000000004" lon="4.29722">
    <ele>-0.38</ele>
   </trkpt>
   <trkpt lat="51.94375" lon="4.29692">
    <ele>-0.5</ele>
   </trkpt>
   <trkpt lat="51.943870000000004" lon="4.296930000000001">
    <ele>-0.5</ele>
   </trkpt>
   <trkpt lat="51.944030000000005" lon="4.29682">
    <ele>-0.59</ele>
   </trkpt>
   <trkpt lat="51.94450000014323" lon="4.296545002985212">
    <ele>-0.62</ele>
   </trkpt>
   <trkpt lat="51.944970000000005" lon="4.296270000000001">
    <ele>-0.5</ele>
   </trkpt>
   <trkpt lat="51.945460000000004" lon="4.295940000000001">
    <ele>-0.5</ele>
   </trkpt>
   <trkpt lat="51.9459" lon="4.295710000000001">
    <ele>-0.46</ele>
   </trkpt>
   <trkpt lat="51.946220000000004" lon="4.2955000000000005">
    <ele>-0.44</ele>
   </trkpt>
   <trkpt lat="51.946870000000004" lon="4.295100000000001">
    <ele>-0.36000000000000004</ele>
   </trkpt>
   <trkpt lat="51.94754000120432" lon="4.294720011364445">
    <ele>-0.42</ele>
   </trkpt>
   <trkpt lat="51.94821000118542" lon="4.2943400113753745">
    <ele>-0.42</ele>
   </trkpt>
   <trkpt lat="51.94888" lon="4.29396">
    <ele>-0.42</ele>
   </trkpt>
   <trkpt lat="51.94971500295595" lon="4.293475027110744">
    <ele>-0.5</ele>
   </trkpt>
   <trkpt lat="51.95055000391941" lon="4.292990036161181">
    <ele>-0.5</ele>
   </trkpt>
   <trkpt lat="51.951385002890284" lon="4.292505027150141">
    <ele>-0.44</ele>
   </trkpt>
   <trkpt lat="51.952220000000004" lon="4.29202">
    <ele>-0.46</ele>
   </trkpt>
   <trkpt lat="51.952650000564645" lon="4.291730002640393">
    <ele>-0.62</ele>
   </trkpt>
   <trkpt lat="51.95308000000001" lon="4.291440000000001">
    <ele>-0.54</ele>
   </trkpt>
   <trkpt lat="51.95331" lon="4.291300000000001">
    <ele>-0.5</ele>
   </trkpt>
   <trkpt lat="51.95371" lon="4.2911">
    <ele>0.1</ele>
   </trkpt>
   <trkpt lat="51.95398" lon="4.29101">
    <ele>0.47000000000000003</ele>
   </trkpt>
   <trkpt lat="51.953970000000005" lon="4.291">
    <ele>0.48000000000000004</ele>
   </trkpt>
   <trkpt lat="51.95347835466042" lon="4.2899966116755985">
    <ele>-0.22</ele>
   </trkpt>
   <trkpt lat="51.95298670079267" lon="4.288993245354648">
    <ele>-0.5</ele>
   </trkpt>
   <trkpt lat="51.952495038397096" lon="4.287989901036659">
    <ele>-0.64</ele>
   </trkpt>
   <trkpt lat="51.952003367474056" lon="4.28698657872114">
    <ele>-0.46</ele>
   </trkpt>
   <trkpt lat="51.95151168802386" lon="4.285983278407604">
    <ele>-0.58</ele>
   </trkpt>
   <trkpt lat="51.95102000000001" lon="4.28498">
    <ele>-0.67</ele>
   </trkpt>
   <trkpt lat="51.950700000000005" lon="4.28427">
    <ele>-0.88</ele>
   </trkpt>
   <trkpt lat="51.950570000000006" lon="4.2838400000000005">
    <ele>-1.07</ele>
   </trkpt>
   <trkpt lat="51.950430000000004" lon="4.28329">
    <ele>-1.1500000000000001</ele>
   </trkpt>
   <trkpt lat="51.95027" lon="4.28228">
    <ele>-1.24</ele>
   </trkpt>
   <trkpt lat="51.95010251672442" lon="4.281132487092613">
    <ele>-1.24</ele>
   </trkpt>
   <trkpt lat="51.949935022294284" lon="4.279984982756788">
    <ele>-0.59</ele>
   </trkpt>
   <trkpt lat="51.94976751670978" lon="4.27883748699298">
    <ele>0.27</ele>
   </trkpt>
   <trkpt lat="51.949600000000004" lon="4.277690000000001">
    <ele>0.76</ele>
   </trkpt>
   <trkpt lat="51.949600000000004" lon="4.27754">
    <ele>0.68</ele>
   </trkpt>
   <trkpt lat="51.94966" lon="4.27733">
    <ele>0.6600000000000001</ele>
   </trkpt>
   <trkpt lat="51.94966" lon="4.277220000000001">
    <ele>0.6600000000000001</ele>
   </trkpt>
   <trkpt lat="51.949540000000006" lon="4.277030000000001">
    <ele>0.51</ele>
   </trkpt>
   <trkpt lat="51.94953" lon="4.276890000000001">
    <ele>0.51</ele>
   </trkpt>
   <trkpt lat="51.94957" lon="4.27634">
    <ele>0.19</ele>
   </trkpt>
   <trkpt lat="51.949600000000004" lon="4.276140000000001">
    <ele>0.11</ele>
   </trkpt>
   <trkpt lat="51.94971" lon="4.275670000000001">
    <ele>0.2</ele>
   </trkpt>
   <trkpt lat="51.94988000000001" lon="4.27524">
    <ele>0.25</ele>
   </trkpt>
   <trkpt lat="51.95024" lon="4.27472">
    <ele>0.7300000000000001</ele>
   </trkpt>
   <trkpt lat="51.95095102651711" lon="4.273886119006924">
    <ele>-0.32</ele>
   </trkpt>
   <trkpt lat="51.95166204714364" lon="4.273052211569899">
    <ele>-1.42</ele>
   </trkpt>
   <trkpt lat="51.95237306187927" lon="4.272218277687629">
    <ele>-1.58</ele>
   </trkpt>
   <trkpt lat="51.95308407072363" lon="4.271384317358819">
    <ele>-1.58</ele>
   </trkpt>
   <trkpt lat="51.9537950736764" lon="4.270550330582171">
    <ele>-1.58</ele>
   </trkpt>
   <trkpt lat="51.95450607073724" lon="4.269716317356391">
    <ele>-1.5</ele>
   </trkpt>
   <trkpt lat="51.95521706190581" lon="4.268882277680182">
    <ele>-1.35</ele>
   </trkpt>
   <trkpt lat="51.95592804718177" lon="4.268048211552249">
    <ele>-1.16</ele>
   </trkpt>
   <trkpt lat="51.956639026564794" lon="4.267214118971296">
    <ele>-1.2300000000000002</ele>
   </trkpt>
   <trkpt lat="51.957350000000005" lon="4.266380000000001">
    <ele>-0.9700000000000001</ele>
   </trkpt>
   <trkpt lat="51.957570000000004" lon="4.2661500000000006">
    <ele>-0.9700000000000001</ele>
   </trkpt>
   <trkpt lat="51.95825000353986" lon="4.265503352952682">
    <ele>-1.07</ele>
   </trkpt>
   <trkpt lat="51.95893000353764" lon="4.264856686288514">
    <ele>-1.07</ele>
   </trkpt>
   <trkpt lat="51.959610000000005" lon="4.26421">
    <ele>-1.01</ele>
   </trkpt>
   <trkpt lat="51.960240000000006" lon="4.2636">
    <ele>-1.5</ele>
   </trkpt>
   <trkpt lat="51.960880006283965" lon="4.262990034854746">
    <ele>-1.75</ele>
   </trkpt>
   <trkpt lat="51.96152000941638" lon="4.262380052292194">
    <ele>-1.76</ele>
   </trkpt>
   <trkpt lat="51.96216000939711" lon="4.261770052311528">
    <ele>-1.58</ele>
   </trkpt>
   <trkpt lat="51.96280000622598" lon="4.261160034911939">
    <ele>-1.75</ele>
   </trkpt>
   <trkpt lat="51.963440000000006" lon="4.26055">
    <ele>-1.6500000000000001</ele>
   </trkpt>
   <trkpt lat="51.96343" lon="4.260560000000001">
    <ele>-1.62</ele>
   </trkpt>
   <trkpt lat="51.963530000000006" lon="4.26083">
    <ele>-1.84</ele>
   </trkpt>
   <trkpt lat="51.96361" lon="4.260960000000001">
    <ele>-1.84</ele>
   </trkpt>
   <trkpt lat="51.963820000000005" lon="4.26149">
    <ele>-1.87</ele>
   </trkpt>
   <trkpt lat="51.96425500566029" lon="4.262639988996394">
    <ele>-2.17</ele>
   </trkpt>
   <trkpt lat="51.964690000000004" lon="4.26379">
    <ele>-2.47</ele>
   </trkpt>
   <trkpt lat="51.96511" lon="4.264810000000001">
    <ele>-2.4200000000000004</ele>
   </trkpt>
   <trkpt lat="51.965554318902704" lon="4.265952789171358">
    <ele>-2.45</ele>
   </trkpt>
   <trkpt lat="51.9659986267437" lon="4.267095601000593">
    <ele>-2.48</ele>
   </trkpt>
   <trkpt lat="51.96644292352258" lon="4.268238435487954">
    <ele>-2.56</ele>
   </trkpt>
   <trkpt lat="51.96688720923897" lon="4.269381292633688">
    <ele>-2.5</ele>
   </trkpt>
   <trkpt lat="51.967331483892465" lon="4.270524172438042">
    <ele>-2.4899999999999998</ele>
   </trkpt>
   <trkpt lat="51.96777574748266" lon="4.271667074901262">
    <ele>-2.6400000000000006</ele>
   </trkpt>
   <trkpt lat="51.96822" lon="4.272810000000001">
    <ele>-1.84</ele>
   </trkpt>
   <trkpt lat="51.96824" lon="4.272950000000001">
    <ele>-1.84</ele>
   </trkpt>
   <trkpt lat="51.968210000000006" lon="4.273070000000001">
    <ele>-1.67</ele>
   </trkpt>
   <trkpt lat="51.96828000000001" lon="4.27325">
    <ele>-1.67</ele>
   </trkpt>
   <trkpt lat="51.96838" lon="4.273280000000001">
    <ele>-1.67</ele>
   </trkpt>
   <trkpt lat="51.968430000000005" lon="4.27332">
    <ele>-1.93</ele>
   </trkpt>
   <trkpt lat="51.96849" lon="4.273420000000001">
    <ele>-1.93</ele>
   </trkpt>
   <trkpt lat="51.96864500438273" lon="4.2744349966195925">
    <ele>-1.93</ele>
   </trkpt>
   <trkpt lat="51.9688" lon="4.27545">
    <ele>-1.67</ele>
   </trkpt>
   <trkpt lat="51.96835" lon="4.27564">
    <ele>-1.84</ele>
   </trkpt>
   <trkpt lat="51.96855289775672" lon="4.27690425137538">
    <ele>-2.34</ele>
   </trkpt>
   <trkpt lat="51.968755781975865" lon="4.278168514198095">
    <ele>-2.48</ele>
   </trkpt>
   <trkpt lat="51.96895865265723" lon="4.27943278846757">
    <ele>-2.32</ele>
   </trkpt>
   <trkpt lat="51.969161509800564" lon="4.2806970741832275">
    <ele>-2.1</ele>
   </trkpt>
   <trkpt lat="51.96936435340567" lon="4.281961371344491">
    <ele>-2.1300000000000003</ele>
   </trkpt>
   <trkpt lat="51.9695671834723" lon="4.283225679950783">
    <ele>-2.1300000000000003</ele>
   </trkpt>
   <trkpt lat="51.969770000000004" lon="4.28449">
    <ele>-2.2800000000000002</ele>
   </trkpt>
   <trkpt lat="51.9701" lon="4.28519">
    <ele>-2.25</ele>
   </trkpt>
   <trkpt lat="51.970130000000005" lon="4.28519">
    <ele>-2.25</ele>
   </trkpt>
   <trkpt lat="51.970180000000006" lon="4.285360000000001">
    <ele>-2.2700000000000005</ele>
   </trkpt>
   <trkpt lat="51.97072334463722" lon="4.286516638559615">
    <ele>-2.66</ele>
   </trkpt>
   <trkpt lat="51.971266677943454" lon="4.287673305168009">
    <ele>-2.9899999999999998</ele>
   </trkpt>
   <trkpt lat="51.971810000000005" lon="4.28883">
    <ele>-3.0</ele>
   </trkpt>
   <trkpt lat="51.97189" lon="4.28889">
    <ele>-3.0</ele>
   </trkpt>
   <trkpt lat="51.972010000000004" lon="4.28889">
    <ele>-3.18</ele>
   </trkpt>
   <trkpt lat="51.972675002690195" lon="4.288095011782145">
    <ele>-3.2</ele>
   </trkpt>
   <trkpt lat="51.97334000000001" lon="4.2873">
    <ele>-2.7</ele>
   </trkpt>
   <trkpt lat="51.97343000000001" lon="4.2872900000000005">
    <ele>-2.7</ele>
   </trkpt>
   <trkpt lat="51.97352000000001" lon="4.28734">
    <ele>-2.7</ele>
   </trkpt>
   <trkpt lat="51.973580000000005" lon="4.287470000000001">
    <ele>-2.9600000000000004</ele>
   </trkpt>
   <trkpt lat="51.97363000000001" lon="4.28768">
    <ele>-2.9899999999999998</ele>
   </trkpt>
   <trkpt lat="51.974132530686596" lon="4.288697420116605">
    <ele>-3.06</ele>
   </trkpt>
   <trkpt lat="51.974635052606" lon="4.289714863055404">
    <ele>-2.74</ele>
   </trkpt>
   <trkpt lat="51.97513756575789" lon="4.290732328816926">
    <ele>-2.25</ele>
   </trkpt>
   <trkpt lat="51.97564007014189" lon="4.291749817401695">
    <ele>-2.2800000000000002</ele>
   </trkpt>
   <trkpt lat="51.976142565757655" lon="4.292767328810238">
    <ele>-2.12</ele>
   </trkpt>
   <trkpt lat="51.97664505260484" lon="4.29378486304308">
    <ele>-2.14</ele>
   </trkpt>
   <trkpt lat="51.977147530683084" lon="4.2948024201007495">
    <ele>-2.18</ele>
   </trkpt>
   <trkpt lat="51.977650000000004" lon="4.29582">
    <ele>-2.5300000000000002</ele>
   </trkpt>
   <trkpt lat="51.977700000000006" lon="4.2960400000000005">
    <ele>-2.65</ele>
   </trkpt>
   <trkpt lat="51.977610000000006" lon="4.2971">
    <ele>-2.36</ele>
   </trkpt>
   <trkpt lat="51.977560000000004" lon="4.29795">
    <ele>-2.35</ele>
   </trkpt>
   <trkpt lat="51.977610000000006" lon="4.29814">
    <ele>-2.5100000000000002</ele>
   </trkpt>
   <trkpt lat="51.97801333909391" lon="4.298963318548385">
    <ele>-2.47</ele>
   </trkpt>
   <trkpt lat="51.97841667244694" lon="4.299786651921714">
    <ele>-2.4600000000000004</ele>
   </trkpt>
   <trkpt lat="51.978820000000006" lon="4.300610000000001">
    <ele>-2.5100000000000002</ele>
   </trkpt>
   <trkpt lat="51.979150000000004" lon="4.30112">
    <ele>-2.48</ele>
   </trkpt>
   <trkpt lat="51.97961500366778" lon="4.302054990226065">
    <ele>-0.5</ele>
   </trkpt>
   <trkpt lat="51.98008" lon="4.30299">
    <ele>-0.42</ele>
   </trkpt>
   <trkpt lat="51.98010000000001" lon="4.3030800000000005">
    <ele>-0.55</ele>
   </trkpt>
   <trkpt lat="51.98012000000001" lon="4.30337">
    <ele>-0.8500000000000001</ele>
   </trkpt>
   <trkpt lat="51.98008" lon="4.30356">
    <ele>-1.67</ele>
   </trkpt>
   <trkpt lat="51.980000000000004" lon="4.3036900000000005">
    <ele>-1.93</ele>
   </trkpt>
   <trkpt lat="51.979800000000004" lon="4.30386">
    <ele>-2.25</ele>
   </trkpt>
   <trkpt lat="51.97952" lon="4.303310000000001">
    <ele>-2.2</ele>
   </trkpt>
   <trkpt lat="51.98004" lon="4.302630000000001">
    <ele>-1.79</ele>
   </trkpt>
   <trkpt lat="51.98021000000001" lon="4.302490000000001">
    <ele>-1.7000000000000002</ele>
   </trkpt>
   <trkpt lat="51.980380000000004" lon="4.30231">
    <ele>-1.68</ele>
   </trkpt>
   <trkpt lat="51.980850000000004" lon="4.302110000000001">
    <ele>-2.0100000000000002</ele>
   </trkpt>
   <trkpt lat="51.98113000000001" lon="4.301900000000001">
    <ele>-1.9200000000000002</ele>
   </trkpt>
   <trkpt lat="51.981170000000006" lon="4.3017900000000004">
    <ele>-1.9200000000000002</ele>
   </trkpt>
   <trkpt lat="51.981170000000006" lon="4.30165">
    <ele>-1.9400000000000002</ele>
   </trkpt>
   <trkpt lat="51.98103500293897" lon="4.3008099971645795">
    <ele>-2.17</ele>
   </trkpt>
   <trkpt lat="51.980900000000005" lon="4.29997">
    <ele>-1.93</ele>
   </trkpt>
   <trkpt lat="51.980920000000005" lon="4.29982">
    <ele>-1.93</ele>
   </trkpt>
   <trkpt lat="51.981100000000005" lon="4.29921">
    <ele>-1.84</ele>
   </trkpt>
   <trkpt lat="51.98118" lon="4.29914">
    <ele>-1.84</ele>
   </trkpt>
   <trkpt lat="51.982040000000005" lon="4.2988">
    <ele>-1.93</ele>
   </trkpt>
   <trkpt lat="51.98208" lon="4.29873">
    <ele>-1.87</ele>
   </trkpt>
   <trkpt lat="51.9821" lon="4.29863">
    <ele>-1.93</ele>
   </trkpt>
   <trkpt lat="51.98196500438222" lon="4.297609996750434">
    <ele>-2.31</ele>
   </trkpt>
   <trkpt lat="51.98183" lon="4.29659">
    <ele>-1.93</ele>
   </trkpt>
   <trkpt lat="51.98167" lon="4.29614">
    <ele>-1.75</ele>
   </trkpt>
   <trkpt lat="51.98159000963431" lon="4.29507332950616">
    <ele>-1.87</ele>
   </trkpt>
   <trkpt lat="51.98151000963302" lon="4.29400666282213">
    <ele>-1.84</ele>
   </trkpt>
   <trkpt lat="51.98143" lon="4.292940000000001">
    <ele>-1.68</ele>
   </trkpt>
   <trkpt lat="51.98145" lon="4.292820000000001">
    <ele>-1.68</ele>
   </trkpt>
   <trkpt lat="51.98149" lon="4.29272">
    <ele>-1.67</ele>
   </trkpt>
   <trkpt lat="51.98156" lon="4.292660000000001">
    <ele>-1.67</ele>
   </trkpt>
   <trkpt lat="51.982300000668495" lon="4.292383342467127">
    <ele>-2.65</ele>
   </trkpt>
   <trkpt lat="51.98304000068874" lon="4.2921066757930655">
    <ele>-2.67</ele>
   </trkpt>
   <trkpt lat="51.98378" lon="4.29183">
    <ele>-2.48</ele>
   </trkpt>
   <trkpt lat="51.98449400125408" lon="4.29155601747853">
    <ele>-2.9600000000000004</ele>
   </trkpt>
   <trkpt lat="51.98520800187243" lon="4.291282026221639">
    <ele>-3.02</ele>
   </trkpt>
   <trkpt lat="51.985922001855016" lon="4.291008026228831">
    <ele>-2.87</ele>
   </trkpt>
   <trkpt lat="51.98663600120179" lon="4.290734017499613">
    <ele>-3.16</ele>
   </trkpt>
   <trkpt lat="51.987350000000006" lon="4.29046">
    <ele>-3.3100000000000005</ele>
   </trkpt>
   <trkpt lat="51.98767" lon="4.29025">
    <ele>-2.69</ele>
   </trkpt>
   <trkpt lat="51.98807000000001" lon="4.28986">
    <ele>-2.65</ele>
   </trkpt>
   <trkpt lat="51.98819" lon="4.28972">
    <ele>-2.5</ele>
   </trkpt>
   <trkpt lat="51.988290000000006" lon="4.28952">
    <ele>-2.5</ele>
   </trkpt>
   <trkpt lat="51.98847000000001" lon="4.289280000000001">
    <ele>-2.34</ele>
   </trkpt>
   <trkpt lat="51.98868" lon="4.28915">
    <ele>-2.34</ele>
   </trkpt>
   <trkpt lat="51.98879" lon="4.28904">
    <ele>-2.31</ele>
   </trkpt>
   <trkpt lat="51.989070000000005" lon="4.288620000000001">
    <ele>-2.2</ele>
   </trkpt>
   <trkpt lat="51.98939000000001" lon="4.2877600000000005">
    <ele>-1.93</ele>
   </trkpt>
   <trkpt lat="51.989430000000006" lon="4.28767">
    <ele>-2.2700000000000005</ele>
   </trkpt>
   <trkpt lat="51.98948000000001" lon="4.28777">
    <ele>-2.2700000000000005</ele>
   </trkpt>
   <trkpt lat="51.989580000000004" lon="4.28786">
    <ele>-2.2</ele>
   </trkpt>
   <trkpt lat="51.98964" lon="4.28788">
    <ele>-2.2</ele>
   </trkpt>
   <trkpt lat="51.99" lon="4.2881800000000005">
    <ele>-2.8000000000000003</ele>
   </trkpt>
   <trkpt lat="51.990590000000005" lon="4.28857">
    <ele>-2.14</ele>
   </trkpt>
   <trkpt lat="51.990660000000005" lon="4.28873">
    <ele>-1.93</ele>
   </trkpt>
   <trkpt lat="51.990660000000005" lon="4.28884">
    <ele>-1.93</ele>
   </trkpt>
   <trkpt lat="51.990640000000006" lon="4.28901">
    <ele>-1.6</ele>
   </trkpt>
   <trkpt lat="51.990610000000004" lon="4.28908">
    <ele>-1.6</ele>
   </trkpt>
   <trkpt lat="51.99069" lon="4.28924">
    <ele>-1.7000000000000002</ele>
   </trkpt>
   <trkpt lat="51.990750000000006" lon="4.2896600000000005">
    <ele>-1.85</ele>
   </trkpt>
   <trkpt lat="51.990950000000005" lon="4.2900100000000005">
    <ele>-1.86</ele>
   </trkpt>
   <trkpt lat="51.99096" lon="4.29006">
    <ele>-1.86</ele>
   </trkpt>
   <trkpt lat="51.99105" lon="4.2902000000000005">
    <ele>-1.9200000000000002</ele>
   </trkpt>
   <trkpt lat="51.991350000000004" lon="4.29087">
    <ele>-2.1300000000000003</ele>
   </trkpt>
   <trkpt lat="51.991580000000006" lon="4.2916300000000005">
    <ele>-2.1100000000000003</ele>
   </trkpt>
   <trkpt lat="51.99183667996418" lon="4.292883318943446">
    <ele>-2.33</ele>
   </trkpt>
   <trkpt lat="51.992093346626554" lon="4.294136652255504">
    <ele>-2.48</ele>
   </trkpt>
   <trkpt lat="51.99235" lon="4.29539">
    <ele>-1.77</ele>
   </trkpt>
   <trkpt lat="51.99312666890111" lon="4.294873351274716">
    <ele>-1.84</ele>
   </trkpt>
   <trkpt lat="51.99390333554181" lon="4.294356684625705">
    <ele>-2.02</ele>
   </trkpt>
   <trkpt lat="51.99468" lon="4.29384">
    <ele>-1.84</ele>
   </trkpt>
   <trkpt lat="51.99486" lon="4.29413">
    <ele>-1.84</ele>
   </trkpt>
   <trkpt lat="51.995120003752575" lon="4.29507999423284">
    <ele>-1.98</ele>
   </trkpt>
   <trkpt lat="51.995380000000004" lon="4.29603">
    <ele>-2.02</ele>
   </trkpt>
   <trkpt lat="51.99544" lon="4.29614">
    <ele>-1.98</ele>
   </trkpt>
   <trkpt lat="51.99550000000001" lon="4.296200000000001">
    <ele>-1.98</ele>
   </trkpt>
   <trkpt lat="51.99559000000001" lon="4.29624">
    <ele>-1.87</ele>
   </trkpt>
   <trkpt lat="51.99568000000001" lon="4.29624">
    <ele>-1.87</ele>
   </trkpt>
   <trkpt lat="51.99577000000001" lon="4.29621">
    <ele>-1.87</ele>
   </trkpt>
   <trkpt lat="51.99633000000001" lon="4.2956900000000005">
    <ele>-1.86</ele>
   </trkpt>
   <trkpt lat="51.99687000079345" lon="4.295215005871691">
    <ele>-1.9500000000000002</ele>
   </trkpt>
   <trkpt lat="51.99741" lon="4.29474">
    <ele>-2.2</ele>
   </trkpt>
   <trkpt lat="51.997890000000005" lon="4.2942800000000005">
    <ele>-2.41</ele>
   </trkpt>
   <trkpt lat="51.9983050004673" lon="4.2939400031700075">
    <ele>-2.45</ele>
   </trkpt>
   <trkpt lat="51.998720000000006" lon="4.2936000000000005">
    <ele>-2.41</ele>
   </trkpt>
   <trkpt lat="51.999300000000005" lon="4.293200000000001">
    <ele>-2.5</ele>
   </trkpt>
   <trkpt lat="52.0000200014168" lon="4.292630009135353">
    <ele>-2.7</ele>
   </trkpt>
   <trkpt lat="52.00074000000001" lon="4.29206">
    <ele>-2.82</ele>
   </trkpt>
   <trkpt lat="52.000800000000005" lon="4.29204">
    <ele>-2.82</ele>
   </trkpt>
   <trkpt lat="52.00088" lon="4.292050000000001">
    <ele>-2.82</ele>
   </trkpt>
   <trkpt lat="52.00133500033162" lon="4.292284997661789">
    <ele>-3.2</ele>
   </trkpt>
   <trkpt lat="52.00179000000001" lon="4.292520000000001">
    <ele>-3.16</ele>
   </trkpt>
   <trkpt lat="52.00188000000001" lon="4.29263">
    <ele>-3.04</ele>
   </trkpt>
   <trkpt lat="52.002030000000005" lon="4.2929200000000005">
    <ele>-2.48</ele>
   </trkpt>
   <trkpt lat="52.002100000000006" lon="4.29293">
    <ele>-2.48</ele>
   </trkpt>
   <trkpt lat="52.00222" lon="4.29283">
    <ele>-2.45</ele>
   </trkpt>
   <trkpt lat="52.00238" lon="4.29324">
    <ele>-2.9899999999999998</ele>
   </trkpt>
   <trkpt lat="52.002460000000006" lon="4.29359">
    <ele>-3.16</ele>
   </trkpt>
   <trkpt lat="52.002500000000005" lon="4.29427">
    <ele>-3.18</ele>
   </trkpt>
   <trkpt lat="52.00254" lon="4.2944700000000005">
    <ele>-3.18</ele>
   </trkpt>
   <trkpt lat="52.00264000000001" lon="4.29473">
    <ele>-3.19</ele>
   </trkpt>
   <trkpt lat="52.00294" lon="4.2952">
    <ele>-3.3100000000000005</ele>
   </trkpt>
   <trkpt lat="52.00301" lon="4.295380000000001">
    <ele>-3.3000000000000003</ele>
   </trkpt>
   <trkpt lat="52.003040000000006" lon="4.2955000000000005">
    <ele>-3.3200000000000003</ele>
   </trkpt>
   <trkpt lat="52.00302000000001" lon="4.29591">
    <ele>-3.16</ele>
   </trkpt>
   <trkpt lat="52.003040000000006" lon="4.296010000000001">
    <ele>-3.16</ele>
   </trkpt>
   <trkpt lat="52.003220000000006" lon="4.29636">
    <ele>-3.18</ele>
   </trkpt>
   <trkpt lat="52.00336000000001" lon="4.29694">
    <ele>-3.0500000000000003</ele>
   </trkpt>
   <trkpt lat="52.003600003072386" lon="4.297794995335347">
    <ele>-3.16</ele>
   </trkpt>
   <trkpt lat="52.003840000000004" lon="4.29865">
    <ele>-3.22</ele>
   </trkpt>
   <trkpt lat="52.003890000000006" lon="4.298970000000001">
    <ele>-3.22</ele>
   </trkpt>
   <trkpt lat="52.0039" lon="4.299180000000001">
    <ele>-3.33</ele>
   </trkpt>
   <trkpt lat="52.00383000000001" lon="4.2998400000000006">
    <ele>-3.08</ele>
   </trkpt>
   <trkpt lat="52.00386" lon="4.30011">
    <ele>-3.02</ele>
   </trkpt>
   <trkpt lat="52.00394000000001" lon="4.30022">
    <ele>-3.0300000000000002</ele>
   </trkpt>
   <trkpt lat="52.004180000000005" lon="4.30037">
    <ele>-3.16</ele>
   </trkpt>
   <trkpt lat="52.00423000000001" lon="4.30048">
    <ele>-3.16</ele>
   </trkpt>
   <trkpt lat="52.004290000000005" lon="4.3007">
    <ele>-3.16</ele>
   </trkpt>
   <trkpt lat="52.00435" lon="4.300800000000001">
    <ele>-3.06</ele>
   </trkpt>
   <trkpt lat="52.00455" lon="4.300940000000001">
    <ele>-3.06</ele>
   </trkpt>
   <trkpt lat="52.0046" lon="4.301">
    <ele>-3.06</ele>
   </trkpt>
   <trkpt lat="52.00473" lon="4.30142">
    <ele>-3.0</ele>
   </trkpt>
   <trkpt lat="52.004830000000005" lon="4.3016000000000005">
    <ele>-3.0</ele>
   </trkpt>
   <trkpt lat="52.004920000000006" lon="4.30185">
    <ele>-2.9000000000000004</ele>
   </trkpt>
   <trkpt lat="52.00495" lon="4.3020000000000005">
    <ele>-2.9000000000000004</ele>
   </trkpt>
   <trkpt lat="52.00495" lon="4.302090000000001">
    <ele>-2.9000000000000004</ele>
   </trkpt>
   <trkpt lat="52.004920000000006" lon="4.30215">
    <ele>-3.0</ele>
   </trkpt>
   <trkpt lat="52.004830000000005" lon="4.30226">
    <ele>-3.0</ele>
   </trkpt>
   <trkpt lat="52.004760000000005" lon="4.30243">
    <ele>-3.0300000000000002</ele>
   </trkpt>
   <trkpt lat="52.00470000000001" lon="4.30266">
    <ele>-3.0300000000000002</ele>
   </trkpt>
   <trkpt lat="52.004650000000005" lon="4.3030100000000004">
    <ele>-2.9899999999999998</ele>
   </trkpt>
   <trkpt lat="52.00464" lon="4.30327">
    <ele>-2.9899999999999998</ele>
   </trkpt>
   <trkpt lat="52.00466" lon="4.30339">
    <ele>-2.9899999999999998</ele>
   </trkpt>
   <trkpt lat="52.004780000000004" lon="4.30382">
    <ele>-2.9899999999999998</ele>
   </trkpt>
   <trkpt lat="52.00484" lon="4.304180000000001">
    <ele>-3.0300000000000002</ele>
   </trkpt>
   <trkpt lat="52.00512000457423" lon="4.305219993475973">
    <ele>-3.1400000000000006</ele>
   </trkpt>
   <trkpt lat="52.0054" lon="4.30626">
    <ele>-3.4000000000000004</ele>
   </trkpt>
   <trkpt lat="52.00544000000001" lon="4.306500000000001">
    <ele>-3.4000000000000004</ele>
   </trkpt>
   <trkpt lat="52.00547" lon="4.306900000000001">
    <ele>-3.35</ele>
   </trkpt>
   <trkpt lat="52.005520000000004" lon="4.307040000000001">
    <ele>-3.35</ele>
   </trkpt>
   <trkpt lat="52.00592000142241" lon="4.307619994813671">
    <ele>-3.33</ele>
   </trkpt>
   <trkpt lat="52.00632" lon="4.3082">
    <ele>-3.33</ele>
   </trkpt>
   <trkpt lat="52.00647000000001" lon="4.3083">
    <ele>-3.21</ele>
   </trkpt>
   <trkpt lat="52.00658000000001" lon="4.30843">
    <ele>-3.21</ele>
   </trkpt>
   <trkpt lat="52.006660000000004" lon="4.30874">
    <ele>-3.16</ele>
   </trkpt>
   <trkpt lat="52.006710000000005" lon="4.3088500000000005">
    <ele>-3.17</ele>
   </trkpt>
   <trkpt lat="52.006780000000006" lon="4.30893">
    <ele>-3.16</ele>
   </trkpt>
   <trkpt lat="52.00723000000001" lon="4.30909">
    <ele>-3.3200000000000003</ele>
   </trkpt>
   <trkpt lat="52.007340000000006" lon="4.30916">
    <ele>-3.16</ele>
   </trkpt>
   <trkpt lat="52.007400000000004" lon="4.309290000000001">
    <ele>-3.0100000000000002</ele>
   </trkpt>
   <trkpt lat="52.00746" lon="4.30978">
    <ele>-2.1</ele>
   </trkpt>
   <trkpt lat="52.00811" lon="4.30984">
    <ele>-2.6300000000000003</ele>
   </trkpt>
   <trkpt lat="52.008705000026005" lon="4.309924998869188">
    <ele>-1.9500000000000002</ele>
   </trkpt>
   <trkpt lat="52.0093" lon="4.31001">
    <ele>-1.42</ele>
   </trkpt>
   <trkpt lat="52.009917504582596" lon="4.309412524688446">
    <ele>-1.16</ele>
   </trkpt>
   <trkpt lat="52.01053500614269" lon="4.308815032887009">
    <ele>-1.33</ele>
   </trkpt>
   <trkpt lat="52.01115250468014" lon="4.308217524594949">
    <ele>-1.18</ele>
   </trkpt>
   <trkpt lat="52.011770000000006" lon="4.30762">
    <ele>-1.24</ele>
   </trkpt>
   <trkpt lat="52.01198" lon="4.307600000000001">
    <ele>-1.2300000000000002</ele>
   </trkpt>
   <trkpt lat="52.012130000000006" lon="4.3075">
    <ele>-1.07</ele>
   </trkpt>
   <trkpt lat="52.01243" lon="4.30707">
    <ele>-1.07</ele>
   </trkpt>
   <trkpt lat="52.01285000068382" lon="4.306680003623749">
    <ele>-1.07</ele>
   </trkpt>
   <trkpt lat="52.013270000000006" lon="4.306290000000001">
    <ele>-0.67</ele>
   </trkpt>
   <trkpt lat="52.01343000000001" lon="4.3062000000000005">
    <ele>-0.58</ele>
   </trkpt>
   <trkpt lat="52.01362" lon="4.306220000000001">
    <ele>-0.42</ele>
   </trkpt>
   <trkpt lat="52.01370000000001" lon="4.30628">
    <ele>-0.42</ele>
   </trkpt>
   <trkpt lat="52.01382" lon="4.3064100000000005">
    <ele>-0.58</ele>
   </trkpt>
   <trkpt lat="52.01427000390734" lon="4.307379990080821">
    <ele>-2.08</ele>
   </trkpt>
   <trkpt lat="52.014720000000004" lon="4.308350000000001">
    <ele>-0.93</ele>
   </trkpt>
   <trkpt lat="52.014985001528224" lon="4.308949996455838">
    <ele>-0.88</ele>
   </trkpt>
   <trkpt lat="52.01525" lon="4.309550000000001">
    <ele>-1.16</ele>
   </trkpt>
   <trkpt lat="52.015280000000004" lon="4.309670000000001">
    <ele>-1.16</ele>
   </trkpt>
   <trkpt lat="52.015260000000005" lon="4.3098600000000005">
    <ele>-1.16</ele>
   </trkpt>
   <trkpt lat="52.01471" lon="4.31059">
    <ele>-2.31</ele>
   </trkpt>
   <trkpt lat="52.01469" lon="4.31069">
    <ele>-2.52</ele>
   </trkpt>
   <trkpt lat="52.014700000000005" lon="4.31078">
    <ele>-2.52</ele>
   </trkpt>
   <trkpt lat="52.01503667266296" lon="4.311619987414185">
    <ele>-2.82</ele>
   </trkpt>
   <trkpt lat="52.01537333935218" lon="4.312459987470275">
    <ele>-2.65</ele>
   </trkpt>
   <trkpt lat="52.015710000000006" lon="4.3133">
    <ele>-2.5100000000000002</ele>
   </trkpt>
   <trkpt lat="52.01572" lon="4.313490000000001">
    <ele>-2.5100000000000002</ele>
   </trkpt>
   <trkpt lat="52.01567000000001" lon="4.31397">
    <ele>-2.31</ele>
   </trkpt>
   <trkpt lat="52.015710000000006" lon="4.314150000000001">
    <ele>-2.3000000000000003</ele>
   </trkpt>
   <trkpt lat="52.01621000054709" lon="4.3145149959084055">
    <ele>-2.48</ele>
   </trkpt>
   <trkpt lat="52.01671" lon="4.3148800000000005">
    <ele>-2.0100000000000002</ele>
   </trkpt>
   <trkpt lat="52.01727" lon="4.31533">
    <ele>-0.92</ele>
   </trkpt>
   <trkpt lat="52.01742" lon="4.3154">
    <ele>-0.92</ele>
   </trkpt>
   <trkpt lat="52.017520000000005" lon="4.31536">
    <ele>-0.92</ele>
   </trkpt>
   <trkpt lat="52.01773000000001" lon="4.31515">
    <ele>-0.16</ele>
   </trkpt>
   <trkpt lat="52.017790000000005" lon="4.31514">
    <ele>-0.16</ele>
   </trkpt>
   <trkpt lat="52.01782000000001" lon="4.31517">
    <ele>-0.16</ele>
   </trkpt>
   <trkpt lat="52.017860000000006" lon="4.31515">
    <ele>0.01</ele>
   </trkpt>
   <trkpt lat="52.017920000000004" lon="4.31522">
    <ele>0.01</ele>
   </trkpt>
   <trkpt lat="52.01803" lon="4.31547">
    <ele>1.34</ele>
   </trkpt>
   <trkpt lat="52.018550000000005" lon="4.31487">
    <ele>-0.21</ele>
   </trkpt>
   <trkpt lat="52.01872" lon="4.31529">
    <ele>-0.2</ele>
   </trkpt>
   <trkpt lat="52.01859" lon="4.3154200000000005">
    <ele>-0.2</ele>
   </trkpt>
   <trkpt lat="52.018600000000006" lon="4.31554">
    <ele>-0.29</ele>
   </trkpt>
   <trkpt lat="52.018710000000006" lon="4.315860000000001">
    <ele>-0.25</ele>
   </trkpt>
   <trkpt lat="52.018710000000006" lon="4.3159">
    <ele>-0.25</ele>
   </trkpt>
   <trkpt lat="52.01859" lon="4.31604">
    <ele>-0.31</ele>
   </trkpt>
   <trkpt lat="52.018550000000005" lon="4.31611">
    <ele>-0.31</ele>
   </trkpt>
   <trkpt lat="52.01926000261786" lon="4.316659982585024">
    <ele>-1.52</ele>
   </trkpt>
   <trkpt lat="52.01997000267484" lon="4.317209982628811">
    <ele>-0.9700000000000001</ele>
   </trkpt>
   <trkpt lat="52.020680000000006" lon="4.317760000000001">
    <ele>-0.46</ele>
   </trkpt>
   <trkpt lat="52.02078" lon="4.31782">
    <ele>-0.38</ele>
   </trkpt>
   <trkpt lat="52.02085" lon="4.31782">
    <ele>-0.38</ele>
   </trkpt>
   <trkpt lat="52.020920000000004" lon="4.31778">
    <ele>-0.38</ele>
   </trkpt>
   <trkpt lat="52.02103" lon="4.31764">
    <ele>-0.42</ele>
   </trkpt>
   <trkpt lat="52.021100000000004" lon="4.31764">
    <ele>-0.42</ele>
   </trkpt>
   <trkpt lat="52.02180666841301" lon="4.3180966522247175">
    <ele>-0.93</ele>
   </trkpt>
   <trkpt lat="52.02251333506058" lon="4.318553318878756">
    <ele>-1.01</ele>
   </trkpt>
   <trkpt lat="52.02322" lon="4.3190100000000005">
    <ele>-0.99</ele>
   </trkpt>
   <trkpt lat="52.02371" lon="4.31937">
    <ele>0.32</ele>
   </trkpt>
   <trkpt lat="52.02384000000001" lon="4.31954">
    <ele>0.44</ele>
   </trkpt>
   <trkpt lat="52.02393000000001" lon="4.3196">
    <ele>0.64</ele>
   </trkpt>
   <trkpt lat="52.02418" lon="4.3197">
    <ele>0.2</ele>
   </trkpt>
   <trkpt lat="52.024730000601345" lon="4.320069995464642">
    <ele>0.09000000000000001</ele>
   </trkpt>
   <trkpt lat="52.02528" lon="4.3204400000000005">
    <ele>-0.27</ele>
   </trkpt>
   <trkpt lat="52.025450000000006" lon="4.3205">
    <ele>-0.11</ele>
   </trkpt>
   <trkpt lat="52.02557" lon="4.32052">
    <ele>-0.11</ele>
   </trkpt>
   <trkpt lat="52.02561000000001" lon="4.32057">
    <ele>-0.16</ele>
   </trkpt>
   <trkpt lat="52.02581000000001" lon="4.32063">
    <ele>-0.16</ele>
   </trkpt>
   <trkpt lat="52.0266" lon="4.32094">
    <ele>1.3900000000000001</ele>
   </trkpt>
   <trkpt lat="52.02691" lon="4.3211200000000005">
    <ele>2.0700000000000003</ele>
   </trkpt>
   <trkpt lat="52.02716" lon="4.32129">
    <ele>3.08</ele>
   </trkpt>
   <trkpt lat="52.027350000000006" lon="4.3215">
    <ele>4.050000000000001</ele>
   </trkpt>
   <trkpt lat="52.027765001591305" lon="4.322099994529609">
    <ele>5.85</ele>
   </trkpt>
   <trkpt lat="52.028180000000006" lon="4.3227">
    <ele>4.57</ele>
   </trkpt>
   <trkpt lat="52.028330000000004" lon="4.3232800000000005">
    <ele>3.25</ele>
   </trkpt>
   <trkpt lat="52.028510000000004" lon="4.32374">
    <ele>2.1</ele>
   </trkpt>
   <trkpt lat="52.02872000000001" lon="4.324140000000001">
    <ele>1.16</ele>
   </trkpt>
   <trkpt lat="52.028940000000006" lon="4.32469">
    <ele>-0.23</ele>
   </trkpt>
   <trkpt lat="52.029050000000005" lon="4.32491">
    <ele>-0.32</ele>
   </trkpt>
   <trkpt lat="52.02931" lon="4.32523">
    <ele>-0.34</ele>
   </trkpt>
   <trkpt lat="52.029900000000005" lon="4.32558">
    <ele>0.15000000000000002</ele>
   </trkpt>
   <trkpt lat="52.02996" lon="4.32557">
    <ele>0.15000000000000002</ele>
   </trkpt>
   <trkpt lat="52.03009" lon="4.325670000000001">
    <ele>0.16</ele>
   </trkpt>
   <trkpt lat="52.0307" lon="4.32547">
    <ele>0.41000000000000003</ele>
   </trkpt>
   <trkpt lat="52.03076" lon="4.325480000000001">
    <ele>0.41000000000000003</ele>
   </trkpt>
   <trkpt lat="52.030750000000005" lon="4.325480000000001">
    <ele>0.41000000000000003</ele>
   </trkpt>
   <trkpt lat="52.030820000000006" lon="4.3256000000000006">
    <ele>0.45</ele>
   </trkpt>
   <trkpt lat="52.03096000000001" lon="4.32608">
    <ele>0.12000000000000001</ele>
   </trkpt>
   <trkpt lat="52.031090000000006" lon="4.3264000000000005">
    <ele>0.04</ele>
   </trkpt>
   <trkpt lat="52.031470000000006" lon="4.327120000000001">
    <ele>0.15000000000000002</ele>
   </trkpt>
   <trkpt lat="52.03204" lon="4.3280400000000006">
    <ele>0.25</ele>
   </trkpt>
   <trkpt lat="52.03208000000001" lon="4.32796">
    <ele>0.25</ele>
   </trkpt>
   <trkpt lat="52.032120000000006" lon="4.3280400000000006">
    <ele>-0.05</ele>
   </trkpt>
   <trkpt lat="52.032140000000005" lon="4.32812">
    <ele>-0.05</ele>
   </trkpt>
   <trkpt lat="52.032120000000006" lon="4.32821">
    <ele>-0.46</ele>
   </trkpt>
   <trkpt lat="52.03195" lon="4.32862">
    <ele>-1.59</ele>
   </trkpt>
   <trkpt lat="52.031940000000006" lon="4.328740000000001">
    <ele>-2.56</ele>
   </trkpt>
   <trkpt lat="52.031960000000005" lon="4.3288400000000005">
    <ele>-2.9800000000000004</ele>
   </trkpt>
   <trkpt lat="52.03231" lon="4.3293">
    <ele>-3.33</ele>
   </trkpt>
   <trkpt lat="52.032900000000005" lon="4.3301300000000005">
    <ele>-0.71</ele>
   </trkpt>
   <trkpt lat="52.03316" lon="4.33033">
    <ele>0.7300000000000001</ele>
   </trkpt>
   <trkpt lat="52.03331000000001" lon="4.330500000000001">
    <ele>1.76</ele>
   </trkpt>
   <trkpt lat="52.03295500121292" lon="4.331035004245587">
    <ele>2.43</ele>
   </trkpt>
   <trkpt lat="52.0326" lon="4.33157">
    <ele>1.97</ele>
   </trkpt>
   <trkpt lat="52.032300000000006" lon="4.332190000000001">
    <ele>0.92</ele>
   </trkpt>
   <trkpt lat="52.03196500131705" lon="4.332710003628107">
    <ele>0.56</ele>
   </trkpt>
   <trkpt lat="52.03163000000001" lon="4.33323">
    <ele>0.34</ele>
   </trkpt>
   <trkpt lat="52.03126000122107" lon="4.333770004487604">
    <ele>0.35000000000000003</ele>
   </trkpt>
   <trkpt lat="52.03089000000001" lon="4.33431">
    <ele>0.88</ele>
   </trkpt>
   <trkpt lat="52.0312450016763" lon="4.334919995331163">
    <ele>1.9500000000000002</ele>
   </trkpt>
   <trkpt lat="52.031600000000005" lon="4.33553">
    <ele>3.4200000000000004</ele>
   </trkpt>
   <trkpt lat="52.03190000000001" lon="4.3358300000000005">
    <ele>3.56</ele>
   </trkpt>
   <trkpt lat="52.03202" lon="4.33591">
    <ele>3.43</ele>
   </trkpt>
   <trkpt lat="52.03222" lon="4.33598">
    <ele>3.21</ele>
   </trkpt>
   <trkpt lat="52.03244" lon="4.33621">
    <ele>3.1500000000000004</ele>
   </trkpt>
   <trkpt lat="52.03278" lon="4.33663">
    <ele>3.0100000000000002</ele>
   </trkpt>
   <trkpt lat="52.03294" lon="4.33697">
    <ele>3.02</ele>
   </trkpt>
   <trkpt lat="52.03309" lon="4.33751">
    <ele>3.3800000000000003</ele>
   </trkpt>
   <trkpt lat="52.033280000000005" lon="4.338310000000001">
    <ele>3.54</ele>
   </trkpt>
   <trkpt lat="52.033620000000006" lon="4.33938">
    <ele>3.39</ele>
   </trkpt>
   <trkpt lat="52.033640000000005" lon="4.33948">
    <ele>3.7</ele>
   </trkpt>
   <trkpt lat="52.033640000000005" lon="4.33961">
    <ele>3.7</ele>
   </trkpt>
   <trkpt lat="52.033590000000004" lon="4.3398">
    <ele>4.38</ele>
   </trkpt>
   <trkpt lat="52.033440000000006" lon="4.340190000000001">
    <ele>3.8200000000000003</ele>
   </trkpt>
   <trkpt lat="52.033350000000006" lon="4.340520000000001">
    <ele>1.87</ele>
   </trkpt>
   <trkpt lat="52.03327" lon="4.341">
    <ele>1.36</ele>
   </trkpt>
   <trkpt lat="52.03327" lon="4.34126">
    <ele>0.92</ele>
   </trkpt>
   <trkpt lat="52.033570000000005" lon="4.34182">
    <ele>0.88</ele>
   </trkpt>
   <trkpt lat="52.033730000000006" lon="4.34219">
    <ele>0.9500000000000001</ele>
   </trkpt>
   <trkpt lat="52.03412000207816" lon="4.3428749941866585">
    <ele>0.9600000000000001</ele>
   </trkpt>
   <trkpt lat="52.034510000000004" lon="4.34356">
    <ele>1.16</ele>
   </trkpt>
   <trkpt lat="52.03517" lon="4.34356">
    <ele>1.09</ele>
   </trkpt>
   <trkpt lat="52.03517" lon="4.34436">
    <ele>1.01</ele>
   </trkpt>
   <trkpt lat="52.0352" lon="4.3444">
    <ele>1.05</ele>
   </trkpt>
   <trkpt lat="52.03499000000001" lon="4.34475">
    <ele>0.92</ele>
   </trkpt>
   <trkpt lat="52.03477" lon="4.34517">
    <ele>1.1900000000000002</ele>
   </trkpt>
   <trkpt lat="52.035250000000005" lon="4.3451200000000005">
    <ele>1.41</ele>
   </trkpt>
   <trkpt lat="52.035590000000006" lon="4.34513">
    <ele>1.33</ele>
   </trkpt>
   <trkpt lat="52.035720000000005" lon="4.3451">
    <ele>1.33</ele>
   </trkpt>
   <trkpt lat="52.03595000000001" lon="4.34496">
    <ele>1.37</ele>
   </trkpt>
   <trkpt lat="52.036120000000004" lon="4.34489">
    <ele>1.36</ele>
   </trkpt>
   <trkpt lat="52.036895000091036" lon="4.344770002075648">
    <ele>1.3900000000000001</ele>
   </trkpt>
   <trkpt lat="52.037670000000006" lon="4.344650000000001">
    <ele>1.37</ele>
   </trkpt>
   <trkpt lat="52.037960000000005" lon="4.3445800000000006">
    <ele>1.36</ele>
   </trkpt>
   <trkpt lat="52.03824" lon="4.344320000000001">
    <ele>1.36</ele>
   </trkpt>
   <trkpt lat="52.03842" lon="4.344270000000001">
    <ele>1.36</ele>
   </trkpt>
   <trkpt lat="52.03877000000001" lon="4.344410000000001">
    <ele>1.42</ele>
   </trkpt>
   <trkpt lat="52.03887" lon="4.344410000000001">
    <ele>1.4000000000000001</ele>
   </trkpt>
   <trkpt lat="52.03971000000001" lon="4.34428">
    <ele>1.3900000000000001</ele>
   </trkpt>
   <trkpt lat="52.04018000000001" lon="4.34419">
    <ele>1.3900000000000001</ele>
   </trkpt>
   <trkpt lat="52.04028" lon="4.344110000000001">
    <ele>1.3900000000000001</ele>
   </trkpt>
   <trkpt lat="52.04088999998722" lon="4.34401000137373">
    <ele>1.51</ele>
   </trkpt>
   <trkpt lat="52.041500000000006" lon="4.34391">
    <ele>1.4600000000000002</ele>
   </trkpt>
   <trkpt lat="52.04177000000001" lon="4.34384">
    <ele>1.3900000000000001</ele>
   </trkpt>
   <trkpt lat="52.04186000000001" lon="4.3437">
    <ele>1.3800000000000001</ele>
   </trkpt>
   <trkpt lat="52.04189" lon="4.34358">
    <ele>1.3900000000000001</ele>
   </trkpt>
   <trkpt lat="52.04207" lon="4.34368">
    <ele>1.28</ele>
   </trkpt>
   <trkpt lat="52.04227" lon="4.34372">
    <ele>1.24</ele>
   </trkpt>
   <trkpt lat="52.04283" lon="4.34363">
    <ele>1.09</ele>
   </trkpt>
   <trkpt lat="52.04343000002579" lon="4.343560000939125">
    <ele>1.01</ele>
   </trkpt>
   <trkpt lat="52.04403000000001" lon="4.34349">
    <ele>1.33</ele>
   </trkpt>
   <trkpt lat="52.044090000000004" lon="4.343450000000001">
    <ele>1.33</ele>
   </trkpt>
   <trkpt lat="52.044290000000004" lon="4.34337">
    <ele>1.1500000000000001</ele>
   </trkpt>
   <trkpt lat="52.04449" lon="4.343190000000001">
    <ele>1.06</ele>
   </trkpt>
   <trkpt lat="52.04467" lon="4.3429400000000005">
    <ele>1.08</ele>
   </trkpt>
   <trkpt lat="52.04504000000001" lon="4.3423300000000005">
    <ele>1.9000000000000001</ele>
   </trkpt>
   <trkpt lat="52.04527" lon="4.342580000000001">
    <ele>2.2900000000000005</ele>
   </trkpt>
   <trkpt lat="52.045460000000006" lon="4.34286">
    <ele>2.39</ele>
   </trkpt>
   <trkpt lat="52.04552" lon="4.342890000000001">
    <ele>2.39</ele>
   </trkpt>
   <trkpt lat="52.04561" lon="4.34293">
    <ele>2.2700000000000005</ele>
   </trkpt>
   <trkpt lat="52.045880000000004" lon="4.34292">
    <ele>2.0100000000000002</ele>
   </trkpt>
   <trkpt lat="52.04618000000001" lon="4.34299">
    <ele>2.06</ele>
   </trkpt>
   <trkpt lat="52.046350000000004" lon="4.342980000000001">
    <ele>2.4200000000000004</ele>
   </trkpt>
   <trkpt lat="52.04639" lon="4.343">
    <ele>2.4200000000000004</ele>
   </trkpt>
   <trkpt lat="52.04719000003082" lon="4.342880002152725">
    <ele>2.69</ele>
   </trkpt>
   <trkpt lat="52.047990000000006" lon="4.34276">
    <ele>2.83</ele>
   </trkpt>
   <trkpt lat="52.048170000000006" lon="4.34264">
    <ele>2.9400000000000004</ele>
   </trkpt>
   <trkpt lat="52.048260000000006" lon="4.342650000000001">
    <ele>2.9400000000000004</ele>
   </trkpt>
   <trkpt lat="52.04838" lon="4.34274">
    <ele>2.75</ele>
   </trkpt>
   <trkpt lat="52.04847" lon="4.34276">
    <ele>2.75</ele>
   </trkpt>
   <trkpt lat="52.049313333410346" lon="4.342636671329552">
    <ele>1.78</ele>
   </trkpt>
   <trkpt lat="52.050156666691954" lon="4.342513338003889">
    <ele>1.85</ele>
   </trkpt>
   <trkpt lat="52.051" lon="4.34239">
    <ele>1.9100000000000001</ele>
   </trkpt>
   <trkpt lat="52.05145" lon="4.3424000000000005">
    <ele>1.8800000000000001</ele>
   </trkpt>
   <trkpt lat="52.05169000000001" lon="4.342440000000001">
    <ele>1.8</ele>
   </trkpt>
   <trkpt lat="52.05178" lon="4.34241">
    <ele>1.8</ele>
   </trkpt>
   <trkpt lat="52.051750000000006" lon="4.342510000000001">
    <ele>1.68</ele>
   </trkpt>
   <trkpt lat="52.05178" lon="4.342510000000001">
    <ele>1.68</ele>
   </trkpt>
   <trkpt lat="52.051790000000004" lon="4.34262">
    <ele>1.41</ele>
   </trkpt>
   <trkpt lat="52.051840000000006" lon="4.342700000000001">
    <ele>1.41</ele>
   </trkpt>
   <trkpt lat="52.05199" lon="4.342840000000001">
    <ele>1.2300000000000002</ele>
   </trkpt>
   <trkpt lat="52.052170000000004" lon="4.342890000000001">
    <ele>1.2000000000000002</ele>
   </trkpt>
   <trkpt lat="52.052260000000004" lon="4.3428700000000005">
    <ele>1.25</ele>
   </trkpt>
   <trkpt lat="52.05234" lon="4.34279">
    <ele>1.3900000000000001</ele>
   </trkpt>
   <trkpt lat="52.05238000000001" lon="4.34272">
    <ele>1.3900000000000001</ele>
   </trkpt>
   <trkpt lat="52.0525" lon="4.34241">
    <ele>1.86</ele>
   </trkpt>
   <trkpt lat="52.05261" lon="4.342230000000001">
    <ele>1.86</ele>
   </trkpt>
   <trkpt lat="52.05308" lon="4.34302">
    <ele>1.84</ele>
   </trkpt>
   <trkpt lat="52.05375001038506" lon="4.343924959268146">
    <ele>2.0100000000000002</ele>
   </trkpt>
   <trkpt lat="52.05442001383878" lon="4.344829945678949">
    <ele>2.1</ele>
   </trkpt>
   <trkpt lat="52.05509001036075" lon="4.345734959233595">
    <ele>2.12</ele>
   </trkpt>
   <trkpt lat="52.05576000000001" lon="4.346640000000001">
    <ele>2.18</ele>
   </trkpt>
   <trkpt lat="52.05592000000001" lon="4.34679">
    <ele>2.16</ele>
   </trkpt>
   <trkpt lat="52.056050000000006" lon="4.34689">
    <ele>2.16</ele>
   </trkpt>
   <trkpt lat="52.05622" lon="4.34696">
    <ele>2.17</ele>
   </trkpt>
   <trkpt lat="52.05644" lon="4.347">
    <ele>2.1300000000000003</ele>
   </trkpt>
   <trkpt lat="52.05666" lon="4.34696">
    <ele>2.15</ele>
   </trkpt>
   <trkpt lat="52.05695000000001" lon="4.3468">
    <ele>2.1</ele>
   </trkpt>
   <trkpt lat="52.05697000000001" lon="4.346780000000001">
    <ele>2.1</ele>
   </trkpt>
   <trkpt lat="52.057210000000005" lon="4.346570000000001">
    <ele>2.1</ele>
   </trkpt>
   <trkpt lat="52.057745001497665" lon="4.345985006952029">
    <ele>2.0100000000000002</ele>
   </trkpt>
   <trkpt lat="52.05828" lon="4.345400000000001">
    <ele>2.12</ele>
   </trkpt>
   <trkpt lat="52.05888" lon="4.344740000000001">
    <ele>2.31</ele>
   </trkpt>
   <trkpt lat="52.05895" lon="4.34463">
    <ele>2.5</ele>
   </trkpt>
   <trkpt lat="52.059180000000005" lon="4.34421">
    <ele>3.25</ele>
   </trkpt>
   <trkpt lat="52.05928" lon="4.34396">
    <ele>3.45</ele>
   </trkpt>
   <trkpt lat="52.05933" lon="4.3437600000000005">
    <ele>3.4200000000000004</ele>
   </trkpt>
   <trkpt lat="52.05990500249492" lon="4.34299500982299">
    <ele>2.17</ele>
   </trkpt>
   <trkpt lat="52.060480000000005" lon="4.342230000000001">
    <ele>2.19</ele>
   </trkpt>
   <trkpt lat="52.060930000000006" lon="4.34159">
    <ele>2.14</ele>
   </trkpt>
   <trkpt lat="52.06136000000001" lon="4.34091">
    <ele>2.0900000000000003</ele>
   </trkpt>
   <trkpt lat="52.06175" lon="4.34023">
    <ele>2.15</ele>
   </trkpt>
   <trkpt lat="52.06192000000001" lon="4.3399600000000005">
    <ele>2.15</ele>
   </trkpt>
   <trkpt lat="52.06260601176116" lon="4.339126051252657">
    <ele>2.0100000000000002</ele>
   </trkpt>
   <trkpt lat="52.06329201763652" lon="4.338292076886933">
    <ele>2.0500000000000003</ele>
   </trkpt>
   <trkpt lat="52.063978017625736" lon="4.337458076901629">
    <ele>1.97</ele>
   </trkpt>
   <trkpt lat="52.064664011728524" lon="4.336624051295544">
    <ele>1.98</ele>
   </trkpt>
   <trkpt lat="52.06535" lon="4.33579">
    <ele>2.02</ele>
   </trkpt>
   <trkpt lat="52.066025002865985" lon="4.334955012724994">
    <ele>1.99</ele>
   </trkpt>
   <trkpt lat="52.066700000000004" lon="4.33412">
    <ele>2.02</ele>
   </trkpt>
   <trkpt lat="52.06678" lon="4.334020000000001">
    <ele>2.04</ele>
   </trkpt>
   <trkpt lat="52.066900000000004" lon="4.333690000000001">
    <ele>2.04</ele>
   </trkpt>
   <trkpt lat="52.067220000000006" lon="4.33337">
    <ele>2.2600000000000002</ele>
   </trkpt>
   <trkpt lat="52.067460000000004" lon="4.3331100000000005">
    <ele>2.5100000000000002</ele>
   </trkpt>
   <trkpt lat="52.06749000000001" lon="4.33303">
    <ele>2.5100000000000002</ele>
   </trkpt>
   <trkpt lat="52.06761" lon="4.33222">
    <ele>2.5900000000000003</ele>
   </trkpt>
   <trkpt lat="52.06785000000001" lon="4.3319600000000005">
    <ele>2.7</ele>
   </trkpt>
   <trkpt lat="52.06759" lon="4.33143">
    <ele>2.25</ele>
   </trkpt>
   <trkpt lat="52.06719500433102" lon="4.3304199911039305">
    <ele>2.47</ele>
   </trkpt>
   <trkpt lat="52.06680000000001" lon="4.32941">
    <ele>2.45</ele>
   </trkpt>
   <trkpt lat="52.06665" lon="4.329070000000001">
    <ele>2.74</ele>
   </trkpt>
   <trkpt lat="52.066790000000005" lon="4.32897">
    <ele>3.37</ele>
   </trkpt>
   <trkpt lat="52.066790000000005" lon="4.328880000000001">
    <ele>3.37</ele>
   </trkpt>
   <trkpt lat="52.067400000000006" lon="4.32831">
    <ele>4.760000000000001</ele>
   </trkpt>
   <trkpt lat="52.0678050007764" lon="4.327890003778047">
    <ele>4.07</ele>
   </trkpt>
   <trkpt lat="52.06821000000001" lon="4.32747">
    <ele>3.25</ele>
   </trkpt>
   <trkpt lat="52.06881500102708" lon="4.326985006545636">
    <ele>3.08</ele>
   </trkpt>
   <trkpt lat="52.06942" lon="4.3265">
    <ele>3.16</ele>
   </trkpt>
   <trkpt lat="52.06967" lon="4.32627">
    <ele>3.0700000000000003</ele>
   </trkpt>
   <trkpt lat="52.06969" lon="4.32631">
    <ele>3.0700000000000003</ele>
   </trkpt>
   <trkpt lat="52.07011000000001" lon="4.32594">
    <ele>3.08</ele>
   </trkpt>
   <trkpt lat="52.07014" lon="4.3261400000000005">
    <ele>2.5900000000000003</ele>
   </trkpt>
   <trkpt lat="52.07020000000001" lon="4.32608">
    <ele>2.41</ele>
   </trkpt>
   <trkpt lat="52.07023" lon="4.32613">
    <ele>2.45</ele>
   </trkpt>
   <trkpt lat="52.07054" lon="4.32585">
    <ele>2.33</ele>
   </trkpt>
   <trkpt lat="52.070730000000005" lon="4.32565">
    <ele>2.0700000000000003</ele>
   </trkpt>
   <trkpt lat="52.070800000000006" lon="4.325550000000001">
    <ele>2.0100000000000002</ele>
   </trkpt>
   <trkpt lat="52.071250000000006" lon="4.32512">
    <ele>1.9600000000000004</ele>
   </trkpt>
   <trkpt lat="52.07151" lon="4.32497">
    <ele>2.4000000000000004</ele>
   </trkpt>
   <trkpt lat="52.07202" lon="4.3245000000000005">
    <ele>2.7700000000000005</ele>
   </trkpt>
   <trkpt lat="52.07213" lon="4.324450000000001">
    <ele>2.9400000000000004</ele>
   </trkpt>
   <trkpt lat="52.071830000000006" lon="4.32413">
    <ele>3.4000000000000004</ele>
   </trkpt>
   <trkpt lat="52.07182" lon="4.32383">
    <ele>3.2700000000000005</ele>
   </trkpt>
   <trkpt lat="52.07143000000001" lon="4.32373">
    <ele>3.12</ele>
   </trkpt>
   <trkpt lat="52.0713" lon="4.32366">
    <ele>2.97</ele>
   </trkpt>
   <trkpt lat="52.07115" lon="4.3235">
    <ele>3.0100000000000002</ele>
   </trkpt>
   <trkpt lat="52.071180000000005" lon="4.32343">
    <ele>3.0100000000000002</ele>
   </trkpt>
   <trkpt lat="52.071360000000006" lon="4.323580000000001">
    <ele>3.0500000000000003</ele>
   </trkpt>
   <trkpt lat="52.07144" lon="4.32362">
    <ele>3.0500000000000003</ele>
   </trkpt>
   <trkpt lat="52.07157" lon="4.32366">
    <ele>3.1100000000000003</ele>
   </trkpt>
   <trkpt lat="52.07184" lon="4.323670000000001">
    <ele>3.17</ele>
   </trkpt>
   <trkpt lat="52.07195" lon="4.3236300000000005">
    <ele>2.9200000000000004</ele>
   </trkpt>
   <trkpt lat="52.07211" lon="4.323530000000001">
    <ele>2.71</ele>
   </trkpt>
   <trkpt lat="52.07247" lon="4.3230900000000005">
    <ele>3.1100000000000003</ele>
   </trkpt>
   <trkpt lat="52.07267" lon="4.32366">
    <ele>3.8300000000000005</ele>
   </trkpt>
   <trkpt lat="52.0728" lon="4.32383">
    <ele>4.07</ele>
   </trkpt>
   <trkpt lat="52.073130000000006" lon="4.32416">
    <ele>4.38</ele>
   </trkpt>
   <trkpt lat="52.073190000000004" lon="4.324070000000001">
    <ele>3.94</ele>
   </trkpt>
   <trkpt lat="52.073240000000006" lon="4.32394">
    <ele>3.69</ele>
   </trkpt>
   <trkpt lat="52.0735" lon="4.32348">
    <ele>3.3200000000000003</ele>
   </trkpt>
   <trkpt lat="52.073820000000005" lon="4.32294">
    <ele>3.22</ele>
   </trkpt>
   <trkpt lat="52.07417000197939" lon="4.322260005286272">
    <ele>3.19</ele>
   </trkpt>
   <trkpt lat="52.07452000000001" lon="4.32158">
    <ele>3.33</ele>
   </trkpt>
   <trkpt lat="52.07475" lon="4.32117">
    <ele>3.9000000000000004</ele>
   </trkpt>
   <trkpt lat="52.07509" lon="4.32071">
    <ele>4.6000000000000005</ele>
   </trkpt>
   <trkpt lat="52.07513" lon="4.32063">
    <ele>4.6000000000000005</ele>
   </trkpt>
   <trkpt lat="52.075140000000005" lon="4.320530000000001">
    <ele>4.62</ele>
   </trkpt>
   <trkpt lat="52.07504" lon="4.3197">
    <ele>4.57</ele>
   </trkpt>
   <trkpt lat="52.07509" lon="4.31956">
    <ele>4.3</ele>
   </trkpt>
   <trkpt lat="52.075475002203696" lon="4.3188500059923065">
    <ele>3.73</ele>
   </trkpt>
   <trkpt lat="52.075860000000006" lon="4.3181400000000005">
    <ele>3.89</ele>
   </trkpt>
   <trkpt lat="52.076100000000004" lon="4.31763">
    <ele>3.98</ele>
   </trkpt>
   <trkpt lat="52.07639500139588" lon="4.317065003646925">
    <ele>4.16</ele>
   </trkpt>
   <trkpt lat="52.076690000000006" lon="4.3165000000000004">
    <ele>4.410000000000001</ele>
   </trkpt>
   <trkpt lat="52.07709000243955" lon="4.315765006303112">
    <ele>4.3100000000000005</ele>
   </trkpt>
   <trkpt lat="52.077490000000004" lon="4.31503">
    <ele>4.73</ele>
   </trkpt>
   <trkpt lat="52.07753" lon="4.31515">
    <ele>4.73</ele>
   </trkpt>
  </trkseg>
 </trk>
</gpx>
