<?xml version="1.0" encoding="UTF-8"?>
<gpx creator="StravaGPX" version="1.1" xmlns="http://www.topografix.com/GPX/1/1" xmlns:xsi="http://www.w3.org/2001/XMLSchema-instance" xsi:schemaLocation="http://www.topografix.com/GPX/1/1 http://www.topografix.com/GPX/1/1/gpx.xsd">
 <metadata>
  <name>Delft intial extra 44km loop</name>
  <author>
   <name>Andrew Goudie</name>
  </author>
  <copyright author="OpenStreetMap contributors">
   <year>2020</year>
   <license>https://www.openstreetmap.org/copyright</license>
  </copyright>
 </metadata>
 <trk>
  <name>Delft intial extra 44km loop</name>
  <link href=""/>
  <type>cycling</type>
  <trkseg>
   <trkpt lat="52.079080000000005" lon="4.31154">
    <ele>6.0200000000000005</ele>
   </trkpt>
   <trkpt lat="52.07900000000001" lon="4.311710000000001">
    <ele>6.0200000000000005</ele>
   </trkpt>
   <trkpt lat="52.078660000000006" lon="4.31216">
    <ele>5.72</ele>
   </trkpt>
   <trkpt lat="52.07855000000001" lon="4.31233">
    <ele>5.72</ele>
   </trkpt>
   <trkpt lat="52.078500000000005" lon="4.312600000000001">
    <ele>5.61</ele>
   </trkpt>
   <trkpt lat="52.07849" lon="4.31327">
    <ele>5.55</ele>
   </trkpt>
   <trkpt lat="52.0784" lon="4.3138000000000005">
    <ele>5.540000000000001</ele>
   </trkpt>
   <trkpt lat="52.07808000131835" lon="4.314360004029208">
    <ele>5.0200000000000005</ele>
   </trkpt>
   <trkpt lat="52.077760000000005" lon="4.314920000000001">
    <ele>4.7700000000000005</ele>
   </trkpt>
   <trkpt lat="52.077560000000005" lon="4.31524">
    <ele>4.710000000000001</ele>
   </trkpt>
   <trkpt lat="52.077490000000004" lon="4.31503">
    <ele>4.78</ele>
   </trkpt>
   <trkpt lat="52.07709000213168" lon="4.315765006868826">
    <ele>4.3100000000000005</ele>
   </trkpt>
   <trkpt lat="52.076690000000006" lon="4.3165000000000004">
    <ele>4.410000000000001</ele>
   </trkpt>
   <trkpt lat="52.07639500130532" lon="4.317065003820348">
    <ele>4.0</ele>
   </trkpt>
   <trkpt lat="52.076100000000004" lon="4.31763">
    <ele>3.9000000000000004</ele>
   </trkpt>
   <trkpt lat="52.075860000000006" lon="4.3181400000000005">
    <ele>3.87</ele>
   </trkpt>
   <trkpt lat="52.075475002061914" lon="4.318850006253751">
    <ele>3.7600000000000002</ele>
   </trkpt>
   <trkpt lat="52.07509" lon="4.31956">
    <ele>4.410000000000001</ele>
   </trkpt>
   <trkpt lat="52.07504" lon="4.3197">
    <ele>4.57</ele>
   </trkpt>
   <trkpt lat="52.075140000000005" lon="4.320530000000001">
    <ele>4.6000000000000005</ele>
   </trkpt>
   <trkpt lat="52.07513" lon="4.32063">
    <ele>4.6000000000000005</ele>
   </trkpt>
   <trkpt lat="52.07509" lon="4.32071">
    <ele>4.64</ele>
   </trkpt>
   <trkpt lat="52.07475" lon="4.32117">
    <ele>3.6600000000000006</ele>
   </trkpt>
   <trkpt lat="52.07452000000001" lon="4.32158">
    <ele>3.33</ele>
   </trkpt>
   <trkpt lat="52.0741700019334" lon="4.322260005375606">
    <ele>3.19</ele>
   </trkpt>
   <trkpt lat="52.073820000000005" lon="4.32294">
    <ele>3.23</ele>
   </trkpt>
   <trkpt lat="52.0735" lon="4.32348">
    <ele>3.2</ele>
   </trkpt>
   <trkpt lat="52.073240000000006" lon="4.32394">
    <ele>3.94</ele>
   </trkpt>
   <trkpt lat="52.073190000000004" lon="4.324070000000001">
    <ele>4.38</ele>
   </trkpt>
   <trkpt lat="52.073130000000006" lon="4.32416">
    <ele>4.19</ele>
   </trkpt>
   <trkpt lat="52.0728" lon="4.32383">
    <ele>4.07</ele>
   </trkpt>
   <trkpt lat="52.07267" lon="4.32366">
    <ele>3.8300000000000005</ele>
   </trkpt>
   <trkpt lat="52.07247" lon="4.3230900000000005">
    <ele>3.1100000000000003</ele>
   </trkpt>
   <trkpt lat="52.07211" lon="4.323530000000001">
    <ele>2.75</ele>
   </trkpt>
   <trkpt lat="52.07195" lon="4.3236300000000005">
    <ele>2.9200000000000004</ele>
   </trkpt>
   <trkpt lat="52.07184" lon="4.323670000000001">
    <ele>3.17</ele>
   </trkpt>
   <trkpt lat="52.07171" lon="4.32368">
    <ele>3.1100000000000003</ele>
   </trkpt>
   <trkpt lat="52.07157" lon="4.32366">
    <ele>3.1100000000000003</ele>
   </trkpt>
   <trkpt lat="52.07144" lon="4.32362">
    <ele>3.0500000000000003</ele>
   </trkpt>
   <trkpt lat="52.07157" lon="4.32366">
    <ele>3.1100000000000003</ele>
   </trkpt>
   <trkpt lat="52.071810000000006" lon="4.323670000000001">
    <ele>3.16</ele>
   </trkpt>
   <trkpt lat="52.071830000000006" lon="4.32413">
    <ele>3.4000000000000004</ele>
   </trkpt>
   <trkpt lat="52.07213" lon="4.324450000000001">
    <ele>2.9400000000000004</ele>
   </trkpt>
   <trkpt lat="52.07202" lon="4.3245000000000005">
    <ele>2.7</ele>
   </trkpt>
   <trkpt lat="52.07151" lon="4.32497">
    <ele>2.4000000000000004</ele>
   </trkpt>
   <trkpt lat="52.071250000000006" lon="4.32512">
    <ele>1.9600000000000004</ele>
   </trkpt>
   <trkpt lat="52.070800000000006" lon="4.325550000000001">
    <ele>2.0700000000000003</ele>
   </trkpt>
   <trkpt lat="52.070730000000005" lon="4.32565">
    <ele>2.0700000000000003</ele>
   </trkpt>
   <trkpt lat="52.07054" lon="4.32585">
    <ele>2.33</ele>
   </trkpt>
   <trkpt lat="52.07023" lon="4.32613">
    <ele>2.5900000000000003</ele>
   </trkpt>
   <trkpt lat="52.07020000000001" lon="4.32608">
    <ele>2.5900000000000003</ele>
   </trkpt>
   <trkpt lat="52.07014" lon="4.3261400000000005">
    <ele>2.6400000000000006</ele>
   </trkpt>
   <trkpt lat="52.07011000000001" lon="4.32594">
    <ele>3.08</ele>
   </trkpt>
   <trkpt lat="52.06969" lon="4.32631">
    <ele>3.16</ele>
   </trkpt>
   <trkpt lat="52.06967" lon="4.32627">
    <ele>3.16</ele>
   </trkpt>
   <trkpt lat="52.06942" lon="4.3265">
    <ele>3.16</ele>
   </trkpt>
   <trkpt lat="52.06881500096346" lon="4.326985006596626">
    <ele>3.16</ele>
   </trkpt>
   <trkpt lat="52.06821000000001" lon="4.32747">
    <ele>3.4200000000000004</ele>
   </trkpt>
   <trkpt lat="52.06780500071637" lon="4.327890003840314">
    <ele>4.12</ele>
   </trkpt>
   <trkpt lat="52.067400000000006" lon="4.32831">
    <ele>4.760000000000001</ele>
   </trkpt>
   <trkpt lat="52.067080000000004" lon="4.32862">
    <ele>4.24</ele>
   </trkpt>
   <trkpt lat="52.066790000000005" lon="4.328880000000001">
    <ele>3.49</ele>
   </trkpt>
   <trkpt lat="52.066610000000004" lon="4.329000000000001">
    <ele>2.8100000000000005</ele>
   </trkpt>
   <trkpt lat="52.06680000000001" lon="4.32941">
    <ele>2.45</ele>
   </trkpt>
   <trkpt lat="52.067195004301524" lon="4.3304199910284735">
    <ele>2.47</ele>
   </trkpt>
   <trkpt lat="52.06759" lon="4.33143">
    <ele>2.3000000000000003</ele>
   </trkpt>
   <trkpt lat="52.06785000000001" lon="4.3319600000000005">
    <ele>2.7</ele>
   </trkpt>
   <trkpt lat="52.06761" lon="4.33222">
    <ele>2.6400000000000006</ele>
   </trkpt>
   <trkpt lat="52.06749000000001" lon="4.33303">
    <ele>2.2600000000000002</ele>
   </trkpt>
   <trkpt lat="52.067460000000004" lon="4.3331100000000005">
    <ele>2.2600000000000002</ele>
   </trkpt>
   <trkpt lat="52.06716" lon="4.333430000000001">
    <ele>1.7000000000000002</ele>
   </trkpt>
   <trkpt lat="52.06712" lon="4.33331">
    <ele>1.7000000000000002</ele>
   </trkpt>
   <trkpt lat="52.066590000000005" lon="4.333810000000001">
    <ele>1.79</ele>
   </trkpt>
   <trkpt lat="52.066700000000004" lon="4.33412">
    <ele>2.02</ele>
   </trkpt>
   <trkpt lat="52.06602500303432" lon="4.334955012516768">
    <ele>2.0500000000000003</ele>
   </trkpt>
   <trkpt lat="52.06535" lon="4.33579">
    <ele>2.02</ele>
   </trkpt>
   <trkpt lat="52.06466401178402" lon="4.336624051228066">
    <ele>1.98</ele>
   </trkpt>
   <trkpt lat="52.06397801768125" lon="4.337458076834152">
    <ele>1.9400000000000002</ele>
   </trkpt>
   <trkpt lat="52.06329201769202" lon="4.338292076819457">
    <ele>2.0500000000000003</ele>
   </trkpt>
   <trkpt lat="52.06260601181667" lon="4.339126051185182">
    <ele>2.0100000000000002</ele>
   </trkpt>
   <trkpt lat="52.06192000000001" lon="4.3399600000000005">
    <ele>2.15</ele>
   </trkpt>
   <trkpt lat="52.06175" lon="4.34023">
    <ele>2.15</ele>
   </trkpt>
   <trkpt lat="52.06136000000001" lon="4.34091">
    <ele>2.0900000000000003</ele>
   </trkpt>
   <trkpt lat="52.060930000000006" lon="4.34159">
    <ele>2.14</ele>
   </trkpt>
   <trkpt lat="52.060480000000005" lon="4.342230000000001">
    <ele>2.19</ele>
   </trkpt>
   <trkpt lat="52.05990500245782" lon="4.34299500987233">
    <ele>2.17</ele>
   </trkpt>
   <trkpt lat="52.05933" lon="4.3437600000000005">
    <ele>3.45</ele>
   </trkpt>
   <trkpt lat="52.05928" lon="4.34396">
    <ele>3.33</ele>
   </trkpt>
   <trkpt lat="52.059180000000005" lon="4.34421">
    <ele>2.86</ele>
   </trkpt>
   <trkpt lat="52.05895" lon="4.34463">
    <ele>2.5</ele>
   </trkpt>
   <trkpt lat="52.05888" lon="4.344740000000001">
    <ele>2.31</ele>
   </trkpt>
   <trkpt lat="52.05828" lon="4.345400000000001">
    <ele>2.12</ele>
   </trkpt>
   <trkpt lat="52.05774500139866" lon="4.345985007060279">
    <ele>1.99</ele>
   </trkpt>
   <trkpt lat="52.057210000000005" lon="4.346570000000001">
    <ele>2.12</ele>
   </trkpt>
   <trkpt lat="52.05697000000001" lon="4.346780000000001">
    <ele>2.1</ele>
   </trkpt>
   <trkpt lat="52.05695000000001" lon="4.34679">
    <ele>2.1</ele>
   </trkpt>
   <trkpt lat="52.05666" lon="4.34696">
    <ele>2.15</ele>
   </trkpt>
   <trkpt lat="52.05644" lon="4.347">
    <ele>2.1300000000000003</ele>
   </trkpt>
   <trkpt lat="52.05622" lon="4.34696">
    <ele>2.17</ele>
   </trkpt>
   <trkpt lat="52.056050000000006" lon="4.34689">
    <ele>2.16</ele>
   </trkpt>
   <trkpt lat="52.05592000000001" lon="4.34679">
    <ele>2.16</ele>
   </trkpt>
   <trkpt lat="52.05576000000001" lon="4.346640000000001">
    <ele>2.18</ele>
   </trkpt>
   <trkpt lat="52.055090010410154" lon="4.345734959300322">
    <ele>2.12</ele>
   </trkpt>
   <trkpt lat="52.05442001388819" lon="4.3448299457456745">
    <ele>2.1</ele>
   </trkpt>
   <trkpt lat="52.05375001043448" lon="4.3439249593348706">
    <ele>2.0100000000000002</ele>
   </trkpt>
   <trkpt lat="52.05308" lon="4.34302">
    <ele>1.84</ele>
   </trkpt>
   <trkpt lat="52.05261" lon="4.342230000000001">
    <ele>1.86</ele>
   </trkpt>
   <trkpt lat="52.0525" lon="4.34241">
    <ele>1.61</ele>
   </trkpt>
   <trkpt lat="52.05238000000001" lon="4.34272">
    <ele>1.3900000000000001</ele>
   </trkpt>
   <trkpt lat="52.05234" lon="4.34279">
    <ele>1.25</ele>
   </trkpt>
   <trkpt lat="52.052260000000004" lon="4.3428700000000005">
    <ele>1.25</ele>
   </trkpt>
   <trkpt lat="52.052170000000004" lon="4.342890000000001">
    <ele>1.2000000000000002</ele>
   </trkpt>
   <trkpt lat="52.05199" lon="4.342840000000001">
    <ele>1.2300000000000002</ele>
   </trkpt>
   <trkpt lat="52.051840000000006" lon="4.342700000000001">
    <ele>1.41</ele>
   </trkpt>
   <trkpt lat="52.051790000000004" lon="4.34262">
    <ele>1.41</ele>
   </trkpt>
   <trkpt lat="52.05178" lon="4.342510000000001">
    <ele>1.8200000000000003</ele>
   </trkpt>
   <trkpt lat="52.05180000000001" lon="4.34241">
    <ele>1.8200000000000003</ele>
   </trkpt>
   <trkpt lat="52.05169000000001" lon="4.342440000000001">
    <ele>1.86</ele>
   </trkpt>
   <trkpt lat="52.05145" lon="4.3424000000000005">
    <ele>1.86</ele>
   </trkpt>
   <trkpt lat="52.051" lon="4.34239">
    <ele>1.9100000000000001</ele>
   </trkpt>
   <trkpt lat="52.05015666684714" lon="4.342513337981194">
    <ele>1.85</ele>
   </trkpt>
   <trkpt lat="52.049313333565536" lon="4.342636671306858">
    <ele>1.85</ele>
   </trkpt>
   <trkpt lat="52.04847" lon="4.34276">
    <ele>2.75</ele>
   </trkpt>
   <trkpt lat="52.04838" lon="4.34274">
    <ele>2.75</ele>
   </trkpt>
   <trkpt lat="52.048260000000006" lon="4.342650000000001">
    <ele>2.9400000000000004</ele>
   </trkpt>
   <trkpt lat="52.048170000000006" lon="4.34264">
    <ele>2.9400000000000004</ele>
   </trkpt>
   <trkpt lat="52.047990000000006" lon="4.34276">
    <ele>2.83</ele>
   </trkpt>
   <trkpt lat="52.04719000009106" lon="4.34288000214369">
    <ele>2.69</ele>
   </trkpt>
   <trkpt lat="52.04639" lon="4.343">
    <ele>2.4200000000000004</ele>
   </trkpt>
   <trkpt lat="52.046350000000004" lon="4.342980000000001">
    <ele>2.4200000000000004</ele>
   </trkpt>
   <trkpt lat="52.04618000000001" lon="4.34299">
    <ele>2.06</ele>
   </trkpt>
   <trkpt lat="52.045880000000004" lon="4.34292">
    <ele>2.0100000000000002</ele>
   </trkpt>
   <trkpt lat="52.04561" lon="4.34293">
    <ele>2.2700000000000005</ele>
   </trkpt>
   <trkpt lat="52.04552" lon="4.342890000000001">
    <ele>2.39</ele>
   </trkpt>
   <trkpt lat="52.045460000000006" lon="4.34286">
    <ele>2.39</ele>
   </trkpt>
   <trkpt lat="52.04527" lon="4.342580000000001">
    <ele>2.2900000000000005</ele>
   </trkpt>
   <trkpt lat="52.04504000000001" lon="4.3423300000000005">
    <ele>1.9000000000000001</ele>
   </trkpt>
   <trkpt lat="52.04467" lon="4.3429400000000005">
    <ele>1.08</ele>
   </trkpt>
   <trkpt lat="52.04449" lon="4.343190000000001">
    <ele>1.1500000000000001</ele>
   </trkpt>
   <trkpt lat="52.044290000000004" lon="4.34337">
    <ele>1.2200000000000002</ele>
   </trkpt>
   <trkpt lat="52.044090000000004" lon="4.343450000000001">
    <ele>1.33</ele>
   </trkpt>
   <trkpt lat="52.04403000000001" lon="4.34349">
    <ele>1.33</ele>
   </trkpt>
   <trkpt lat="52.0434300000157" lon="4.343560000940303">
    <ele>1.01</ele>
   </trkpt>
   <trkpt lat="52.04283" lon="4.34363">
    <ele>1.09</ele>
   </trkpt>
   <trkpt lat="52.04227" lon="4.34372">
    <ele>1.25</ele>
   </trkpt>
   <trkpt lat="52.04207" lon="4.34368">
    <ele>1.28</ele>
   </trkpt>
   <trkpt lat="52.04189" lon="4.34358">
    <ele>1.3900000000000001</ele>
   </trkpt>
   <trkpt lat="52.04186000000001" lon="4.3437">
    <ele>1.3800000000000001</ele>
   </trkpt>
   <trkpt lat="52.04177000000001" lon="4.34384">
    <ele>1.3900000000000001</ele>
   </trkpt>
   <trkpt lat="52.04171" lon="4.343870000000001">
    <ele>1.3900000000000001</ele>
   </trkpt>
   <trkpt lat="52.041500000000006" lon="4.34391">
    <ele>1.4600000000000002</ele>
   </trkpt>
   <trkpt lat="52.040890000097434" lon="4.344010001355665">
    <ele>1.51</ele>
   </trkpt>
   <trkpt lat="52.04028" lon="4.344110000000001">
    <ele>1.3900000000000001</ele>
   </trkpt>
   <trkpt lat="52.04018000000001" lon="4.34419">
    <ele>1.3900000000000001</ele>
   </trkpt>
   <trkpt lat="52.03971000000001" lon="4.34428">
    <ele>1.34</ele>
   </trkpt>
   <trkpt lat="52.03887" lon="4.344410000000001">
    <ele>1.4000000000000001</ele>
   </trkpt>
   <trkpt lat="52.03877000000001" lon="4.344410000000001">
    <ele>1.42</ele>
   </trkpt>
   <trkpt lat="52.03842" lon="4.344270000000001">
    <ele>1.36</ele>
   </trkpt>
   <trkpt lat="52.03824" lon="4.344320000000001">
    <ele>1.36</ele>
   </trkpt>
   <trkpt lat="52.037960000000005" lon="4.3445800000000006">
    <ele>1.36</ele>
   </trkpt>
   <trkpt lat="52.037670000000006" lon="4.344650000000001">
    <ele>1.37</ele>
   </trkpt>
   <trkpt lat="52.03689500003087" lon="4.344770002084963">
    <ele>1.3900000000000001</ele>
   </trkpt>
   <trkpt lat="52.036120000000004" lon="4.34489">
    <ele>1.36</ele>
   </trkpt>
   <trkpt lat="52.03595000000001" lon="4.34496">
    <ele>1.37</ele>
   </trkpt>
   <trkpt lat="52.035720000000005" lon="4.3451">
    <ele>1.33</ele>
   </trkpt>
   <trkpt lat="52.035590000000006" lon="4.34513">
    <ele>1.33</ele>
   </trkpt>
   <trkpt lat="52.035250000000005" lon="4.3451200000000005">
    <ele>1.41</ele>
   </trkpt>
   <trkpt lat="52.03455" lon="4.3452">
    <ele>1.1900000000000002</ele>
   </trkpt>
   <trkpt lat="52.03423" lon="4.34522">
    <ele>1.24</ele>
   </trkpt>
   <trkpt lat="52.033480000000004" lon="4.345350000000001">
    <ele>1.2300000000000002</ele>
   </trkpt>
   <trkpt lat="52.032830000000004" lon="4.34553">
    <ele>1.24</ele>
   </trkpt>
   <trkpt lat="52.03212250022938" lon="4.345655005928213">
    <ele>1.2100000000000002</ele>
   </trkpt>
   <trkpt lat="52.03141500032646" lon="4.345780007900488">
    <ele>1.2300000000000002</ele>
   </trkpt>
   <trkpt lat="52.0307075002913" lon="4.345905005917047">
    <ele>1.25</ele>
   </trkpt>
   <trkpt lat="52.03" lon="4.346030000000001">
    <ele>1.16</ele>
   </trkpt>
   <trkpt lat="52.029500000000006" lon="4.346150000000001">
    <ele>1.1300000000000001</ele>
   </trkpt>
   <trkpt lat="52.02872500002942" lon="4.346235001473245">
    <ele>1.16</ele>
   </trkpt>
   <trkpt lat="52.027950000000004" lon="4.34632">
    <ele>1.16</ele>
   </trkpt>
   <trkpt lat="52.02743500001408" lon="4.346415001098475">
    <ele>1.2000000000000002</ele>
   </trkpt>
   <trkpt lat="52.026920000000004" lon="4.34651">
    <ele>1.4700000000000002</ele>
   </trkpt>
   <trkpt lat="52.02676" lon="4.3465300000000004">
    <ele>1.41</ele>
   </trkpt>
   <trkpt lat="52.02666000000001" lon="4.34659">
    <ele>1.16</ele>
   </trkpt>
   <trkpt lat="52.02624" lon="4.3466700000000005">
    <ele>1.12</ele>
   </trkpt>
   <trkpt lat="52.026" lon="4.346710000000001">
    <ele>0.99</ele>
   </trkpt>
   <trkpt lat="52.02595" lon="4.346690000000001">
    <ele>0.99</ele>
   </trkpt>
   <trkpt lat="52.02533000019853" lon="4.3467900013611">
    <ele>0.99</ele>
   </trkpt>
   <trkpt lat="52.024710000000006" lon="4.34689">
    <ele>0.99</ele>
   </trkpt>
   <trkpt lat="52.02420499983943" lon="4.346990001169291">
    <ele>0.99</ele>
   </trkpt>
   <trkpt lat="52.023700000000005" lon="4.347090000000001">
    <ele>0.9</ele>
   </trkpt>
   <trkpt lat="52.02344" lon="4.34719">
    <ele>0.9500000000000001</ele>
   </trkpt>
   <trkpt lat="52.02337000000001" lon="4.347250000000001">
    <ele>0.93</ele>
   </trkpt>
   <trkpt lat="52.02275" lon="4.347530000000001">
    <ele>1.53</ele>
   </trkpt>
   <trkpt lat="52.022670000000005" lon="4.347530000000001">
    <ele>1.53</ele>
   </trkpt>
   <trkpt lat="52.02253" lon="4.34741">
    <ele>1.7000000000000002</ele>
   </trkpt>
   <trkpt lat="52.02237" lon="4.3476300000000005">
    <ele>1.6600000000000001</ele>
   </trkpt>
   <trkpt lat="52.02208" lon="4.3478200000000005">
    <ele>1.2300000000000002</ele>
   </trkpt>
   <trkpt lat="52.02156" lon="4.348070000000001">
    <ele>1.12</ele>
   </trkpt>
   <trkpt lat="52.02129000000001" lon="4.34818">
    <ele>0.8700000000000001</ele>
   </trkpt>
   <trkpt lat="52.02121" lon="4.348190000000001">
    <ele>0.8700000000000001</ele>
   </trkpt>
   <trkpt lat="52.021170000000005" lon="4.34818">
    <ele>0.8700000000000001</ele>
   </trkpt>
   <trkpt lat="52.020830000000004" lon="4.3478900000000005">
    <ele>1.03</ele>
   </trkpt>
   <trkpt lat="52.02075000000001" lon="4.34785">
    <ele>1.2000000000000002</ele>
   </trkpt>
   <trkpt lat="52.02067" lon="4.34785">
    <ele>1.2000000000000002</ele>
   </trkpt>
   <trkpt lat="52.02067" lon="4.347860000000001">
    <ele>1.2000000000000002</ele>
   </trkpt>
   <trkpt lat="52.02055000000001" lon="4.347930000000001">
    <ele>1.2100000000000002</ele>
   </trkpt>
   <trkpt lat="52.02051" lon="4.348000000000001">
    <ele>0.9700000000000001</ele>
   </trkpt>
   <trkpt lat="52.020480000000006" lon="4.3481000000000005">
    <ele>0.9700000000000001</ele>
   </trkpt>
   <trkpt lat="52.020450000000004" lon="4.3484300000000005">
    <ele>0.6100000000000001</ele>
   </trkpt>
   <trkpt lat="52.02037000000001" lon="4.34874">
    <ele>0.5700000000000001</ele>
   </trkpt>
   <trkpt lat="52.0202" lon="4.349080000000001">
    <ele>0.59</ele>
   </trkpt>
   <trkpt lat="52.02009" lon="4.349200000000001">
    <ele>0.71</ele>
   </trkpt>
   <trkpt lat="52.01938500105852" lon="4.3496900076931455">
    <ele>0.89</ele>
   </trkpt>
   <trkpt lat="52.01868" lon="4.35018">
    <ele>1.1900000000000002</ele>
   </trkpt>
   <trkpt lat="52.017970000000005" lon="4.35066">
    <ele>1.79</ele>
   </trkpt>
   <trkpt lat="52.01789" lon="4.35074">
    <ele>2.22</ele>
   </trkpt>
   <trkpt lat="52.01787" lon="4.35081">
    <ele>2.22</ele>
   </trkpt>
   <trkpt lat="52.017900000000004" lon="4.35116">
    <ele>2.2700000000000005</ele>
   </trkpt>
   <trkpt lat="52.018010000000004" lon="4.35163">
    <ele>1.98</ele>
   </trkpt>
   <trkpt lat="52.018010000000004" lon="4.351780000000001">
    <ele>1.86</ele>
   </trkpt>
   <trkpt lat="52.01796" lon="4.35196">
    <ele>1.7400000000000002</ele>
   </trkpt>
   <trkpt lat="52.01787" lon="4.35214">
    <ele>1.6900000000000002</ele>
   </trkpt>
   <trkpt lat="52.01767" lon="4.352650000000001">
    <ele>1.77</ele>
   </trkpt>
   <trkpt lat="52.01753" lon="4.35294">
    <ele>1.86</ele>
   </trkpt>
   <trkpt lat="52.01747" lon="4.353140000000001">
    <ele>1.35</ele>
   </trkpt>
   <trkpt lat="52.01747" lon="4.35329">
    <ele>1.35</ele>
   </trkpt>
   <trkpt lat="52.017500000000005" lon="4.35339">
    <ele>1.31</ele>
   </trkpt>
   <trkpt lat="52.017450000000004" lon="4.35341">
    <ele>1.79</ele>
   </trkpt>
   <trkpt lat="52.017320000000005" lon="4.353210000000001">
    <ele>2.0700000000000003</ele>
   </trkpt>
   <trkpt lat="52.01728000000001" lon="4.35324">
    <ele>2.0700000000000003</ele>
   </trkpt>
   <trkpt lat="52.0172" lon="4.35322">
    <ele>2.04</ele>
   </trkpt>
   <trkpt lat="52.017100000000006" lon="4.353140000000001">
    <ele>1.97</ele>
   </trkpt>
   <trkpt lat="52.017070000000004" lon="4.35308">
    <ele>1.97</ele>
   </trkpt>
   <trkpt lat="52.01695" lon="4.353190000000001">
    <ele>1.67</ele>
   </trkpt>
   <trkpt lat="52.01650000056916" lon="4.353535003420156">
    <ele>1.79</ele>
   </trkpt>
   <trkpt lat="52.01605000000001" lon="4.35388">
    <ele>1.85</ele>
   </trkpt>
   <trkpt lat="52.015620000000006" lon="4.3542000000000005">
    <ele>2.36</ele>
   </trkpt>
   <trkpt lat="52.01549000000001" lon="4.35428">
    <ele>2.5100000000000002</ele>
   </trkpt>
   <trkpt lat="52.015420000000006" lon="4.354100000000001">
    <ele>2.52</ele>
   </trkpt>
   <trkpt lat="52.01503000070924" lon="4.354510003576446">
    <ele>1.7200000000000002</ele>
   </trkpt>
   <trkpt lat="52.01464000000001" lon="4.354920000000001">
    <ele>1.81</ele>
   </trkpt>
   <trkpt lat="52.01393" lon="4.3556">
    <ele>2.1</ele>
   </trkpt>
   <trkpt lat="52.01343000000001" lon="4.35602">
    <ele>2.35</ele>
   </trkpt>
   <trkpt lat="52.012980000000006" lon="4.35635">
    <ele>3.1</ele>
   </trkpt>
   <trkpt lat="52.01256000000001" lon="4.35663">
    <ele>3.3000000000000003</ele>
   </trkpt>
   <trkpt lat="52.0120550006785" lon="4.357010004238181">
    <ele>2.67</ele>
   </trkpt>
   <trkpt lat="52.01155000000001" lon="4.3573900000000005">
    <ele>3.3000000000000003</ele>
   </trkpt>
   <trkpt lat="52.01115000000001" lon="4.35771">
    <ele>3.3000000000000003</ele>
   </trkpt>
   <trkpt lat="52.010760000000005" lon="4.35799">
    <ele>2.84</ele>
   </trkpt>
   <trkpt lat="52.01048" lon="4.35815">
    <ele>2.48</ele>
   </trkpt>
   <trkpt lat="52.010200000000005" lon="4.35724">
    <ele>2.65</ele>
   </trkpt>
   <trkpt lat="52.01008" lon="4.35703">
    <ele>2.5900000000000003</ele>
   </trkpt>
   <trkpt lat="52.00979000167904" lon="4.356404996004301">
    <ele>1.42</ele>
   </trkpt>
   <trkpt lat="52.0095" lon="4.35578">
    <ele>2.5</ele>
   </trkpt>
   <trkpt lat="52.00932" lon="4.355930000000001">
    <ele>2.5700000000000003</ele>
   </trkpt>
   <trkpt lat="52.00867" lon="4.35655">
    <ele>2.39</ele>
   </trkpt>
   <trkpt lat="52.008410000000005" lon="4.356800000000001">
    <ele>2.4400000000000004</ele>
   </trkpt>
   <trkpt lat="52.008120000000005" lon="4.3571100000000005">
    <ele>2.7</ele>
   </trkpt>
   <trkpt lat="52.00767500065573" lon="4.357500003867666">
    <ele>2.9800000000000004</ele>
   </trkpt>
   <trkpt lat="52.00723000000001" lon="4.35789">
    <ele>3.0300000000000002</ele>
   </trkpt>
   <trkpt lat="52.00692" lon="4.35806">
    <ele>2.54</ele>
   </trkpt>
   <trkpt lat="52.006620000000005" lon="4.35834">
    <ele>2.45</ele>
   </trkpt>
   <trkpt lat="52.006100000610125" lon="4.358770005138912">
    <ele>2.4600000000000004</ele>
   </trkpt>
   <trkpt lat="52.00558" lon="4.3592">
    <ele>3.0700000000000003</ele>
   </trkpt>
   <trkpt lat="52.00535000000001" lon="4.35933">
    <ele>3.35</ele>
   </trkpt>
   <trkpt lat="52.005300000000005" lon="4.35982">
    <ele>2.85</ele>
   </trkpt>
   <trkpt lat="52.005230000000005" lon="4.359850000000001">
    <ele>2.85</ele>
   </trkpt>
   <trkpt lat="52.00498" lon="4.35951">
    <ele>2.87</ele>
   </trkpt>
   <trkpt lat="52.00484" lon="4.35934">
    <ele>2.6100000000000003</ele>
   </trkpt>
   <trkpt lat="52.00471" lon="4.35963">
    <ele>1.6</ele>
   </trkpt>
   <trkpt lat="52.00468000000001" lon="4.36007">
    <ele>1.54</ele>
   </trkpt>
   <trkpt lat="52.00453" lon="4.361260000000001">
    <ele>1.43</ele>
   </trkpt>
   <trkpt lat="52.00450000000001" lon="4.361350000000001">
    <ele>1.34</ele>
   </trkpt>
   <trkpt lat="52.00437" lon="4.3615">
    <ele>1.34</ele>
   </trkpt>
   <trkpt lat="52.003870000000006" lon="4.36177">
    <ele>1.31</ele>
   </trkpt>
   <trkpt lat="52.0033" lon="4.36204">
    <ele>1.24</ele>
   </trkpt>
   <trkpt lat="52.002460000000006" lon="4.362550000000001">
    <ele>1.1500000000000001</ele>
   </trkpt>
   <trkpt lat="52.002120000000005" lon="4.362780000000001">
    <ele>1.16</ele>
   </trkpt>
   <trkpt lat="52.00163500050972" lon="4.363155004129401">
    <ele>1.18</ele>
   </trkpt>
   <trkpt lat="52.00115" lon="4.363530000000001">
    <ele>0.9400000000000001</ele>
   </trkpt>
   <trkpt lat="52.00072" lon="4.3638900000000005">
    <ele>0.9700000000000001</ele>
   </trkpt>
   <trkpt lat="52.00000000000001" lon="4.364470000000001">
    <ele>0.8200000000000001</ele>
   </trkpt>
   <trkpt lat="51.99932000234798" lon="4.364993349210206">
    <ele>0.62</ele>
   </trkpt>
   <trkpt lat="51.99864000237683" lon="4.365516682521036">
    <ele>0.7300000000000001</ele>
   </trkpt>
   <trkpt lat="51.997960000000006" lon="4.36604">
    <ele>0.77</ele>
   </trkpt>
   <trkpt lat="51.997190000835104" lon="4.366510008144869">
    <ele>0.68</ele>
   </trkpt>
   <trkpt lat="51.99642000000001" lon="4.366980000000001">
    <ele>0.58</ele>
   </trkpt>
   <trkpt lat="51.99582000127928" lon="4.367363343585448">
    <ele>0.6000000000000001</ele>
   </trkpt>
   <trkpt lat="51.995220001314216" lon="4.367746676896284">
    <ele>0.67</ele>
   </trkpt>
   <trkpt lat="51.994620000000005" lon="4.368130000000001">
    <ele>0.76</ele>
   </trkpt>
   <trkpt lat="51.99456000000001" lon="4.368200000000001">
    <ele>0.78</ele>
   </trkpt>
   <trkpt lat="51.99439" lon="4.368600000000001">
    <ele>0.7400000000000001</ele>
   </trkpt>
   <trkpt lat="51.9943" lon="4.36869">
    <ele>0.59</ele>
   </trkpt>
   <trkpt lat="51.994040000000005" lon="4.368880000000001">
    <ele>0.55</ele>
   </trkpt>
   <trkpt lat="51.99365" lon="4.369140000000001">
    <ele>0.79</ele>
   </trkpt>
   <trkpt lat="51.99354" lon="4.36917">
    <ele>0.8600000000000001</ele>
   </trkpt>
   <trkpt lat="51.993460000000006" lon="4.3691">
    <ele>0.8600000000000001</ele>
   </trkpt>
   <trkpt lat="51.99342000000001" lon="4.3689800000000005">
    <ele>0.92</ele>
   </trkpt>
   <trkpt lat="51.993270003680735" lon="4.3680499970008295">
    <ele>0.52</ele>
   </trkpt>
   <trkpt lat="51.993120000000005" lon="4.367120000000001">
    <ele>0.54</ele>
   </trkpt>
   <trkpt lat="51.993080000000006" lon="4.36702">
    <ele>0.54</ele>
   </trkpt>
   <trkpt lat="51.99302" lon="4.36697">
    <ele>0.54</ele>
   </trkpt>
   <trkpt lat="51.992940000000004" lon="4.366960000000001">
    <ele>0.54</ele>
   </trkpt>
   <trkpt lat="51.992830000000005" lon="4.367">
    <ele>0.53</ele>
   </trkpt>
   <trkpt lat="51.99210000000001" lon="4.36735">
    <ele>0.89</ele>
   </trkpt>
   <trkpt lat="51.991960000000006" lon="4.367290000000001">
    <ele>0.9800000000000002</ele>
   </trkpt>
   <trkpt lat="51.99179" lon="4.36735">
    <ele>1.2000000000000002</ele>
   </trkpt>
   <trkpt lat="51.99161" lon="4.36735">
    <ele>1.4600000000000002</ele>
   </trkpt>
   <trkpt lat="51.991510000000005" lon="4.367430000000001">
    <ele>1.5700000000000003</ele>
   </trkpt>
   <trkpt lat="51.99159" lon="4.367730000000001">
    <ele>1.56</ele>
   </trkpt>
   <trkpt lat="51.99147000000001" lon="4.36782">
    <ele>1.33</ele>
   </trkpt>
   <trkpt lat="51.991040000000005" lon="4.36805">
    <ele>1.1</ele>
   </trkpt>
   <trkpt lat="51.99101" lon="4.36821">
    <ele>1.1</ele>
   </trkpt>
   <trkpt lat="51.990990000000004" lon="4.368270000000001">
    <ele>0.9500000000000001</ele>
   </trkpt>
   <trkpt lat="51.99043500046996" lon="4.368550003400694">
    <ele>0.68</ele>
   </trkpt>
   <trkpt lat="51.98988000000001" lon="4.36883">
    <ele>0.9500000000000001</ele>
   </trkpt>
   <trkpt lat="51.99003000225302" lon="4.3695599975386">
    <ele>0.6100000000000001</ele>
   </trkpt>
   <trkpt lat="51.99018" lon="4.370290000000001">
    <ele>0.52</ele>
   </trkpt>
   <trkpt lat="51.990370000000006" lon="4.371300000000001">
    <ele>0.7400000000000001</ele>
   </trkpt>
   <trkpt lat="51.99043" lon="4.37131">
    <ele>0.7400000000000001</ele>
   </trkpt>
   <trkpt lat="51.990390000000005" lon="4.3714200000000005">
    <ele>0.8200000000000001</ele>
   </trkpt>
   <trkpt lat="51.990230000000004" lon="4.37153">
    <ele>0.8200000000000001</ele>
   </trkpt>
   <trkpt lat="51.989700000000006" lon="4.372170000000001">
    <ele>0.6900000000000001</ele>
   </trkpt>
   <trkpt lat="51.98937" lon="4.372470000000001">
    <ele>0.59</ele>
   </trkpt>
   <trkpt lat="51.9889" lon="4.37283">
    <ele>0.45</ele>
   </trkpt>
   <trkpt lat="51.98823666926189" lon="4.373383349723291">
    <ele>0.63</ele>
   </trkpt>
   <trkpt lat="51.98757333593091" lon="4.373936683054355">
    <ele>0.55</ele>
   </trkpt>
   <trkpt lat="51.98691" lon="4.374490000000001">
    <ele>0.62</ele>
   </trkpt>
   <trkpt lat="51.98653" lon="4.374770000000001">
    <ele>0.59</ele>
   </trkpt>
   <trkpt lat="51.985910000000004" lon="4.37513">
    <ele>0.27</ele>
   </trkpt>
   <trkpt lat="51.985600000000005" lon="4.37527">
    <ele>0.22</ele>
   </trkpt>
   <trkpt lat="51.98516000000001" lon="4.375450000000001">
    <ele>0.17</ele>
   </trkpt>
   <trkpt lat="51.984370000000006" lon="4.37603">
    <ele>0.060000000000000005</ele>
   </trkpt>
   <trkpt lat="51.98361500173771" lon="4.376675010892608">
    <ele>0.07</ele>
   </trkpt>
   <trkpt lat="51.98286" lon="4.37732">
    <ele>0.060000000000000005</ele>
   </trkpt>
   <trkpt lat="51.982780000000005" lon="4.377350000000001">
    <ele>0.060000000000000005</ele>
   </trkpt>
   <trkpt lat="51.9827" lon="4.37734">
    <ele>0.15000000000000002</ele>
   </trkpt>
   <trkpt lat="51.98263000000001" lon="4.37751">
    <ele>0.15000000000000002</ele>
   </trkpt>
   <trkpt lat="51.98208" lon="4.37795">
    <ele>0.34</ele>
   </trkpt>
   <trkpt lat="51.981635000482434" lon="4.378330003885229">
    <ele>0.35000000000000003</ele>
   </trkpt>
   <trkpt lat="51.981190000000005" lon="4.378710000000001">
    <ele>0.4</ele>
   </trkpt>
   <trkpt lat="51.980790000000006" lon="4.379020000000001">
    <ele>0.59</ele>
   </trkpt>
   <trkpt lat="51.98030000000001" lon="4.37936">
    <ele>0.54</ele>
   </trkpt>
   <trkpt lat="51.97992000000001" lon="4.37966">
    <ele>0.47000000000000003</ele>
   </trkpt>
   <trkpt lat="51.97959" lon="4.37997">
    <ele>0.41000000000000003</ele>
   </trkpt>
   <trkpt lat="51.97917000082467" lon="4.380395003924033">
    <ele>0.45</ele>
   </trkpt>
   <trkpt lat="51.978750000000005" lon="4.38082">
    <ele>0.4</ele>
   </trkpt>
   <trkpt lat="51.977970000000006" lon="4.38152">
    <ele>0.37000000000000005</ele>
   </trkpt>
   <trkpt lat="51.97722" lon="4.382020000000001">
    <ele>0.34</ele>
   </trkpt>
   <trkpt lat="51.97678500065916" lon="4.382400003647927">
    <ele>0.19</ele>
   </trkpt>
   <trkpt lat="51.976350000000004" lon="4.38278">
    <ele>0.05</ele>
   </trkpt>
   <trkpt lat="51.976040000000005" lon="4.38302">
    <ele>-0.05</ele>
   </trkpt>
   <trkpt lat="51.975840000000005" lon="4.38313">
    <ele>0.09000000000000001</ele>
   </trkpt>
   <trkpt lat="51.975260000000006" lon="4.38356">
    <ele>0.15000000000000002</ele>
   </trkpt>
   <trkpt lat="51.97481000042794" lon="4.383860002981845">
    <ele>0.17</ele>
   </trkpt>
   <trkpt lat="51.974360000000004" lon="4.3841600000000005">
    <ele>0.1</ele>
   </trkpt>
   <trkpt lat="51.97386" lon="4.3845600000000005">
    <ele>-0.01</ele>
   </trkpt>
   <trkpt lat="51.97342000050233" lon="4.384950003955401">
    <ele>-0.21</ele>
   </trkpt>
   <trkpt lat="51.97298000000001" lon="4.38534">
    <ele>-0.46</ele>
   </trkpt>
   <trkpt lat="51.97263" lon="4.3855900000000005">
    <ele>-0.53</ele>
   </trkpt>
   <trkpt lat="51.97229" lon="4.3857800000000005">
    <ele>-0.55</ele>
   </trkpt>
   <trkpt lat="51.97216" lon="4.385820000000001">
    <ele>-0.67</ele>
   </trkpt>
   <trkpt lat="51.971920000000004" lon="4.38581">
    <ele>-0.71</ele>
   </trkpt>
   <trkpt lat="51.971740000000004" lon="4.38586">
    <ele>-0.67</ele>
   </trkpt>
   <trkpt lat="51.97164" lon="4.385940000000001">
    <ele>-0.5</ele>
   </trkpt>
   <trkpt lat="51.97106" lon="4.38658">
    <ele>-0.25</ele>
   </trkpt>
   <trkpt lat="51.970710000000004" lon="4.38687">
    <ele>-0.22</ele>
   </trkpt>
   <trkpt lat="51.97019" lon="4.3872800000000005">
    <ele>-0.25</ele>
   </trkpt>
   <trkpt lat="51.96965" lon="4.387840000000001">
    <ele>-0.04</ele>
   </trkpt>
   <trkpt lat="51.96942000000001" lon="4.388050000000001">
    <ele>-0.14</ele>
   </trkpt>
   <trkpt lat="51.968770000000006" lon="4.38849">
    <ele>-0.15000000000000002</ele>
   </trkpt>
   <trkpt lat="51.96817000000001" lon="4.388920000000001">
    <ele>-0.29</ele>
   </trkpt>
   <trkpt lat="51.967830000000006" lon="4.38921">
    <ele>-0.21</ele>
   </trkpt>
   <trkpt lat="51.967620000000004" lon="4.38935">
    <ele>-0.29</ele>
   </trkpt>
   <trkpt lat="51.966910000000006" lon="4.38968">
    <ele>-0.25</ele>
   </trkpt>
   <trkpt lat="51.96615000169977" lon="4.390310010667314">
    <ele>-0.17</ele>
   </trkpt>
   <trkpt lat="51.965390000000006" lon="4.3909400000000005">
    <ele>-0.04</ele>
   </trkpt>
   <trkpt lat="51.96491" lon="4.3913">
    <ele>-0.01</ele>
   </trkpt>
   <trkpt lat="51.96441" lon="4.3916">
    <ele>0.01</ele>
   </trkpt>
   <trkpt lat="51.963950000000004" lon="4.39193">
    <ele>-0.08</ele>
   </trkpt>
   <trkpt lat="51.963820000000005" lon="4.391970000000001">
    <ele>-0.08</ele>
   </trkpt>
   <trkpt lat="51.96360000000001" lon="4.39214">
    <ele>-0.09000000000000001</ele>
   </trkpt>
   <trkpt lat="51.963390000000004" lon="4.3923700000000006">
    <ele>-0.25</ele>
   </trkpt>
   <trkpt lat="51.963060000000006" lon="4.392600000000001">
    <ele>-0.19</ele>
   </trkpt>
   <trkpt lat="51.962300000000006" lon="4.39311">
    <ele>-0.31</ele>
   </trkpt>
   <trkpt lat="51.961960000000005" lon="4.3933800000000005">
    <ele>-0.5</ele>
   </trkpt>
   <trkpt lat="51.961240000000004" lon="4.39409">
    <ele>-0.19</ele>
   </trkpt>
   <trkpt lat="51.96108" lon="4.39421">
    <ele>-0.18000000000000002</ele>
   </trkpt>
   <trkpt lat="51.96097" lon="4.394270000000001">
    <ele>-0.23</ele>
   </trkpt>
   <trkpt lat="51.96052" lon="4.3944600000000005">
    <ele>-0.44</ele>
   </trkpt>
   <trkpt lat="51.960070000482695" lon="4.394760002943778">
    <ele>-0.53</ele>
   </trkpt>
   <trkpt lat="51.95962" lon="4.39506">
    <ele>-0.29</ele>
   </trkpt>
   <trkpt lat="51.95949" lon="4.395180000000001">
    <ele>-0.27</ele>
   </trkpt>
   <trkpt lat="51.95918" lon="4.395560000000001">
    <ele>-0.16</ele>
   </trkpt>
   <trkpt lat="51.95897" lon="4.39578">
    <ele>-0.2</ele>
   </trkpt>
   <trkpt lat="51.95875" lon="4.39597">
    <ele>-0.38</ele>
   </trkpt>
   <trkpt lat="51.95835" lon="4.396450000000001">
    <ele>-0.7400000000000001</ele>
   </trkpt>
   <trkpt lat="51.95834000000001" lon="4.3964300000000005">
    <ele>-0.84</ele>
   </trkpt>
   <trkpt lat="51.95805500214396" lon="4.395704995182005">
    <ele>-2.72</ele>
   </trkpt>
   <trkpt lat="51.957770000000004" lon="4.39498">
    <ele>-2.8800000000000003</ele>
   </trkpt>
   <trkpt lat="51.9573812880253" lon="4.3938474312623566">
    <ele>-3.52</ele>
   </trkpt>
   <trkpt lat="51.95699256518552" lon="4.3927148821640385">
    <ele>-3.4000000000000004</ele>
   </trkpt>
   <trkpt lat="51.95660383148096" lon="4.391582352704981">
    <ele>-3.41</ele>
   </trkpt>
   <trkpt lat="51.95621508691198" lon="4.390449842885117">
    <ele>-3.16</ele>
   </trkpt>
   <trkpt lat="51.95582633147893" lon="4.38931735270438">
    <ele>-2.9800000000000004</ele>
   </trkpt>
   <trkpt lat="51.95543756518214" lon="4.388184882162704">
    <ele>-3.1400000000000006</ele>
   </trkpt>
   <trkpt lat="51.955048788021976" lon="4.387052431260023">
    <ele>-3.0</ele>
   </trkpt>
   <trkpt lat="51.954660000000004" lon="4.3859200000000005">
    <ele>-3.3200000000000003</ele>
   </trkpt>
   <trkpt lat="51.954455004816786" lon="4.384849994939268">
    <ele>-3.33</ele>
   </trkpt>
   <trkpt lat="51.95425" lon="4.383780000000001">
    <ele>-3.21</ele>
   </trkpt>
   <trkpt lat="51.95420000000001" lon="4.38288">
    <ele>-3.1500000000000004</ele>
   </trkpt>
   <trkpt lat="51.95416" lon="4.38267">
    <ele>-2.9899999999999998</ele>
   </trkpt>
   <trkpt lat="51.953825003466314" lon="4.381759993089742">
    <ele>-2.9800000000000004</ele>
   </trkpt>
   <trkpt lat="51.95349" lon="4.380850000000001">
    <ele>-2.45</ele>
   </trkpt>
   <trkpt lat="51.95317000000001" lon="4.381130000000001">
    <ele>-2.23</ele>
   </trkpt>
   <trkpt lat="51.952870000000004" lon="4.381460000000001">
    <ele>-2.4400000000000004</ele>
   </trkpt>
   <trkpt lat="51.95232000000001" lon="4.3822600000000005">
    <ele>-2.15</ele>
   </trkpt>
   <trkpt lat="51.951690000000006" lon="4.38309">
    <ele>-2.14</ele>
   </trkpt>
   <trkpt lat="51.951010000000004" lon="4.3837600000000005">
    <ele>-2.24</ele>
   </trkpt>
   <trkpt lat="51.95073000000001" lon="4.384130000000001">
    <ele>-2.56</ele>
   </trkpt>
   <trkpt lat="51.95064000000001" lon="4.38422">
    <ele>-2.56</ele>
   </trkpt>
   <trkpt lat="51.950100000000006" lon="4.38457">
    <ele>-2.9899999999999998</ele>
   </trkpt>
   <trkpt lat="51.94953500110712" lon="4.385080006420447">
    <ele>-2.97</ele>
   </trkpt>
   <trkpt lat="51.94897" lon="4.3855900000000005">
    <ele>-2.82</ele>
   </trkpt>
   <trkpt lat="51.94868" lon="4.3859200000000005">
    <ele>-2.66</ele>
   </trkpt>
   <trkpt lat="51.94838000000001" lon="4.3852400000000005">
    <ele>-1.7300000000000002</ele>
   </trkpt>
   <trkpt lat="51.94820000000001" lon="4.384790000000001">
    <ele>-1.35</ele>
   </trkpt>
   <trkpt lat="51.94820000000001" lon="4.38476">
    <ele>-1.35</ele>
   </trkpt>
   <trkpt lat="51.94820000000001" lon="4.384790000000001">
    <ele>-1.34</ele>
   </trkpt>
   <trkpt lat="51.94821" lon="4.38469">
    <ele>-1.34</ele>
   </trkpt>
   <trkpt lat="51.948310000000006" lon="4.38455">
    <ele>-1.6</ele>
   </trkpt>
   <trkpt lat="51.94838000000001" lon="4.384390000000001">
    <ele>-1.67</ele>
   </trkpt>
   <trkpt lat="51.948460000000004" lon="4.38367">
    <ele>-1.6500000000000001</ele>
   </trkpt>
   <trkpt lat="51.948660000000004" lon="4.38288">
    <ele>-1.84</ele>
   </trkpt>
   <trkpt lat="51.94865000244714" lon="4.38211999987977">
    <ele>-1.93</ele>
   </trkpt>
   <trkpt lat="51.948640000000005" lon="4.38136">
    <ele>-1.76</ele>
   </trkpt>
   <trkpt lat="51.948660000000004" lon="4.3811800000000005">
    <ele>-1.75</ele>
   </trkpt>
   <trkpt lat="51.94881" lon="4.380780000000001">
    <ele>-1.97</ele>
   </trkpt>
   <trkpt lat="51.948800000000006" lon="4.38058">
    <ele>-2.02</ele>
   </trkpt>
   <trkpt lat="51.94866000239102" lon="4.379829997704185">
    <ele>-2.14</ele>
   </trkpt>
   <trkpt lat="51.94852" lon="4.37908">
    <ele>-2.39</ele>
   </trkpt>
   <trkpt lat="51.948750000000004" lon="4.37893">
    <ele>-1.28</ele>
   </trkpt>
   <trkpt lat="51.948370000000004" lon="4.378080000000001">
    <ele>-1.28</ele>
   </trkpt>
   <trkpt lat="51.94832" lon="4.377940000000001">
    <ele>-1.17</ele>
   </trkpt>
   <trkpt lat="51.94812002009293" lon="4.376682483172879">
    <ele>-1.33</ele>
   </trkpt>
   <trkpt lat="51.94792002679001" lon="4.375424977560774">
    <ele>-1.4000000000000001</ele>
   </trkpt>
   <trkpt lat="51.94772002009145" lon="4.374167483164257">
    <ele>-1.9200000000000002</ele>
   </trkpt>
   <trkpt lat="51.947520000000004" lon="4.37291">
    <ele>-2.73</ele>
   </trkpt>
   <trkpt lat="51.94749" lon="4.3726400000000005">
    <ele>-2.7800000000000002</ele>
   </trkpt>
   <trkpt lat="51.947520000000004" lon="4.372610000000001">
    <ele>-2.7800000000000002</ele>
   </trkpt>
   <trkpt lat="51.947680000000005" lon="4.37253">
    <ele>-2.83</ele>
   </trkpt>
   <trkpt lat="51.947720000000004" lon="4.372470000000001">
    <ele>-2.83</ele>
   </trkpt>
   <trkpt lat="51.947750000000006" lon="4.372400000000001">
    <ele>-2.83</ele>
   </trkpt>
   <trkpt lat="51.947770000000006" lon="4.3723">
    <ele>-2.83</ele>
   </trkpt>
   <trkpt lat="51.94776" lon="4.3722">
    <ele>-2.9899999999999998</ele>
   </trkpt>
   <trkpt lat="51.94746003230146" lon="4.370964958692949">
    <ele>-2.85</ele>
   </trkpt>
   <trkpt lat="51.947160051681585" lon="4.369729933907008">
    <ele>-2.97</ele>
   </trkpt>
   <trkpt lat="51.946860058140715" lon="4.3684949256424925">
    <ele>-2.48</ele>
   </trkpt>
   <trkpt lat="51.946560051679185" lon="4.367259933899714">
    <ele>-2.7900000000000005</ele>
   </trkpt>
   <trkpt lat="51.946260032297275" lon="4.366024958678983">
    <ele>-2.82</ele>
   </trkpt>
   <trkpt lat="51.94596000000001" lon="4.36479">
    <ele>-2.58</ele>
   </trkpt>
   <trkpt lat="51.94581" lon="4.36399">
    <ele>-2.14</ele>
   </trkpt>
   <trkpt lat="51.94633500058648" lon="4.36365500385042">
    <ele>-1.24</ele>
   </trkpt>
   <trkpt lat="51.94686" lon="4.363320000000001">
    <ele>-1.1500000000000001</ele>
   </trkpt>
   <trkpt lat="51.947440000644555" lon="4.362915005272626">
    <ele>-1.5</ele>
   </trkpt>
   <trkpt lat="51.94802000000001" lon="4.36251">
    <ele>-1.67</ele>
   </trkpt>
   <trkpt lat="51.94803" lon="4.36238">
    <ele>-1.87</ele>
   </trkpt>
   <trkpt lat="51.9478200021757" lon="4.361649996298619">
    <ele>-2.06</ele>
   </trkpt>
   <trkpt lat="51.947610000000005" lon="4.36092">
    <ele>-1.58</ele>
   </trkpt>
   <trkpt lat="51.94758" lon="4.36066">
    <ele>-1.33</ele>
   </trkpt>
   <trkpt lat="51.94762000000001" lon="4.3597">
    <ele>-1.62</ele>
   </trkpt>
   <trkpt lat="51.94765" lon="4.35954">
    <ele>-1.84</ele>
   </trkpt>
   <trkpt lat="51.94773000000001" lon="4.35947">
    <ele>-2.48</ele>
   </trkpt>
   <trkpt lat="51.94793000000001" lon="4.359360000000001">
    <ele>-2.8800000000000003</ele>
   </trkpt>
   <trkpt lat="51.948420000000006" lon="4.359030000000001">
    <ele>-2.9899999999999998</ele>
   </trkpt>
   <trkpt lat="51.94827" lon="4.35839">
    <ele>-2.91</ele>
   </trkpt>
   <trkpt lat="51.94809000000001" lon="4.35778">
    <ele>-2.95</ele>
   </trkpt>
   <trkpt lat="51.94794" lon="4.357220000000001">
    <ele>-2.9899999999999998</ele>
   </trkpt>
   <trkpt lat="51.947750000000006" lon="4.35658">
    <ele>-2.82</ele>
   </trkpt>
   <trkpt lat="51.947500003452966" lon="4.355684995226233">
    <ele>-2.34</ele>
   </trkpt>
   <trkpt lat="51.947250000000004" lon="4.35479">
    <ele>-2.2800000000000002</ele>
   </trkpt>
   <trkpt lat="51.947190000000006" lon="4.35451">
    <ele>-2.43</ele>
   </trkpt>
   <trkpt lat="51.94715000000001" lon="4.354170000000001">
    <ele>-2.48</ele>
   </trkpt>
   <trkpt lat="51.94704" lon="4.353490000000001">
    <ele>-2.4899999999999998</ele>
   </trkpt>
   <trkpt lat="51.94698" lon="4.3529">
    <ele>-2.5700000000000003</ele>
   </trkpt>
   <trkpt lat="51.946920000000006" lon="4.3525100000000005">
    <ele>-2.48</ele>
   </trkpt>
   <trkpt lat="51.946850000000005" lon="4.351360000000001">
    <ele>-3.1100000000000003</ele>
   </trkpt>
   <trkpt lat="51.94682" lon="4.351190000000001">
    <ele>-3.1300000000000003</ele>
   </trkpt>
   <trkpt lat="51.946760000000005" lon="4.35104">
    <ele>-3.1300000000000003</ele>
   </trkpt>
   <trkpt lat="51.946290000000005" lon="4.350370000000001">
    <ele>-2.83</ele>
   </trkpt>
   <trkpt lat="51.945890000000006" lon="4.349830000000001">
    <ele>-2.9400000000000004</ele>
   </trkpt>
   <trkpt lat="51.94558000000001" lon="4.34914">
    <ele>-2.9800000000000004</ele>
   </trkpt>
   <trkpt lat="51.94548" lon="4.34903">
    <ele>-3.1100000000000003</ele>
   </trkpt>
   <trkpt lat="51.94532" lon="4.34896">
    <ele>-3.1100000000000003</ele>
   </trkpt>
   <trkpt lat="51.944860000000006" lon="4.348870000000001">
    <ele>-3.06</ele>
   </trkpt>
   <trkpt lat="51.94464000000001" lon="4.34879">
    <ele>-2.95</ele>
   </trkpt>
   <trkpt lat="51.944370000000006" lon="4.348610000000001">
    <ele>-2.97</ele>
   </trkpt>
   <trkpt lat="51.944030000000005" lon="4.34834">
    <ele>-3.0500000000000003</ele>
   </trkpt>
   <trkpt lat="51.94339" lon="4.34785">
    <ele>-3.35</ele>
   </trkpt>
   <trkpt lat="51.943070000000006" lon="4.34767">
    <ele>-3.33</ele>
   </trkpt>
   <trkpt lat="51.942840000000004" lon="4.34747">
    <ele>-3.34</ele>
   </trkpt>
   <trkpt lat="51.942550000000004" lon="4.34707">
    <ele>-3.3100000000000005</ele>
   </trkpt>
   <trkpt lat="51.94249000000001" lon="4.346900000000001">
    <ele>-3.2800000000000002</ele>
   </trkpt>
   <trkpt lat="51.94249000000001" lon="4.34679">
    <ele>-3.2800000000000002</ele>
   </trkpt>
   <trkpt lat="51.94239" lon="4.346710000000001">
    <ele>-3.23</ele>
   </trkpt>
   <trkpt lat="51.942240000000005" lon="4.34647">
    <ele>-3.24</ele>
   </trkpt>
   <trkpt lat="51.94220000000001" lon="4.34633">
    <ele>-3.34</ele>
   </trkpt>
   <trkpt lat="51.94216" lon="4.346">
    <ele>-3.36</ele>
   </trkpt>
   <trkpt lat="51.94205" lon="4.34543">
    <ele>-3.3100000000000005</ele>
   </trkpt>
   <trkpt lat="51.94181251837494" lon="4.344227480898491">
    <ele>-3.2800000000000002</ele>
   </trkpt>
   <trkpt lat="51.94157502449948" lon="4.343024974529652">
    <ele>-3.06</ele>
   </trkpt>
   <trkpt lat="51.94133751837389" lon="4.341822480893899">
    <ele>-2.83</ele>
   </trkpt>
   <trkpt lat="51.941100000000006" lon="4.34062">
    <ele>-2.68</ele>
   </trkpt>
   <trkpt lat="51.941190000000006" lon="4.34056">
    <ele>-3.3100000000000005</ele>
   </trkpt>
   <trkpt lat="51.941210000000005" lon="4.34048">
    <ele>-3.3100000000000005</ele>
   </trkpt>
   <trkpt lat="51.941030000000005" lon="4.33961">
    <ele>-3.67</ele>
   </trkpt>
   <trkpt lat="51.941100000000006" lon="4.33936">
    <ele>-3.5300000000000002</ele>
   </trkpt>
   <trkpt lat="51.94111" lon="4.33924">
    <ele>-3.4600000000000004</ele>
   </trkpt>
   <trkpt lat="51.94108000000001" lon="4.339110000000001">
    <ele>-3.4600000000000004</ele>
   </trkpt>
   <trkpt lat="51.94089" lon="4.3388800000000005">
    <ele>-3.4800000000000004</ele>
   </trkpt>
   <trkpt lat="51.940810002785696" lon="4.3380649982626425">
    <ele>-3.08</ele>
   </trkpt>
   <trkpt lat="51.94073" lon="4.33725">
    <ele>-2.9000000000000004</ele>
   </trkpt>
   <trkpt lat="51.94073" lon="4.33685">
    <ele>-2.91</ele>
   </trkpt>
   <trkpt lat="51.940780000000004" lon="4.33645">
    <ele>-3.1400000000000006</ele>
   </trkpt>
   <trkpt lat="51.940760000000004" lon="4.336110000000001">
    <ele>-3.16</ele>
   </trkpt>
   <trkpt lat="51.940580000000004" lon="4.334910000000001">
    <ele>-3.19</ele>
   </trkpt>
   <trkpt lat="51.940540000000006" lon="4.334770000000001">
    <ele>-3.19</ele>
   </trkpt>
   <trkpt lat="51.94046" lon="4.33466">
    <ele>-3.19</ele>
   </trkpt>
   <trkpt lat="51.94001" lon="4.334280000000001">
    <ele>-3.4000000000000004</ele>
   </trkpt>
   <trkpt lat="51.93994000000001" lon="4.3341">
    <ele>-3.41</ele>
   </trkpt>
   <trkpt lat="51.939840000000004" lon="4.333760000000001">
    <ele>-3.36</ele>
   </trkpt>
   <trkpt lat="51.939820000000005" lon="4.33377">
    <ele>-3.36</ele>
   </trkpt>
   <trkpt lat="51.940070000000006" lon="4.33361">
    <ele>-3.5</ele>
   </trkpt>
   <trkpt lat="51.94023000000001" lon="4.3334600000000005">
    <ele>-3.5</ele>
   </trkpt>
   <trkpt lat="51.940430000000006" lon="4.3331800000000005">
    <ele>-3.52</ele>
   </trkpt>
   <trkpt lat="51.94052000000001" lon="4.33295">
    <ele>-3.52</ele>
   </trkpt>
   <trkpt lat="51.94091001131611" lon="4.331793353498425">
    <ele>-3.87</ele>
   </trkpt>
   <trkpt lat="51.94130001129826" lon="4.330636686885102">
    <ele>-3.72</ele>
   </trkpt>
   <trkpt lat="51.94169" lon="4.32948">
    <ele>-2.74</ele>
   </trkpt>
   <trkpt lat="51.942010003999464" lon="4.3285100068773215">
    <ele>-3.5</ele>
   </trkpt>
   <trkpt lat="51.942330000000005" lon="4.32754">
    <ele>-3.4400000000000004</ele>
   </trkpt>
   <trkpt lat="51.942370000000004" lon="4.3273600000000005">
    <ele>-3.4400000000000004</ele>
   </trkpt>
   <trkpt lat="51.94239" lon="4.32709">
    <ele>-3.4400000000000004</ele>
   </trkpt>
   <trkpt lat="51.94238000000001" lon="4.32692">
    <ele>-3.4400000000000004</ele>
   </trkpt>
   <trkpt lat="51.94221" lon="4.32606">
    <ele>-3.2</ele>
   </trkpt>
   <trkpt lat="51.94241" lon="4.3254">
    <ele>-3.4600000000000004</ele>
   </trkpt>
   <trkpt lat="51.94243" lon="4.3246400000000005">
    <ele>-3.33</ele>
   </trkpt>
   <trkpt lat="51.942460000000004" lon="4.324520000000001">
    <ele>-3.33</ele>
   </trkpt>
   <trkpt lat="51.942510000000006" lon="4.32448">
    <ele>-3.33</ele>
   </trkpt>
   <trkpt lat="51.943260000848845" lon="4.324050007152065">
    <ele>-3.7900000000000005</ele>
   </trkpt>
   <trkpt lat="51.944010000000006" lon="4.32362">
    <ele>-2.8800000000000003</ele>
   </trkpt>
   <trkpt lat="51.94413" lon="4.323530000000001">
    <ele>-3.06</ele>
   </trkpt>
   <trkpt lat="51.9444" lon="4.323370000000001">
    <ele>-3.21</ele>
   </trkpt>
   <trkpt lat="51.944860000000006" lon="4.322620000000001">
    <ele>-2.6100000000000003</ele>
   </trkpt>
   <trkpt lat="51.944970000000005" lon="4.3224800000000005">
    <ele>-2.5</ele>
   </trkpt>
   <trkpt lat="51.945190000000004" lon="4.3223400000000005">
    <ele>-2.4200000000000004</ele>
   </trkpt>
   <trkpt lat="51.945350000000005" lon="4.32218">
    <ele>-2.2900000000000005</ele>
   </trkpt>
   <trkpt lat="51.94549000000001" lon="4.321960000000001">
    <ele>-2.16</ele>
   </trkpt>
   <trkpt lat="51.94556000000001" lon="4.321890000000001">
    <ele>-1.79</ele>
   </trkpt>
   <trkpt lat="51.94602000037103" lon="4.321630002618715">
    <ele>-1.67</ele>
   </trkpt>
   <trkpt lat="51.94648" lon="4.32137">
    <ele>-1.51</ele>
   </trkpt>
   <trkpt lat="51.94704" lon="4.32115">
    <ele>-1.18</ele>
   </trkpt>
   <trkpt lat="51.94713" lon="4.32104">
    <ele>-0.9700000000000001</ele>
   </trkpt>
   <trkpt lat="51.947500000000005" lon="4.320860000000001">
    <ele>-0.64</ele>
   </trkpt>
   <trkpt lat="51.94769" lon="4.32064">
    <ele>-0.71</ele>
   </trkpt>
   <trkpt lat="51.94794" lon="4.3204400000000005">
    <ele>-0.93</ele>
   </trkpt>
   <trkpt lat="51.948370000000004" lon="4.32022">
    <ele>-1.33</ele>
   </trkpt>
   <trkpt lat="51.948570000000004" lon="4.320270000000001">
    <ele>-1.9200000000000002</ele>
   </trkpt>
   <trkpt lat="51.94915" lon="4.319920000000001">
    <ele>-2.24</ele>
   </trkpt>
   <trkpt lat="51.94935" lon="4.31968">
    <ele>-1.67</ele>
   </trkpt>
   <trkpt lat="51.949720000000006" lon="4.319570000000001">
    <ele>-2.62</ele>
   </trkpt>
   <trkpt lat="51.950450000000004" lon="4.31913">
    <ele>-2.87</ele>
   </trkpt>
   <trkpt lat="51.95082000000001" lon="4.318980000000001">
    <ele>-2.73</ele>
   </trkpt>
   <trkpt lat="51.95163" lon="4.318580000000001">
    <ele>-2.9600000000000004</ele>
   </trkpt>
   <trkpt lat="51.952040000000004" lon="4.3183300000000004">
    <ele>-2.0900000000000003</ele>
   </trkpt>
   <trkpt lat="51.95219" lon="4.318090000000001">
    <ele>-1.1500000000000001</ele>
   </trkpt>
   <trkpt lat="51.95244" lon="4.31791">
    <ele>-0.8500000000000001</ele>
   </trkpt>
   <trkpt lat="51.953100000000006" lon="4.31751">
    <ele>-0.9600000000000001</ele>
   </trkpt>
   <trkpt lat="51.95336" lon="4.31737">
    <ele>-0.7200000000000001</ele>
   </trkpt>
   <trkpt lat="51.953250000000004" lon="4.316820000000001">
    <ele>-2.45</ele>
   </trkpt>
   <trkpt lat="51.95336" lon="4.31737">
    <ele>-0.67</ele>
   </trkpt>
   <trkpt lat="51.953700000000005" lon="4.31723">
    <ele>-0.59</ele>
   </trkpt>
   <trkpt lat="51.9543" lon="4.316890000000001">
    <ele>-0.44</ele>
   </trkpt>
   <trkpt lat="51.954530000000005" lon="4.316890000000001">
    <ele>-0.44</ele>
   </trkpt>
   <trkpt lat="51.95487000000001" lon="4.31674">
    <ele>-0.58</ele>
   </trkpt>
   <trkpt lat="51.955560000000006" lon="4.31635">
    <ele>-0.58</ele>
   </trkpt>
   <trkpt lat="51.955850000000005" lon="4.31616">
    <ele>-0.54</ele>
   </trkpt>
   <trkpt lat="51.956230000000005" lon="4.315860000000001">
    <ele>-0.4900000000000001</ele>
   </trkpt>
   <trkpt lat="51.95666500040351" lon="4.315540003126978">
    <ele>-0.5</ele>
   </trkpt>
   <trkpt lat="51.957100000000004" lon="4.31522">
    <ele>-0.5</ele>
   </trkpt>
   <trkpt lat="51.9576350003832" lon="4.314945003249314">
    <ele>-0.38</ele>
   </trkpt>
   <trkpt lat="51.95817" lon="4.3146700000000004">
    <ele>-0.54</ele>
   </trkpt>
   <trkpt lat="51.958740000000006" lon="4.3144">
    <ele>-0.71</ele>
   </trkpt>
   <trkpt lat="51.95937000000001" lon="4.3140600000000004">
    <ele>-0.67</ele>
   </trkpt>
   <trkpt lat="51.959740000000004" lon="4.31381">
    <ele>-0.71</ele>
   </trkpt>
   <trkpt lat="51.9602400002211" lon="4.313535003121801">
    <ele>-0.76</ele>
   </trkpt>
   <trkpt lat="51.96074" lon="4.3132600000000005">
    <ele>-0.71</ele>
   </trkpt>
   <trkpt lat="51.960930000000005" lon="4.31313">
    <ele>-0.75</ele>
   </trkpt>
   <trkpt lat="51.96144" lon="4.31271">
    <ele>-0.67</ele>
   </trkpt>
   <trkpt lat="51.961780000000005" lon="4.31273">
    <ele>-0.84</ele>
   </trkpt>
   <trkpt lat="51.961960000000005" lon="4.31271">
    <ele>-0.88</ele>
   </trkpt>
   <trkpt lat="51.96238" lon="4.31261">
    <ele>-0.7200000000000001</ele>
   </trkpt>
   <trkpt lat="51.96284000000001" lon="4.31264">
    <ele>-1.09</ele>
   </trkpt>
   <trkpt lat="51.963150000000006" lon="4.3128">
    <ele>-2.47</ele>
   </trkpt>
   <trkpt lat="51.963240000000006" lon="4.31283">
    <ele>-2.6100000000000003</ele>
   </trkpt>
   <trkpt lat="51.963640000000005" lon="4.3128">
    <ele>-2.95</ele>
   </trkpt>
   <trkpt lat="51.9639" lon="4.31275">
    <ele>-2.82</ele>
   </trkpt>
   <trkpt lat="51.964180000000006" lon="4.31266">
    <ele>-2.56</ele>
   </trkpt>
   <trkpt lat="51.96464" lon="4.31264">
    <ele>-2.56</ele>
   </trkpt>
   <trkpt lat="51.96491" lon="4.3126500000000005">
    <ele>-2.39</ele>
   </trkpt>
   <trkpt lat="51.96551999999295" lon="4.312580000955893">
    <ele>-2.2600000000000002</ele>
   </trkpt>
   <trkpt lat="51.96613000000001" lon="4.3125100000000005">
    <ele>-2.6300000000000003</ele>
   </trkpt>
   <trkpt lat="51.96642000000001" lon="4.31252">
    <ele>-2.65</ele>
   </trkpt>
   <trkpt lat="51.96678000000001" lon="4.31256">
    <ele>-2.67</ele>
   </trkpt>
   <trkpt lat="51.967310000000005" lon="4.312480000000001">
    <ele>-2.4200000000000004</ele>
   </trkpt>
   <trkpt lat="51.967650000000006" lon="4.312340000000001">
    <ele>-2.12</ele>
   </trkpt>
   <trkpt lat="51.967890000000004" lon="4.312200000000001">
    <ele>-1.43</ele>
   </trkpt>
   <trkpt lat="51.96799000000001" lon="4.31205">
    <ele>-1.06</ele>
   </trkpt>
   <trkpt lat="51.96815" lon="4.311920000000001">
    <ele>-0.92</ele>
   </trkpt>
   <trkpt lat="51.96829" lon="4.311870000000001">
    <ele>-0.92</ele>
   </trkpt>
   <trkpt lat="51.96864000000001" lon="4.31186">
    <ele>-0.88</ele>
   </trkpt>
   <trkpt lat="51.96894" lon="4.3118300000000005">
    <ele>-1.01</ele>
   </trkpt>
   <trkpt lat="51.969010000000004" lon="4.311850000000001">
    <ele>-1.43</ele>
   </trkpt>
   <trkpt lat="51.96952" lon="4.311660000000001">
    <ele>-2.0500000000000003</ele>
   </trkpt>
   <trkpt lat="51.96956" lon="4.3116200000000005">
    <ele>-1.36</ele>
   </trkpt>
   <trkpt lat="51.969680000000004" lon="4.31236">
    <ele>-2.9800000000000004</ele>
   </trkpt>
   <trkpt lat="51.969710000000006" lon="4.31245">
    <ele>-2.9800000000000004</ele>
   </trkpt>
   <trkpt lat="51.969750000000005" lon="4.31247">
    <ele>-3.04</ele>
   </trkpt>
   <trkpt lat="51.96979" lon="4.31245">
    <ele>-3.04</ele>
   </trkpt>
   <trkpt lat="51.969995005675" lon="4.313604994860873">
    <ele>-3.6100000000000003</ele>
   </trkpt>
   <trkpt lat="51.970200000000006" lon="4.314760000000001">
    <ele>-3.33</ele>
   </trkpt>
   <trkpt lat="51.97023" lon="4.31486">
    <ele>-3.33</ele>
   </trkpt>
   <trkpt lat="51.970600000000005" lon="4.315440000000001">
    <ele>-3.0700000000000003</ele>
   </trkpt>
   <trkpt lat="51.970870000000005" lon="4.31531">
    <ele>-3.17</ele>
   </trkpt>
   <trkpt lat="51.97126" lon="4.3151600000000006">
    <ele>-3.16</ele>
   </trkpt>
   <trkpt lat="51.97139000000001" lon="4.31491">
    <ele>-2.85</ele>
   </trkpt>
   <trkpt lat="51.9714" lon="4.31475">
    <ele>-2.85</ele>
   </trkpt>
   <trkpt lat="51.9722" lon="4.3144">
    <ele>-2.9600000000000004</ele>
   </trkpt>
   <trkpt lat="51.972280000000005" lon="4.31472">
    <ele>-2.9899999999999998</ele>
   </trkpt>
   <trkpt lat="51.97238" lon="4.3153500000000005">
    <ele>-2.6300000000000003</ele>
   </trkpt>
   <trkpt lat="51.97242000000001" lon="4.315460000000001">
    <ele>-2.6300000000000003</ele>
   </trkpt>
   <trkpt lat="51.97247" lon="4.3154900000000005">
    <ele>-2.6300000000000003</ele>
   </trkpt>
   <trkpt lat="51.97258000000001" lon="4.3154900000000005">
    <ele>-2.58</ele>
   </trkpt>
   <trkpt lat="51.972550000000005" lon="4.3152">
    <ele>-2.58</ele>
   </trkpt>
   <trkpt lat="51.97258000000001" lon="4.31514">
    <ele>-2.36</ele>
   </trkpt>
   <trkpt lat="51.97321333449984" lon="4.314773343682572">
    <ele>-2.43</ele>
   </trkpt>
   <trkpt lat="51.97384666786103" lon="4.314406676999957">
    <ele>-2.4600000000000004</ele>
   </trkpt>
   <trkpt lat="51.97448000000001" lon="4.31404">
    <ele>-2.24</ele>
   </trkpt>
   <trkpt lat="51.97494000038712" lon="4.313760002841144">
    <ele>-2.02</ele>
   </trkpt>
   <trkpt lat="51.97540000000001" lon="4.31348">
    <ele>-1.58</ele>
   </trkpt>
   <trkpt lat="51.97552" lon="4.314640000000001">
    <ele>-2.25</ele>
   </trkpt>
   <trkpt lat="51.97576000349316" lon="4.315549995074125">
    <ele>-2.56</ele>
   </trkpt>
   <trkpt lat="51.976000000000006" lon="4.31646">
    <ele>-2.56</ele>
   </trkpt>
   <trkpt lat="51.97592" lon="4.31651">
    <ele>-2.31</ele>
   </trkpt>
   <trkpt lat="51.97607000000001" lon="4.317200000000001">
    <ele>-2.31</ele>
   </trkpt>
   <trkpt lat="51.97673" lon="4.316800000000001">
    <ele>-1.6900000000000002</ele>
   </trkpt>
   <trkpt lat="51.97688" lon="4.31663">
    <ele>-1.5700000000000003</ele>
   </trkpt>
   <trkpt lat="51.97706" lon="4.31627">
    <ele>-1.0</ele>
   </trkpt>
   <trkpt lat="51.977500000000006" lon="4.31702">
    <ele>-0.99</ele>
   </trkpt>
   <trkpt lat="51.977740000000004" lon="4.31738">
    <ele>-0.68</ele>
   </trkpt>
   <trkpt lat="51.977850000000004" lon="4.317480000000001">
    <ele>-0.67</ele>
   </trkpt>
   <trkpt lat="51.97798" lon="4.317570000000001">
    <ele>-0.71</ele>
   </trkpt>
   <trkpt lat="51.978190000000005" lon="4.317810000000001">
    <ele>-0.58</ele>
   </trkpt>
   <trkpt lat="51.978320000000004" lon="4.31792">
    <ele>-0.5</ele>
   </trkpt>
   <trkpt lat="51.978410000000004" lon="4.31806">
    <ele>-0.5</ele>
   </trkpt>
   <trkpt lat="51.97858" lon="4.318230000000001">
    <ele>-0.54</ele>
   </trkpt>
   <trkpt lat="51.97878000000001" lon="4.31841">
    <ele>-0.62</ele>
   </trkpt>
   <trkpt lat="51.97894" lon="4.3185">
    <ele>-0.62</ele>
   </trkpt>
   <trkpt lat="51.97939" lon="4.3184700000000005">
    <ele>-0.54</ele>
   </trkpt>
   <trkpt lat="51.97955" lon="4.318420000000001">
    <ele>-0.54</ele>
   </trkpt>
   <trkpt lat="51.9797" lon="4.31832">
    <ele>-0.54</ele>
   </trkpt>
   <trkpt lat="51.979890000000005" lon="4.31813">
    <ele>-0.58</ele>
   </trkpt>
   <trkpt lat="51.980290000000004" lon="4.31756">
    <ele>-0.58</ele>
   </trkpt>
   <trkpt lat="51.98051" lon="4.3174">
    <ele>-0.8</ele>
   </trkpt>
   <trkpt lat="51.98059000000001" lon="4.31738">
    <ele>-0.8</ele>
   </trkpt>
   <trkpt lat="51.98071" lon="4.31744">
    <ele>-0.88</ele>
   </trkpt>
   <trkpt lat="51.981120000000004" lon="4.3177900000000005">
    <ele>-0.88</ele>
   </trkpt>
   <trkpt lat="51.981730000000006" lon="4.31815">
    <ele>-0.76</ele>
   </trkpt>
   <trkpt lat="51.98219" lon="4.318490000000001">
    <ele>-0.63</ele>
   </trkpt>
   <trkpt lat="51.982380000000006" lon="4.31874">
    <ele>-0.75</ele>
   </trkpt>
   <trkpt lat="51.98293" lon="4.31895">
    <ele>-0.31</ele>
   </trkpt>
   <trkpt lat="51.98349" lon="4.31934">
    <ele>-0.62</ele>
   </trkpt>
   <trkpt lat="51.984190001192324" lon="4.319869991719062">
    <ele>-0.84</ele>
   </trkpt>
   <trkpt lat="51.98489000000001" lon="4.3204">
    <ele>-1.16</ele>
   </trkpt>
   <trkpt lat="51.98543" lon="4.320790000000001">
    <ele>-1.07</ele>
   </trkpt>
   <trkpt lat="51.98608" lon="4.321210000000001">
    <ele>-0.54</ele>
   </trkpt>
   <trkpt lat="51.986673334714716" lon="4.321616655878319">
    <ele>-0.31</ele>
   </trkpt>
   <trkpt lat="51.98726666802899" lon="4.322023322531742">
    <ele>-0.42</ele>
   </trkpt>
   <trkpt lat="51.987860000000005" lon="4.322430000000001">
    <ele>-0.5</ele>
   </trkpt>
   <trkpt lat="51.98828000038045" lon="4.322764996782638">
    <ele>-0.67</ele>
   </trkpt>
   <trkpt lat="51.9887" lon="4.3231">
    <ele>-0.81</ele>
   </trkpt>
   <trkpt lat="51.988760000000006" lon="4.323110000000001">
    <ele>-0.81</ele>
   </trkpt>
   <trkpt lat="51.989200000000004" lon="4.32347">
    <ele>-0.67</ele>
   </trkpt>
   <trkpt lat="51.98964" lon="4.32378">
    <ele>-0.62</ele>
   </trkpt>
   <trkpt lat="51.98982" lon="4.32392">
    <ele>-0.62</ele>
   </trkpt>
   <trkpt lat="51.990140000000004" lon="4.32422">
    <ele>-0.4</ele>
   </trkpt>
   <trkpt lat="51.990790000000004" lon="4.32472">
    <ele>-0.84</ele>
   </trkpt>
   <trkpt lat="51.99159" lon="4.32509">
    <ele>-1.1300000000000001</ele>
   </trkpt>
   <trkpt lat="51.992160000000005" lon="4.32551">
    <ele>-1.05</ele>
   </trkpt>
   <trkpt lat="51.99289500551334" lon="4.3260199581459124">
    <ele>-0.53</ele>
   </trkpt>
   <trkpt lat="51.99363000882444" lon="4.326529933034241">
    <ele>-0.44</ele>
   </trkpt>
   <trkpt lat="51.99436500993322" lon="4.327039924665927">
    <ele>-0.46</ele>
   </trkpt>
   <trkpt lat="51.99510000883948" lon="4.327549933041915">
    <ele>-0.46</ele>
   </trkpt>
   <trkpt lat="51.99583500554312" lon="4.328059958163145">
    <ele>-0.54</ele>
   </trkpt>
   <trkpt lat="51.996570000000006" lon="4.32857">
    <ele>-0.54</ele>
   </trkpt>
   <trkpt lat="51.996610000000004" lon="4.32861">
    <ele>-0.54</ele>
   </trkpt>
   <trkpt lat="51.99665" lon="4.32876">
    <ele>-0.62</ele>
   </trkpt>
   <trkpt lat="51.99667" lon="4.3289800000000005">
    <ele>-0.62</ele>
   </trkpt>
   <trkpt lat="51.99667" lon="4.32981">
    <ele>-0.84</ele>
   </trkpt>
   <trkpt lat="51.996680000000005" lon="4.330010000000001">
    <ele>-0.84</ele>
   </trkpt>
   <trkpt lat="51.99680000000001" lon="4.3308100000000005">
    <ele>-1.04</ele>
   </trkpt>
   <trkpt lat="51.996750000000006" lon="4.331370000000001">
    <ele>-1.06</ele>
   </trkpt>
   <trkpt lat="51.99678" lon="4.33133">
    <ele>-1.06</ele>
   </trkpt>
   <trkpt lat="51.997370000000004" lon="4.331060000000001">
    <ele>-0.9600000000000001</ele>
   </trkpt>
   <trkpt lat="51.99752" lon="4.33101">
    <ele>-0.81</ele>
   </trkpt>
   <trkpt lat="51.99757" lon="4.3310200000000005">
    <ele>-0.81</ele>
   </trkpt>
   <trkpt lat="51.99761" lon="4.331060000000001">
    <ele>-0.71</ele>
   </trkpt>
   <trkpt lat="51.99768" lon="4.3312">
    <ele>-0.71</ele>
   </trkpt>
   <trkpt lat="51.99776000000001" lon="4.33164">
    <ele>-0.54</ele>
   </trkpt>
   <trkpt lat="51.99821000000001" lon="4.33141">
    <ele>-0.38</ele>
   </trkpt>
   <trkpt lat="51.99839000275491" lon="4.332214996813814">
    <ele>-0.25</ele>
   </trkpt>
   <trkpt lat="51.99857" lon="4.33302">
    <ele>0.02</ele>
   </trkpt>
   <trkpt lat="51.999010000000006" lon="4.33277">
    <ele>0.09000000000000001</ele>
   </trkpt>
   <trkpt lat="51.99944500030788" lon="4.332555002033796">
    <ele>0.13</ele>
   </trkpt>
   <trkpt lat="51.999880000000005" lon="4.33234">
    <ele>0.42</ele>
   </trkpt>
   <trkpt lat="52.000080000000004" lon="4.3322">
    <ele>0.07</ele>
   </trkpt>
   <trkpt lat="52.00047000000001" lon="4.33347">
    <ele>0.060000000000000005</ele>
   </trkpt>
   <trkpt lat="52.00052" lon="4.333670000000001">
    <ele>0.060000000000000005</ele>
   </trkpt>
   <trkpt lat="52.000906024969794" lon="4.3348839581624645">
    <ele>0.13</ele>
   </trkpt>
   <trkpt lat="52.00129203746106" lon="4.33609793726256">
    <ele>0.13</ele>
   </trkpt>
   <trkpt lat="52.001678037473425" lon="4.337311937300258">
    <ele>0.060000000000000005</ele>
   </trkpt>
   <trkpt lat="52.0020640250065" lon="4.338525958275539">
    <ele>0.14</ele>
   </trkpt>
   <trkpt lat="52.00245" lon="4.33974">
    <ele>0.27</ele>
   </trkpt>
   <trkpt lat="52.002665001787044" lon="4.340399996654388">
    <ele>0.26</ele>
   </trkpt>
   <trkpt lat="52.002880000000005" lon="4.341060000000001">
    <ele>0.47000000000000003</ele>
   </trkpt>
   <trkpt lat="52.00309000000001" lon="4.341620000000001">
    <ele>0.5</ele>
   </trkpt>
   <trkpt lat="52.0031" lon="4.34164">
    <ele>0.51</ele>
   </trkpt>
   <trkpt lat="52.00368" lon="4.3411">
    <ele>-0.16</ele>
   </trkpt>
   <trkpt lat="52.003730000000004" lon="4.34097">
    <ele>-0.16</ele>
   </trkpt>
   <trkpt lat="52.00379" lon="4.340520000000001">
    <ele>-0.08</ele>
   </trkpt>
   <trkpt lat="52.00383000000001" lon="4.34037">
    <ele>0.09000000000000001</ele>
   </trkpt>
   <trkpt lat="52.00388" lon="4.3403">
    <ele>0.09000000000000001</ele>
   </trkpt>
   <trkpt lat="52.004310000000004" lon="4.339910000000001">
    <ele>0.07</ele>
   </trkpt>
   <trkpt lat="52.0048" lon="4.3394">
    <ele>-0.17</ele>
   </trkpt>
   <trkpt lat="52.00543500142872" lon="4.338815008318599">
    <ele>-0.5</ele>
   </trkpt>
   <trkpt lat="52.00607" lon="4.33823">
    <ele>-0.32</ele>
   </trkpt>
   <trkpt lat="52.006170000000004" lon="4.33819">
    <ele>-0.32</ele>
   </trkpt>
   <trkpt lat="52.00623" lon="4.33819">
    <ele>-0.27</ele>
   </trkpt>
   <trkpt lat="52.006660000000004" lon="4.3377300000000005">
    <ele>-0.29</ele>
   </trkpt>
   <trkpt lat="52.00726500130802" lon="4.337190007234477">
    <ele>-0.34</ele>
   </trkpt>
   <trkpt lat="52.007870000000004" lon="4.336650000000001">
    <ele>-0.02</ele>
   </trkpt>
   <trkpt lat="52.00788000000001" lon="4.336650000000001">
    <ele>-0.02</ele>
   </trkpt>
   <trkpt lat="52.007920000000006" lon="4.33664">
    <ele>-0.02</ele>
   </trkpt>
   <trkpt lat="52.007960000000004" lon="4.336650000000001">
    <ele>-0.02</ele>
   </trkpt>
   <trkpt lat="52.00799000000001" lon="4.33669">
    <ele>-0.02</ele>
   </trkpt>
   <trkpt lat="52.008340000000004" lon="4.33737">
    <ele>0.01</ele>
   </trkpt>
   <trkpt lat="52.00838" lon="4.337400000000001">
    <ele>0.01</ele>
   </trkpt>
   <trkpt lat="52.00853000000001" lon="4.337400000000001">
    <ele>0.14</ele>
   </trkpt>
   <trkpt lat="52.00862000000001" lon="4.33764">
    <ele>0.18000000000000002</ele>
   </trkpt>
   <trkpt lat="52.00873000000001" lon="4.3386000000000005">
    <ele>0.28</ele>
   </trkpt>
   <trkpt lat="52.00885500268286" lon="4.339399997595653">
    <ele>0.44</ele>
   </trkpt>
   <trkpt lat="52.00898" lon="4.3402">
    <ele>0.25</ele>
   </trkpt>
   <trkpt lat="52.00894" lon="4.340310000000001">
    <ele>-0.04</ele>
   </trkpt>
   <trkpt lat="52.00893000000001" lon="4.340380000000001">
    <ele>-0.04</ele>
   </trkpt>
   <trkpt lat="52.009205004277696" lon="4.341389993643513">
    <ele>-1.42</ele>
   </trkpt>
   <trkpt lat="52.00948" lon="4.3424000000000005">
    <ele>-0.04</ele>
   </trkpt>
   <trkpt lat="52.00956000000001" lon="4.34257">
    <ele>0.31</ele>
   </trkpt>
   <trkpt lat="52.009730000000005" lon="4.3426800000000005">
    <ele>0.39</ele>
   </trkpt>
   <trkpt lat="52.009780000000006" lon="4.3427500000000006">
    <ele>0.39</ele>
   </trkpt>
   <trkpt lat="52.010020000000004" lon="4.343310000000001">
    <ele>0.53</ele>
   </trkpt>
   <trkpt lat="52.010270000000006" lon="4.34379">
    <ele>0.5700000000000001</ele>
   </trkpt>
   <trkpt lat="52.01041000000001" lon="4.34394">
    <ele>0.65</ele>
   </trkpt>
   <trkpt lat="52.010470000000005" lon="4.34403">
    <ele>0.65</ele>
   </trkpt>
   <trkpt lat="52.010720000000006" lon="4.345140000000001">
    <ele>0.7000000000000001</ele>
   </trkpt>
   <trkpt lat="52.01077" lon="4.345890000000001">
    <ele>0.88</ele>
   </trkpt>
   <trkpt lat="52.01079000000001" lon="4.3463400000000005">
    <ele>0.8200000000000001</ele>
   </trkpt>
   <trkpt lat="52.01089" lon="4.3463">
    <ele>0.8200000000000001</ele>
   </trkpt>
   <trkpt lat="52.011" lon="4.34633">
    <ele>0.8200000000000001</ele>
   </trkpt>
   <trkpt lat="52.011190000000006" lon="4.3463">
    <ele>0.71</ele>
   </trkpt>
   <trkpt lat="52.01164000000001" lon="4.345960000000001">
    <ele>0.68</ele>
   </trkpt>
   <trkpt lat="52.0123" lon="4.34534">
    <ele>0.58</ele>
   </trkpt>
   <trkpt lat="52.012800000000006" lon="4.3449100000000005">
    <ele>0.64</ele>
   </trkpt>
   <trkpt lat="52.01308" lon="4.34463">
    <ele>0.6600000000000001</ele>
   </trkpt>
   <trkpt lat="52.01333" lon="4.344670000000001">
    <ele>0.59</ele>
   </trkpt>
   <trkpt lat="52.01333" lon="4.34485">
    <ele>0.59</ele>
   </trkpt>
   <trkpt lat="52.013310000000004" lon="4.34511">
    <ele>0.58</ele>
   </trkpt>
   <trkpt lat="52.01334000000001" lon="4.345610000000001">
    <ele>0.58</ele>
   </trkpt>
   <trkpt lat="52.01342" lon="4.3459900000000005">
    <ele>0.4900000000000001</ele>
   </trkpt>
   <trkpt lat="52.013470000000005" lon="4.34616">
    <ele>0.4900000000000001</ele>
   </trkpt>
   <trkpt lat="52.0137450017375" lon="4.346794996167667">
    <ele>0.58</ele>
   </trkpt>
   <trkpt lat="52.01402" lon="4.34743">
    <ele>0.62</ele>
   </trkpt>
   <trkpt lat="52.01428000000001" lon="4.34801">
    <ele>0.67</ele>
   </trkpt>
   <trkpt lat="52.014300000000006" lon="4.34806">
    <ele>0.67</ele>
   </trkpt>
   <trkpt lat="52.014300000000006" lon="4.348120000000001">
    <ele>0.6600000000000001</ele>
   </trkpt>
   <trkpt lat="52.01435000000001" lon="4.34827">
    <ele>0.6600000000000001</ele>
   </trkpt>
   <trkpt lat="52.01438" lon="4.34835">
    <ele>0.6600000000000001</ele>
   </trkpt>
   <trkpt lat="52.014430000000004" lon="4.34839">
    <ele>0.75</ele>
   </trkpt>
   <trkpt lat="52.014790000000005" lon="4.349220000000001">
    <ele>1.03</ele>
   </trkpt>
   <trkpt lat="52.014880000000005" lon="4.3495">
    <ele>1.4800000000000002</ele>
   </trkpt>
   <trkpt lat="52.014880000000005" lon="4.349620000000001">
    <ele>1.4800000000000002</ele>
   </trkpt>
   <trkpt lat="52.01482000000001" lon="4.34973">
    <ele>4.37</ele>
   </trkpt>
   <trkpt lat="52.014880000000005" lon="4.349880000000001">
    <ele>4.72</ele>
   </trkpt>
   <trkpt lat="52.015010000000004" lon="4.35064">
    <ele>5.08</ele>
   </trkpt>
   <trkpt lat="52.014990000000004" lon="4.35083">
    <ele>1.99</ele>
   </trkpt>
   <trkpt lat="52.015620000000006" lon="4.350980000000001">
    <ele>1.86</ele>
   </trkpt>
   <trkpt lat="52.01568" lon="4.35095">
    <ele>1.6900000000000002</ele>
   </trkpt>
   <trkpt lat="52.01596000000001" lon="4.35107">
    <ele>1.6</ele>
   </trkpt>
   <trkpt lat="52.016130000000004" lon="4.3512200000000005">
    <ele>1.6</ele>
   </trkpt>
   <trkpt lat="52.016630000000006" lon="4.351850000000001">
    <ele>2.2600000000000002</ele>
   </trkpt>
   <trkpt lat="52.0168" lon="4.351710000000001">
    <ele>2.32</ele>
   </trkpt>
   <trkpt lat="52.01715" lon="4.35215">
    <ele>2.18</ele>
   </trkpt>
   <trkpt lat="52.01735000000001" lon="4.352320000000001">
    <ele>1.9100000000000001</ele>
   </trkpt>
   <trkpt lat="52.01756" lon="4.352460000000001">
    <ele>1.8300000000000003</ele>
   </trkpt>
   <trkpt lat="52.017720000000004" lon="4.352530000000001">
    <ele>1.77</ele>
   </trkpt>
   <trkpt lat="52.01766000000001" lon="4.35268">
    <ele>1.77</ele>
   </trkpt>
   <trkpt lat="52.01766000000001" lon="4.352670000000001">
    <ele>1.77</ele>
   </trkpt>
   <trkpt lat="52.01796" lon="4.35196">
    <ele>1.7400000000000002</ele>
   </trkpt>
   <trkpt lat="52.018010000000004" lon="4.351780000000001">
    <ele>1.86</ele>
   </trkpt>
   <trkpt lat="52.018010000000004" lon="4.35163">
    <ele>1.98</ele>
   </trkpt>
   <trkpt lat="52.017900000000004" lon="4.35116">
    <ele>2.2700000000000005</ele>
   </trkpt>
   <trkpt lat="52.01787" lon="4.35081">
    <ele>2.22</ele>
   </trkpt>
   <trkpt lat="52.01789" lon="4.35074">
    <ele>1.99</ele>
   </trkpt>
   <trkpt lat="52.017970000000005" lon="4.35066">
    <ele>1.79</ele>
   </trkpt>
   <trkpt lat="52.01868" lon="4.35018">
    <ele>1.1900000000000002</ele>
   </trkpt>
   <trkpt lat="52.01938500097416" lon="4.349690007751775">
    <ele>0.89</ele>
   </trkpt>
   <trkpt lat="52.02009" lon="4.349200000000001">
    <ele>0.71</ele>
   </trkpt>
   <trkpt lat="52.0202" lon="4.349080000000001">
    <ele>0.59</ele>
   </trkpt>
   <trkpt lat="52.02037000000001" lon="4.34874">
    <ele>0.5700000000000001</ele>
   </trkpt>
   <trkpt lat="52.020450000000004" lon="4.3484300000000005">
    <ele>0.6100000000000001</ele>
   </trkpt>
   <trkpt lat="52.020480000000006" lon="4.3481000000000005">
    <ele>0.9700000000000001</ele>
   </trkpt>
   <trkpt lat="52.02051" lon="4.348000000000001">
    <ele>0.9700000000000001</ele>
   </trkpt>
   <trkpt lat="52.02055000000001" lon="4.347930000000001">
    <ele>1.2100000000000002</ele>
   </trkpt>
   <trkpt lat="52.02067" lon="4.34785">
    <ele>1.2000000000000002</ele>
   </trkpt>
   <trkpt lat="52.02075000000001" lon="4.34785">
    <ele>1.03</ele>
   </trkpt>
   <trkpt lat="52.020830000000004" lon="4.3478900000000005">
    <ele>1.03</ele>
   </trkpt>
   <trkpt lat="52.021170000000005" lon="4.34818">
    <ele>0.8700000000000001</ele>
   </trkpt>
   <trkpt lat="52.02121" lon="4.348190000000001">
    <ele>0.8700000000000001</ele>
   </trkpt>
   <trkpt lat="52.02129000000001" lon="4.34818">
    <ele>0.9</ele>
   </trkpt>
   <trkpt lat="52.02156" lon="4.348070000000001">
    <ele>1.12</ele>
   </trkpt>
   <trkpt lat="52.02208" lon="4.3478200000000005">
    <ele>1.2300000000000002</ele>
   </trkpt>
   <trkpt lat="52.02237" lon="4.3476300000000005">
    <ele>1.7000000000000002</ele>
   </trkpt>
   <trkpt lat="52.02253" lon="4.34741">
    <ele>1.6500000000000001</ele>
   </trkpt>
   <trkpt lat="52.022670000000005" lon="4.347530000000001">
    <ele>1.53</ele>
   </trkpt>
   <trkpt lat="52.02275" lon="4.347530000000001">
    <ele>1.37</ele>
   </trkpt>
   <trkpt lat="52.02337000000001" lon="4.347250000000001">
    <ele>0.9500000000000001</ele>
   </trkpt>
   <trkpt lat="52.02344" lon="4.34719">
    <ele>0.9500000000000001</ele>
   </trkpt>
   <trkpt lat="52.023700000000005" lon="4.347090000000001">
    <ele>0.9</ele>
   </trkpt>
   <trkpt lat="52.02420500024523" lon="4.346990001088934">
    <ele>0.99</ele>
   </trkpt>
   <trkpt lat="52.024710000000006" lon="4.34689">
    <ele>0.99</ele>
   </trkpt>
   <trkpt lat="52.025329999886125" lon="4.346790001411486">
    <ele>1.01</ele>
   </trkpt>
   <trkpt lat="52.02595" lon="4.346690000000001">
    <ele>0.99</ele>
   </trkpt>
   <trkpt lat="52.026" lon="4.346710000000001">
    <ele>0.99</ele>
   </trkpt>
   <trkpt lat="52.02624" lon="4.3466700000000005">
    <ele>1.12</ele>
   </trkpt>
   <trkpt lat="52.02666000000001" lon="4.34659">
    <ele>1.41</ele>
   </trkpt>
   <trkpt lat="52.02676" lon="4.3465300000000004">
    <ele>1.41</ele>
   </trkpt>
   <trkpt lat="52.026920000000004" lon="4.34651">
    <ele>1.4700000000000002</ele>
   </trkpt>
   <trkpt lat="52.02743500006233" lon="4.346415001089576">
    <ele>1.2000000000000002</ele>
   </trkpt>
   <trkpt lat="52.027950000000004" lon="4.34632">
    <ele>1.2000000000000002</ele>
   </trkpt>
   <trkpt lat="52.02872500003175" lon="4.346235001472988">
    <ele>1.16</ele>
   </trkpt>
   <trkpt lat="52.029500000000006" lon="4.346150000000001">
    <ele>1.1300000000000001</ele>
   </trkpt>
   <trkpt lat="52.03" lon="4.346030000000001">
    <ele>1.16</ele>
   </trkpt>
   <trkpt lat="52.03070750016744" lon="4.34590500593893">
    <ele>1.25</ele>
   </trkpt>
   <trkpt lat="52.03141500020261" lon="4.34578000792237">
    <ele>1.2300000000000002</ele>
   </trkpt>
   <trkpt lat="52.03212250010552" lon="4.345655005950097">
    <ele>1.2100000000000002</ele>
   </trkpt>
   <trkpt lat="52.032830000000004" lon="4.34553">
    <ele>1.24</ele>
   </trkpt>
   <trkpt lat="52.033480000000004" lon="4.345350000000001">
    <ele>1.2300000000000002</ele>
   </trkpt>
   <trkpt lat="52.03423" lon="4.34522">
    <ele>1.24</ele>
   </trkpt>
   <trkpt lat="52.03455" lon="4.3452">
    <ele>1.1900000000000002</ele>
   </trkpt>
   <trkpt lat="52.035250000000005" lon="4.3451200000000005">
    <ele>1.41</ele>
   </trkpt>
   <trkpt lat="52.035590000000006" lon="4.34513">
    <ele>1.33</ele>
   </trkpt>
   <trkpt lat="52.035720000000005" lon="4.3451">
    <ele>1.37</ele>
   </trkpt>
   <trkpt lat="52.03595000000001" lon="4.34496">
    <ele>1.37</ele>
   </trkpt>
   <trkpt lat="52.036120000000004" lon="4.34489">
    <ele>1.36</ele>
   </trkpt>
   <trkpt lat="52.036895000091036" lon="4.344770002075648">
    <ele>1.3900000000000001</ele>
   </trkpt>
   <trkpt lat="52.037670000000006" lon="4.344650000000001">
    <ele>1.37</ele>
   </trkpt>
   <trkpt lat="52.037960000000005" lon="4.3445800000000006">
    <ele>1.36</ele>
   </trkpt>
   <trkpt lat="52.03824" lon="4.344320000000001">
    <ele>1.36</ele>
   </trkpt>
   <trkpt lat="52.03842" lon="4.344270000000001">
    <ele>1.36</ele>
   </trkpt>
   <trkpt lat="52.03877000000001" lon="4.344410000000001">
    <ele>1.4000000000000001</ele>
   </trkpt>
   <trkpt lat="52.03887" lon="4.344410000000001">
    <ele>1.4000000000000001</ele>
   </trkpt>
   <trkpt lat="52.03971000000001" lon="4.34428">
    <ele>1.3900000000000001</ele>
   </trkpt>
   <trkpt lat="52.04018000000001" lon="4.34419">
    <ele>1.3900000000000001</ele>
   </trkpt>
   <trkpt lat="52.04028" lon="4.344110000000001">
    <ele>1.3900000000000001</ele>
   </trkpt>
   <trkpt lat="52.04088999998722" lon="4.34401000137373">
    <ele>1.7400000000000002</ele>
   </trkpt>
   <trkpt lat="52.041500000000006" lon="4.34391">
    <ele>1.4600000000000002</ele>
   </trkpt>
   <trkpt lat="52.04171" lon="4.343870000000001">
    <ele>1.3900000000000001</ele>
   </trkpt>
   <trkpt lat="52.04177000000001" lon="4.34384">
    <ele>1.3900000000000001</ele>
   </trkpt>
   <trkpt lat="52.04186000000001" lon="4.3437">
    <ele>1.3900000000000001</ele>
   </trkpt>
   <trkpt lat="52.04189" lon="4.34358">
    <ele>1.3900000000000001</ele>
   </trkpt>
   <trkpt lat="52.04207" lon="4.34368">
    <ele>1.25</ele>
   </trkpt>
   <trkpt lat="52.04227" lon="4.34372">
    <ele>1.24</ele>
   </trkpt>
   <trkpt lat="52.04283" lon="4.34363">
    <ele>0.9700000000000001</ele>
   </trkpt>
   <trkpt lat="52.04343000002579" lon="4.343560000939125">
    <ele>1.01</ele>
   </trkpt>
   <trkpt lat="52.04403000000001" lon="4.34349">
    <ele>1.33</ele>
   </trkpt>
   <trkpt lat="52.044090000000004" lon="4.343450000000001">
    <ele>1.33</ele>
   </trkpt>
   <trkpt lat="52.044290000000004" lon="4.34337">
    <ele>1.1500000000000001</ele>
   </trkpt>
   <trkpt lat="52.04449" lon="4.343190000000001">
    <ele>1.06</ele>
   </trkpt>
   <trkpt lat="52.04467" lon="4.3429400000000005">
    <ele>1.08</ele>
   </trkpt>
   <trkpt lat="52.04504000000001" lon="4.3423300000000005">
    <ele>1.9000000000000001</ele>
   </trkpt>
   <trkpt lat="52.04527" lon="4.342580000000001">
    <ele>2.33</ele>
   </trkpt>
   <trkpt lat="52.045460000000006" lon="4.34286">
    <ele>2.39</ele>
   </trkpt>
   <trkpt lat="52.04552" lon="4.342890000000001">
    <ele>2.2700000000000005</ele>
   </trkpt>
   <trkpt lat="52.04561" lon="4.34293">
    <ele>2.1</ele>
   </trkpt>
   <trkpt lat="52.045880000000004" lon="4.34292">
    <ele>2.0100000000000002</ele>
   </trkpt>
   <trkpt lat="52.04618000000001" lon="4.34299">
    <ele>2.06</ele>
   </trkpt>
   <trkpt lat="52.046350000000004" lon="4.342980000000001">
    <ele>2.4200000000000004</ele>
   </trkpt>
   <trkpt lat="52.04639" lon="4.343">
    <ele>2.4200000000000004</ele>
   </trkpt>
   <trkpt lat="52.04719000003082" lon="4.342880002152725">
    <ele>2.69</ele>
   </trkpt>
   <trkpt lat="52.047990000000006" lon="4.34276">
    <ele>2.9400000000000004</ele>
   </trkpt>
   <trkpt lat="52.048170000000006" lon="4.34264">
    <ele>2.9400000000000004</ele>
   </trkpt>
   <trkpt lat="52.048260000000006" lon="4.342650000000001">
    <ele>2.75</ele>
   </trkpt>
   <trkpt lat="52.04838" lon="4.34274">
    <ele>2.75</ele>
   </trkpt>
   <trkpt lat="52.04847" lon="4.34276">
    <ele>2.34</ele>
   </trkpt>
   <trkpt lat="52.049313333410346" lon="4.342636671329552">
    <ele>1.78</ele>
   </trkpt>
   <trkpt lat="52.050156666691954" lon="4.342513338003889">
    <ele>1.85</ele>
   </trkpt>
   <trkpt lat="52.051" lon="4.34239">
    <ele>1.8800000000000001</ele>
   </trkpt>
   <trkpt lat="52.05145" lon="4.3424000000000005">
    <ele>1.8800000000000001</ele>
   </trkpt>
   <trkpt lat="52.05169000000001" lon="4.342440000000001">
    <ele>1.8</ele>
   </trkpt>
   <trkpt lat="52.05178" lon="4.34241">
    <ele>1.68</ele>
   </trkpt>
   <trkpt lat="52.051750000000006" lon="4.342510000000001">
    <ele>1.68</ele>
   </trkpt>
   <trkpt lat="52.05178" lon="4.342510000000001">
    <ele>1.41</ele>
   </trkpt>
   <trkpt lat="52.051790000000004" lon="4.34262">
    <ele>1.41</ele>
   </trkpt>
   <trkpt lat="52.051840000000006" lon="4.342700000000001">
    <ele>1.41</ele>
   </trkpt>
   <trkpt lat="52.05199" lon="4.342840000000001">
    <ele>1.2300000000000002</ele>
   </trkpt>
   <trkpt lat="52.052170000000004" lon="4.342890000000001">
    <ele>1.25</ele>
   </trkpt>
   <trkpt lat="52.052260000000004" lon="4.3428700000000005">
    <ele>1.25</ele>
   </trkpt>
   <trkpt lat="52.05234" lon="4.34279">
    <ele>1.3900000000000001</ele>
   </trkpt>
   <trkpt lat="52.05238000000001" lon="4.34272">
    <ele>1.61</ele>
   </trkpt>
   <trkpt lat="52.0525" lon="4.34241">
    <ele>1.86</ele>
   </trkpt>
   <trkpt lat="52.05261" lon="4.342230000000001">
    <ele>1.86</ele>
   </trkpt>
   <trkpt lat="52.05308" lon="4.34302">
    <ele>1.84</ele>
   </trkpt>
   <trkpt lat="52.05375001038506" lon="4.343924959268146">
    <ele>2.0100000000000002</ele>
   </trkpt>
   <trkpt lat="52.05442001383878" lon="4.344829945678949">
    <ele>2.1</ele>
   </trkpt>
   <trkpt lat="52.05509001036075" lon="4.345734959233595">
    <ele>2.0900000000000003</ele>
   </trkpt>
   <trkpt lat="52.05576000000001" lon="4.346640000000001">
    <ele>2.18</ele>
   </trkpt>
   <trkpt lat="52.05592000000001" lon="4.34679">
    <ele>2.16</ele>
   </trkpt>
   <trkpt lat="52.056050000000006" lon="4.34689">
    <ele>2.17</ele>
   </trkpt>
   <trkpt lat="52.05622" lon="4.34696">
    <ele>2.1300000000000003</ele>
   </trkpt>
   <trkpt lat="52.05641000000001" lon="4.346990000000001">
    <ele>2.1300000000000003</ele>
   </trkpt>
   <trkpt lat="52.056430000000006" lon="4.346990000000001">
    <ele>2.1300000000000003</ele>
   </trkpt>
   <trkpt lat="52.05666" lon="4.34696">
    <ele>2.15</ele>
   </trkpt>
   <trkpt lat="52.05697000000001" lon="4.34679">
    <ele>2.12</ele>
   </trkpt>
   <trkpt lat="52.057210000000005" lon="4.346570000000001">
    <ele>2.1</ele>
   </trkpt>
   <trkpt lat="52.057745001497665" lon="4.345985006952029">
    <ele>2.0100000000000002</ele>
   </trkpt>
   <trkpt lat="52.05828" lon="4.345400000000001">
    <ele>2.12</ele>
   </trkpt>
   <trkpt lat="52.05888" lon="4.344740000000001">
    <ele>2.31</ele>
   </trkpt>
   <trkpt lat="52.05895" lon="4.34463">
    <ele>2.5</ele>
   </trkpt>
   <trkpt lat="52.059180000000005" lon="4.34421">
    <ele>3.25</ele>
   </trkpt>
   <trkpt lat="52.05928" lon="4.34396">
    <ele>3.45</ele>
   </trkpt>
   <trkpt lat="52.05933" lon="4.3437600000000005">
    <ele>3.4200000000000004</ele>
   </trkpt>
   <trkpt lat="52.05990500249492" lon="4.34299500982299">
    <ele>2.17</ele>
   </trkpt>
   <trkpt lat="52.060480000000005" lon="4.342230000000001">
    <ele>2.19</ele>
   </trkpt>
   <trkpt lat="52.060930000000006" lon="4.34159">
    <ele>2.14</ele>
   </trkpt>
   <trkpt lat="52.06136000000001" lon="4.34091">
    <ele>2.0900000000000003</ele>
   </trkpt>
   <trkpt lat="52.06175" lon="4.34023">
    <ele>2.15</ele>
   </trkpt>
   <trkpt lat="52.06192000000001" lon="4.3399600000000005">
    <ele>2.15</ele>
   </trkpt>
   <trkpt lat="52.06260601176116" lon="4.339126051252657">
    <ele>2.0100000000000002</ele>
   </trkpt>
   <trkpt lat="52.06329201763652" lon="4.338292076886933">
    <ele>2.0500000000000003</ele>
   </trkpt>
   <trkpt lat="52.063978017625736" lon="4.337458076901629">
    <ele>1.97</ele>
   </trkpt>
   <trkpt lat="52.064664011728524" lon="4.336624051295544">
    <ele>1.98</ele>
   </trkpt>
   <trkpt lat="52.06535" lon="4.33579">
    <ele>2.02</ele>
   </trkpt>
   <trkpt lat="52.066025002865985" lon="4.334955012724994">
    <ele>1.99</ele>
   </trkpt>
   <trkpt lat="52.066700000000004" lon="4.33412">
    <ele>2.02</ele>
   </trkpt>
   <trkpt lat="52.066590000000005" lon="4.333810000000001">
    <ele>1.7300000000000002</ele>
   </trkpt>
   <trkpt lat="52.06712" lon="4.33331">
    <ele>1.7000000000000002</ele>
   </trkpt>
   <trkpt lat="52.06716" lon="4.333430000000001">
    <ele>2.18</ele>
   </trkpt>
   <trkpt lat="52.067460000000004" lon="4.3331100000000005">
    <ele>2.5100000000000002</ele>
   </trkpt>
   <trkpt lat="52.06749000000001" lon="4.33303">
    <ele>2.5100000000000002</ele>
   </trkpt>
   <trkpt lat="52.06761" lon="4.33222">
    <ele>2.6400000000000006</ele>
   </trkpt>
   <trkpt lat="52.06785000000001" lon="4.3319600000000005">
    <ele>2.7</ele>
   </trkpt>
   <trkpt lat="52.06759" lon="4.33143">
    <ele>2.25</ele>
   </trkpt>
   <trkpt lat="52.06719500433102" lon="4.3304199911039305">
    <ele>2.47</ele>
   </trkpt>
   <trkpt lat="52.06680000000001" lon="4.32941">
    <ele>2.45</ele>
   </trkpt>
   <trkpt lat="52.06665" lon="4.329070000000001">
    <ele>2.74</ele>
   </trkpt>
   <trkpt lat="52.066970000000005" lon="4.32882">
    <ele>3.72</ele>
   </trkpt>
   <trkpt lat="52.067240000000005" lon="4.32856">
    <ele>4.5200000000000005</ele>
   </trkpt>
   <trkpt lat="52.06785000000001" lon="4.32795">
    <ele>3.8300000000000005</ele>
   </trkpt>
   <trkpt lat="52.06823000000001" lon="4.3275500000000005">
    <ele>3.1100000000000003</ele>
   </trkpt>
   <trkpt lat="52.068580000000004" lon="4.327260000000001">
    <ele>3.16</ele>
   </trkpt>
   <trkpt lat="52.06857" lon="4.327190000000001">
    <ele>3.16</ele>
   </trkpt>
   <trkpt lat="52.06899500051895" lon="4.326845003271171">
    <ele>3.08</ele>
   </trkpt>
   <trkpt lat="52.06942" lon="4.3265">
    <ele>3.16</ele>
   </trkpt>
   <trkpt lat="52.06967" lon="4.32627">
    <ele>3.0700000000000003</ele>
   </trkpt>
   <trkpt lat="52.06969" lon="4.32631">
    <ele>3.0700000000000003</ele>
   </trkpt>
   <trkpt lat="52.07011000000001" lon="4.32594">
    <ele>3.08</ele>
   </trkpt>
   <trkpt lat="52.07014" lon="4.3261400000000005">
    <ele>2.5900000000000003</ele>
   </trkpt>
   <trkpt lat="52.07020000000001" lon="4.32608">
    <ele>2.41</ele>
   </trkpt>
   <trkpt lat="52.07023" lon="4.32613">
    <ele>2.45</ele>
   </trkpt>
   <trkpt lat="52.07054" lon="4.32585">
    <ele>2.33</ele>
   </trkpt>
   <trkpt lat="52.070730000000005" lon="4.32565">
    <ele>2.0700000000000003</ele>
   </trkpt>
   <trkpt lat="52.070800000000006" lon="4.325550000000001">
    <ele>2.0100000000000002</ele>
   </trkpt>
   <trkpt lat="52.071250000000006" lon="4.32512">
    <ele>1.9600000000000004</ele>
   </trkpt>
   <trkpt lat="52.07151" lon="4.32497">
    <ele>2.4000000000000004</ele>
   </trkpt>
   <trkpt lat="52.07202" lon="4.3245000000000005">
    <ele>2.7700000000000005</ele>
   </trkpt>
   <trkpt lat="52.07213" lon="4.324450000000001">
    <ele>2.9400000000000004</ele>
   </trkpt>
   <trkpt lat="52.071830000000006" lon="4.32413">
    <ele>3.4000000000000004</ele>
   </trkpt>
   <trkpt lat="52.07182" lon="4.32383">
    <ele>3.2700000000000005</ele>
   </trkpt>
   <trkpt lat="52.07143000000001" lon="4.32373">
    <ele>3.12</ele>
   </trkpt>
   <trkpt lat="52.0713" lon="4.32366">
    <ele>2.97</ele>
   </trkpt>
   <trkpt lat="52.07115" lon="4.3235">
    <ele>3.0100000000000002</ele>
   </trkpt>
   <trkpt lat="52.071180000000005" lon="4.32343">
    <ele>3.0100000000000002</ele>
   </trkpt>
   <trkpt lat="52.071360000000006" lon="4.323580000000001">
    <ele>3.0500000000000003</ele>
   </trkpt>
   <trkpt lat="52.07144" lon="4.32362">
    <ele>3.0500000000000003</ele>
   </trkpt>
   <trkpt lat="52.07157" lon="4.32366">
    <ele>3.1100000000000003</ele>
   </trkpt>
   <trkpt lat="52.07184" lon="4.323670000000001">
    <ele>3.17</ele>
   </trkpt>
   <trkpt lat="52.07195" lon="4.3236300000000005">
    <ele>2.9200000000000004</ele>
   </trkpt>
   <trkpt lat="52.07211" lon="4.323530000000001">
    <ele>2.71</ele>
   </trkpt>
   <trkpt lat="52.07247" lon="4.3230900000000005">
    <ele>3.1100000000000003</ele>
   </trkpt>
   <trkpt lat="52.07267" lon="4.32366">
    <ele>3.8300000000000005</ele>
   </trkpt>
   <trkpt lat="52.0728" lon="4.32383">
    <ele>4.07</ele>
   </trkpt>
   <trkpt lat="52.073130000000006" lon="4.32416">
    <ele>4.38</ele>
   </trkpt>
   <trkpt lat="52.07318000000001" lon="4.3241000000000005">
    <ele>4.12</ele>
   </trkpt>
   <trkpt lat="52.073240000000006" lon="4.32394">
    <ele>3.69</ele>
   </trkpt>
   <trkpt lat="52.0735" lon="4.32348">
    <ele>3.2</ele>
   </trkpt>
   <trkpt lat="52.073820000000005" lon="4.32294">
    <ele>3.22</ele>
   </trkpt>
   <trkpt lat="52.07417000197939" lon="4.322260005286272">
    <ele>3.19</ele>
   </trkpt>
   <trkpt lat="52.07452000000001" lon="4.32158">
    <ele>3.33</ele>
   </trkpt>
   <trkpt lat="52.07475" lon="4.32117">
    <ele>3.9000000000000004</ele>
   </trkpt>
   <trkpt lat="52.07509" lon="4.32071">
    <ele>4.6000000000000005</ele>
   </trkpt>
   <trkpt lat="52.07513" lon="4.32063">
    <ele>4.6000000000000005</ele>
   </trkpt>
   <trkpt lat="52.075140000000005" lon="4.320530000000001">
    <ele>4.62</ele>
   </trkpt>
   <trkpt lat="52.07511" lon="4.32028">
    <ele>4.670000000000001</ele>
   </trkpt>
   <trkpt lat="52.075140000000005" lon="4.319990000000001">
    <ele>4.69</ele>
   </trkpt>
   <trkpt lat="52.075210000000006" lon="4.31974">
    <ele>4.38</ele>
   </trkpt>
   <trkpt lat="52.07509" lon="4.31956">
    <ele>4.3</ele>
   </trkpt>
   <trkpt lat="52.075475002203696" lon="4.3188500059923065">
    <ele>3.73</ele>
   </trkpt>
   <trkpt lat="52.075860000000006" lon="4.3181400000000005">
    <ele>3.89</ele>
   </trkpt>
   <trkpt lat="52.076100000000004" lon="4.31763">
    <ele>3.98</ele>
   </trkpt>
   <trkpt lat="52.07639500139588" lon="4.317065003646925">
    <ele>4.16</ele>
   </trkpt>
   <trkpt lat="52.076690000000006" lon="4.3165000000000004">
    <ele>4.410000000000001</ele>
   </trkpt>
   <trkpt lat="52.07709000243955" lon="4.315765006303112">
    <ele>4.3100000000000005</ele>
   </trkpt>
   <trkpt lat="52.077490000000004" lon="4.31503">
    <ele>4.710000000000001</ele>
   </trkpt>
   <trkpt lat="52.077560000000005" lon="4.31524">
    <ele>4.710000000000001</ele>
   </trkpt>
   <trkpt lat="52.077760000000005" lon="4.314920000000001">
    <ele>4.83</ele>
   </trkpt>
   <trkpt lat="52.078080001335216" lon="4.314360003999689">
    <ele>5.280000000000001</ele>
   </trkpt>
   <trkpt lat="52.0784" lon="4.3138000000000005">
    <ele>5.53</ele>
   </trkpt>
   <trkpt lat="52.07849" lon="4.31327">
    <ele>5.53</ele>
   </trkpt>
   <trkpt lat="52.078500000000005" lon="4.312600000000001">
    <ele>5.61</ele>
   </trkpt>
   <trkpt lat="52.07855000000001" lon="4.31233">
    <ele>5.72</ele>
   </trkpt>
   <trkpt lat="52.078660000000006" lon="4.31216">
    <ele>5.880000000000001</ele>
   </trkpt>
   <trkpt lat="52.07900000000001" lon="4.311710000000001">
    <ele>6.03</ele>
   </trkpt>
   <trkpt lat="52.079080000000005" lon="4.31154">
    <ele>6.03</ele>
   </trkpt>
  </trkseg>
 </trk>
</gpx>
