<?xml version="1.0" encoding="UTF-8"?>
<gpx creator="StravaGPX" version="1.1" xmlns="http://www.topografix.com/GPX/1/1" xmlns:xsi="http://www.w3.org/2001/XMLSchema-instance" xsi:schemaLocation="http://www.topografix.com/GPX/1/1 http://www.topografix.com/GPX/1/1/gpx.xsd">
 <metadata>
  <name>UK Home Longer Local Ride</name>
  <author>
   <name>Andrew Goudie</name>
  </author>
  <copyright author="OpenStreetMap contributors">
   <year>2020</year>
   <license>https://www.openstreetmap.org/copyright</license>
  </copyright>
 </metadata>
 <trk>
  <name>UK Home Longer Local Ride</name>
  <link href=""/>
  <type>cycling</type>
  <trkseg>
   <trkpt lat="51.118410000000004" lon="-0.5737500000000001">
    <ele>51.620000000000005</ele>
   </trkpt>
   <trkpt lat="51.118590000000005" lon="-0.5735">
    <ele>51.96000000000001</ele>
   </trkpt>
   <trkpt lat="51.118880000000004" lon="-0.57318">
    <ele>50.0</ele>
   </trkpt>
   <trkpt lat="51.119060000000005" lon="-0.57289">
    <ele>49.160000000000004</ele>
   </trkpt>
   <trkpt lat="51.11912" lon="-0.57272">
    <ele>49.260000000000005</ele>
   </trkpt>
   <trkpt lat="51.11919" lon="-0.57228">
    <ele>50.260000000000005</ele>
   </trkpt>
   <trkpt lat="51.119170000000004" lon="-0.57174">
    <ele>50.57</ele>
   </trkpt>
   <trkpt lat="51.119200000000006" lon="-0.5714">
    <ele>50.28</ele>
   </trkpt>
   <trkpt lat="51.11901" lon="-0.57133">
    <ele>48.88</ele>
   </trkpt>
   <trkpt lat="51.11892" lon="-0.57125">
    <ele>48.290000000000006</ele>
   </trkpt>
   <trkpt lat="51.11854" lon="-0.57072">
    <ele>41.370000000000005</ele>
   </trkpt>
   <trkpt lat="51.118140000000004" lon="-0.57004">
    <ele>35.26</ele>
   </trkpt>
   <trkpt lat="51.117990000000006" lon="-0.5696">
    <ele>35.29</ele>
   </trkpt>
   <trkpt lat="51.11795000000001" lon="-0.56943">
    <ele>35.51</ele>
   </trkpt>
   <trkpt lat="51.11795000000001" lon="-0.56928">
    <ele>35.93</ele>
   </trkpt>
   <trkpt lat="51.11802" lon="-0.56869">
    <ele>39.940000000000005</ele>
   </trkpt>
   <trkpt lat="51.11816" lon="-0.56808">
    <ele>44.02</ele>
   </trkpt>
   <trkpt lat="51.118460000000006" lon="-0.56711">
    <ele>51.39</ele>
   </trkpt>
   <trkpt lat="51.11881" lon="-0.5661900000000001">
    <ele>54.900000000000006</ele>
   </trkpt>
   <trkpt lat="51.118970000000004" lon="-0.5657300000000001">
    <ele>54.730000000000004</ele>
   </trkpt>
   <trkpt lat="51.11903" lon="-0.5654800000000001">
    <ele>54.730000000000004</ele>
   </trkpt>
   <trkpt lat="51.119110000000006" lon="-0.56508">
    <ele>54.42</ele>
   </trkpt>
   <trkpt lat="51.11921000242983" lon="-0.5643200018970416">
    <ele>54.14000000000001</ele>
   </trkpt>
   <trkpt lat="51.119310000000006" lon="-0.5635600000000001">
    <ele>54.2</ele>
   </trkpt>
   <trkpt lat="51.12006" lon="-0.56362">
    <ele>54.44</ele>
   </trkpt>
   <trkpt lat="51.120490000000004" lon="-0.56362">
    <ele>54.86000000000001</ele>
   </trkpt>
   <trkpt lat="51.12122" lon="-0.5635100000000001">
    <ele>56.07</ele>
   </trkpt>
   <trkpt lat="51.12190500011157" lon="-0.5633700020702315">
    <ele>56.53</ele>
   </trkpt>
   <trkpt lat="51.12259" lon="-0.56323">
    <ele>56.85</ele>
   </trkpt>
   <trkpt lat="51.12283000000001" lon="-0.5632">
    <ele>56.85</ele>
   </trkpt>
   <trkpt lat="51.123050000000006" lon="-0.56303">
    <ele>56.82</ele>
   </trkpt>
   <trkpt lat="51.12314000000001" lon="-0.56291">
    <ele>56.92</ele>
   </trkpt>
   <trkpt lat="51.12335" lon="-0.5625300000000001">
    <ele>57.25</ele>
   </trkpt>
   <trkpt lat="51.12397000000001" lon="-0.56152">
    <ele>58.52</ele>
   </trkpt>
   <trkpt lat="51.124623340683684" lon="-0.5605900263443465">
    <ele>60.61</ele>
   </trkpt>
   <trkpt lat="51.12527667399173" lon="-0.5596600263808915">
    <ele>61.93000000000001</ele>
   </trkpt>
   <trkpt lat="51.125930000000004" lon="-0.5587300000000001">
    <ele>62.83000000000001</ele>
   </trkpt>
   <trkpt lat="51.12633" lon="-0.55822">
    <ele>63.230000000000004</ele>
   </trkpt>
   <trkpt lat="51.126786669937786" lon="-0.557596679050497">
    <ele>63.54</ele>
   </trkpt>
   <trkpt lat="51.12724333656219" lon="-0.5569733457750287">
    <ele>63.54</ele>
   </trkpt>
   <trkpt lat="51.127700000000004" lon="-0.55635">
    <ele>64.59</ele>
   </trkpt>
   <trkpt lat="51.128170000000004" lon="-0.55562">
    <ele>65.42</ele>
   </trkpt>
   <trkpt lat="51.12847000000001" lon="-0.55501">
    <ele>66.10000000000001</ele>
   </trkpt>
   <trkpt lat="51.12865000000001" lon="-0.55469">
    <ele>66.27000000000001</ele>
   </trkpt>
   <trkpt lat="51.12876000000001" lon="-0.55454">
    <ele>66.39</ele>
   </trkpt>
   <trkpt lat="51.128890000000006" lon="-0.55442">
    <ele>66.87</ele>
   </trkpt>
   <trkpt lat="51.12895" lon="-0.55439">
    <ele>66.87</ele>
   </trkpt>
   <trkpt lat="51.128930000000004" lon="-0.5542">
    <ele>66.77000000000001</ele>
   </trkpt>
   <trkpt lat="51.12895" lon="-0.55393">
    <ele>66.77000000000001</ele>
   </trkpt>
   <trkpt lat="51.12901" lon="-0.5536000000000001">
    <ele>66.74000000000001</ele>
   </trkpt>
   <trkpt lat="51.129220000000004" lon="-0.55279">
    <ele>67.09</ele>
   </trkpt>
   <trkpt lat="51.129440002060456" lon="-0.552095003307806">
    <ele>66.51</ele>
   </trkpt>
   <trkpt lat="51.12966" lon="-0.5514">
    <ele>65.75</ele>
   </trkpt>
   <trkpt lat="51.12982000274755" lon="-0.5505950028669161">
    <ele>65.79</ele>
   </trkpt>
   <trkpt lat="51.12998" lon="-0.54979">
    <ele>65.42</ele>
   </trkpt>
   <trkpt lat="51.13024000000001" lon="-0.54884">
    <ele>65.68</ele>
   </trkpt>
   <trkpt lat="51.130430000000004" lon="-0.54823">
    <ele>66.0</ele>
   </trkpt>
   <trkpt lat="51.13078500411815" lon="-0.5472500074693141">
    <ele>66.86</ele>
   </trkpt>
   <trkpt lat="51.13114" lon="-0.54627">
    <ele>67.23</ele>
   </trkpt>
   <trkpt lat="51.13154" lon="-0.54539">
    <ele>65.55000000000001</ele>
   </trkpt>
   <trkpt lat="51.13183500137364" lon="-0.5447950040749229">
    <ele>64.52000000000001</ele>
   </trkpt>
   <trkpt lat="51.132130000000004" lon="-0.5442">
    <ele>63.1</ele>
   </trkpt>
   <trkpt lat="51.13261000677595" lon="-0.5433066852928522">
    <ele>59.870000000000005</ele>
   </trkpt>
   <trkpt lat="51.133090006746755" lon="-0.5424133520141734">
    <ele>59.160000000000004</ele>
   </trkpt>
   <trkpt lat="51.133570000000006" lon="-0.54152">
    <ele>59.65</ele>
   </trkpt>
   <trkpt lat="51.13396000244581" lon="-0.5407600064519178">
    <ele>60.36</ele>
   </trkpt>
   <trkpt lat="51.134350000000005" lon="-0.54">
    <ele>63.77</ele>
   </trkpt>
   <trkpt lat="51.13445" lon="-0.53974">
    <ele>64.41000000000001</ele>
   </trkpt>
   <trkpt lat="51.13449000000001" lon="-0.53957">
    <ele>64.66000000000001</ele>
   </trkpt>
   <trkpt lat="51.13447000000001" lon="-0.5393600000000001">
    <ele>64.39999999999999</ele>
   </trkpt>
   <trkpt lat="51.13438000000001" lon="-0.53918">
    <ele>63.92</ele>
   </trkpt>
   <trkpt lat="51.13425" lon="-0.53903">
    <ele>63.35</ele>
   </trkpt>
   <trkpt lat="51.1336600012079" lon="-0.5385149934870468">
    <ele>58.940000000000005</ele>
   </trkpt>
   <trkpt lat="51.133070000000004" lon="-0.538">
    <ele>57.730000000000004</ele>
   </trkpt>
   <trkpt lat="51.13298" lon="-0.53788">
    <ele>57.730000000000004</ele>
   </trkpt>
   <trkpt lat="51.132940000000005" lon="-0.5376700000000001">
    <ele>57.89</ele>
   </trkpt>
   <trkpt lat="51.13304" lon="-0.53747">
    <ele>57.88000000000001</ele>
   </trkpt>
   <trkpt lat="51.133370000000006" lon="-0.53717">
    <ele>58.81000000000001</ele>
   </trkpt>
   <trkpt lat="51.13376" lon="-0.53674">
    <ele>59.21000000000001</ele>
   </trkpt>
   <trkpt lat="51.134190000000004" lon="-0.53613">
    <ele>58.03</ele>
   </trkpt>
   <trkpt lat="51.13457000283476" lon="-0.5353250064727513">
    <ele>57.290000000000006</ele>
   </trkpt>
   <trkpt lat="51.13495" lon="-0.53452">
    <ele>58.010000000000005</ele>
   </trkpt>
   <trkpt lat="51.135290000000005" lon="-0.53391">
    <ele>58.45</ele>
   </trkpt>
   <trkpt lat="51.13591" lon="-0.5332800000000001">
    <ele>59.22</ele>
   </trkpt>
   <trkpt lat="51.136230000000005" lon="-0.53298">
    <ele>59.050000000000004</ele>
   </trkpt>
   <trkpt lat="51.136480000000006" lon="-0.53286">
    <ele>58.38</ele>
   </trkpt>
   <trkpt lat="51.13662000000001" lon="-0.53286">
    <ele>58.38</ele>
   </trkpt>
   <trkpt lat="51.13703" lon="-0.5329">
    <ele>58.010000000000005</ele>
   </trkpt>
   <trkpt lat="51.13716" lon="-0.53288">
    <ele>57.85</ele>
   </trkpt>
   <trkpt lat="51.13723" lon="-0.53283">
    <ele>57.85</ele>
   </trkpt>
   <trkpt lat="51.137640000000005" lon="-0.53208">
    <ele>56.290000000000006</ele>
   </trkpt>
   <trkpt lat="51.13774" lon="-0.53186">
    <ele>56.190000000000005</ele>
   </trkpt>
   <trkpt lat="51.137890000000006" lon="-0.53132">
    <ele>56.18000000000001</ele>
   </trkpt>
   <trkpt lat="51.138000000000005" lon="-0.53042">
    <ele>56.86000000000001</ele>
   </trkpt>
   <trkpt lat="51.1381" lon="-0.5301">
    <ele>57.32</ele>
   </trkpt>
   <trkpt lat="51.138180000000006" lon="-0.52991">
    <ele>58.34</ele>
   </trkpt>
   <trkpt lat="51.138560000000005" lon="-0.52917">
    <ele>61.95</ele>
   </trkpt>
   <trkpt lat="51.13897000000001" lon="-0.52832">
    <ele>65.05000000000001</ele>
   </trkpt>
   <trkpt lat="51.13871" lon="-0.52791">
    <ele>65.27000000000001</ele>
   </trkpt>
   <trkpt lat="51.13852000000001" lon="-0.52771">
    <ele>64.71000000000001</ele>
   </trkpt>
   <trkpt lat="51.137825001080834" lon="-0.5272149925743959">
    <ele>61.33</ele>
   </trkpt>
   <trkpt lat="51.137130000000006" lon="-0.5267200000000001">
    <ele>56.75</ele>
   </trkpt>
   <trkpt lat="51.13643666900849" lon="-0.5261966509543691">
    <ele>54.37</ele>
   </trkpt>
   <trkpt lat="51.13574333568147" lon="-0.5256733176261141">
    <ele>52.65</ele>
   </trkpt>
   <trkpt lat="51.13505000000001" lon="-0.52515">
    <ele>51.370000000000005</ele>
   </trkpt>
   <trkpt lat="51.1349" lon="-0.52508">
    <ele>51.370000000000005</ele>
   </trkpt>
   <trkpt lat="51.13440000000001" lon="-0.52483">
    <ele>50.63</ele>
   </trkpt>
   <trkpt lat="51.134280000000004" lon="-0.52481">
    <ele>50.59</ele>
   </trkpt>
   <trkpt lat="51.133840000000006" lon="-0.52476">
    <ele>50.53</ele>
   </trkpt>
   <trkpt lat="51.133300000000006" lon="-0.52473">
    <ele>50.580000000000005</ele>
   </trkpt>
   <trkpt lat="51.132674999945955" lon="-0.5246949995229703">
    <ele>50.95</ele>
   </trkpt>
   <trkpt lat="51.13205000000001" lon="-0.52466">
    <ele>51.620000000000005</ele>
   </trkpt>
   <trkpt lat="51.131460000000004" lon="-0.52449">
    <ele>52.31</ele>
   </trkpt>
   <trkpt lat="51.13067" lon="-0.52398">
    <ele>53.78</ele>
   </trkpt>
   <trkpt lat="51.12990000178271" lon="-0.5233349892533551">
    <ele>54.8</ele>
   </trkpt>
   <trkpt lat="51.12913" lon="-0.52269">
    <ele>54.59</ele>
   </trkpt>
   <trkpt lat="51.128780000000006" lon="-0.52234">
    <ele>53.88</ele>
   </trkpt>
   <trkpt lat="51.1283" lon="-0.5216900000000001">
    <ele>52.010000000000005</ele>
   </trkpt>
   <trkpt lat="51.127853337569135" lon="-0.5209899865501534">
    <ele>50.67000000000001</ele>
   </trkpt>
   <trkpt lat="51.12740667095959" lon="-0.5202899866398578">
    <ele>49.52</ele>
   </trkpt>
   <trkpt lat="51.126960000000004" lon="-0.51959">
    <ele>48.800000000000004</ele>
   </trkpt>
   <trkpt lat="51.126630000000006" lon="-0.51919">
    <ele>48.59</ele>
   </trkpt>
   <trkpt lat="51.12635" lon="-0.51888">
    <ele>48.650000000000006</ele>
   </trkpt>
   <trkpt lat="51.12606" lon="-0.51861">
    <ele>49.06</ele>
   </trkpt>
   <trkpt lat="51.12534333527489" lon="-0.5181233181783763">
    <ele>49.580000000000005</ele>
   </trkpt>
   <trkpt lat="51.1246266685299" lon="-0.5176366514588309">
    <ele>50.34</ele>
   </trkpt>
   <trkpt lat="51.12391" lon="-0.51715">
    <ele>50.27</ele>
   </trkpt>
   <trkpt lat="51.12357" lon="-0.5170100000000001">
    <ele>50.410000000000004</ele>
   </trkpt>
   <trkpt lat="51.12350000000001" lon="-0.51683">
    <ele>50.260000000000005</ele>
   </trkpt>
   <trkpt lat="51.123450000000005" lon="-0.51678">
    <ele>49.92</ele>
   </trkpt>
   <trkpt lat="51.122930000658684" lon="-0.5164199960209517">
    <ele>49.81000000000001</ele>
   </trkpt>
   <trkpt lat="51.12241" lon="-0.5160600000000001">
    <ele>50.31000000000001</ele>
   </trkpt>
   <trkpt lat="51.12167" lon="-0.51559">
    <ele>50.410000000000004</ele>
   </trkpt>
   <trkpt lat="51.121140000000004" lon="-0.5153300000000001">
    <ele>50.31000000000001</ele>
   </trkpt>
   <trkpt lat="51.120990000000006" lon="-0.51522">
    <ele>50.25</ele>
   </trkpt>
   <trkpt lat="51.12055" lon="-0.51503">
    <ele>49.760000000000005</ele>
   </trkpt>
   <trkpt lat="51.12053" lon="-0.5150800000000001">
    <ele>49.760000000000005</ele>
   </trkpt>
   <trkpt lat="51.12022" lon="-0.51495">
    <ele>49.290000000000006</ele>
   </trkpt>
   <trkpt lat="51.120020000000004" lon="-0.5148400000000001">
    <ele>49.1</ele>
   </trkpt>
   <trkpt lat="51.119510000000005" lon="-0.51448">
    <ele>48.67</ele>
   </trkpt>
   <trkpt lat="51.11903" lon="-0.5141">
    <ele>47.59</ele>
   </trkpt>
   <trkpt lat="51.11835500179602" lon="-0.5134399902973684">
    <ele>47.580000000000005</ele>
   </trkpt>
   <trkpt lat="51.11768000000001" lon="-0.51278">
    <ele>48.220000000000006</ele>
   </trkpt>
   <trkpt lat="51.11713000067677" lon="-0.5124399960663208">
    <ele>48.63</ele>
   </trkpt>
   <trkpt lat="51.116580000000006" lon="-0.5121">
    <ele>49.1</ele>
   </trkpt>
   <trkpt lat="51.11597000016998" lon="-0.5118899972213795">
    <ele>49.59</ele>
   </trkpt>
   <trkpt lat="51.11536" lon="-0.51168">
    <ele>50.120000000000005</ele>
   </trkpt>
   <trkpt lat="51.114630000000005" lon="-0.5115000000000001">
    <ele>50.22</ele>
   </trkpt>
   <trkpt lat="51.114160000000005" lon="-0.51146">
    <ele>49.42</ele>
   </trkpt>
   <trkpt lat="51.11338000000001" lon="-0.51158">
    <ele>49.03</ele>
   </trkpt>
   <trkpt lat="51.11303" lon="-0.51171">
    <ele>49.400000000000006</ele>
   </trkpt>
   <trkpt lat="51.11234000079259" lon="-0.5121550066778936">
    <ele>49.79</ele>
   </trkpt>
   <trkpt lat="51.111650000000004" lon="-0.5126000000000001">
    <ele>50.980000000000004</ele>
   </trkpt>
   <trkpt lat="51.11119000000001" lon="-0.5129400000000001">
    <ele>51.980000000000004</ele>
   </trkpt>
   <trkpt lat="51.11076000025355" lon="-0.5132900034754174">
    <ele>54.2</ele>
   </trkpt>
   <trkpt lat="51.110330000000005" lon="-0.5136400000000001">
    <ele>55.03</ele>
   </trkpt>
   <trkpt lat="51.1099" lon="-0.51402">
    <ele>55.440000000000005</ele>
   </trkpt>
   <trkpt lat="51.10974" lon="-0.51415">
    <ele>55.510000000000005</ele>
   </trkpt>
   <trkpt lat="51.10930500038024" lon="-0.5144600029388673">
    <ele>55.510000000000005</ele>
   </trkpt>
   <trkpt lat="51.10887" lon="-0.5147700000000001">
    <ele>55.440000000000005</ele>
   </trkpt>
   <trkpt lat="51.10855" lon="-0.51498">
    <ele>55.290000000000006</ele>
   </trkpt>
   <trkpt lat="51.10835" lon="-0.51503">
    <ele>55.190000000000005</ele>
   </trkpt>
   <trkpt lat="51.10810000000001" lon="-0.515">
    <ele>54.410000000000004</ele>
   </trkpt>
   <trkpt lat="51.10797" lon="-0.51493">
    <ele>54.24</ele>
   </trkpt>
   <trkpt lat="51.10786" lon="-0.51478">
    <ele>54.09</ele>
   </trkpt>
   <trkpt lat="51.107760000000006" lon="-0.5146200000000001">
    <ele>54.050000000000004</ele>
   </trkpt>
   <trkpt lat="51.107730000000004" lon="-0.51468">
    <ele>54.050000000000004</ele>
   </trkpt>
   <trkpt lat="51.10764" lon="-0.5149600000000001">
    <ele>53.82000000000001</ele>
   </trkpt>
   <trkpt lat="51.10755" lon="-0.51493">
    <ele>53.82000000000001</ele>
   </trkpt>
   <trkpt lat="51.107420000000005" lon="-0.51493">
    <ele>53.71000000000001</ele>
   </trkpt>
   <trkpt lat="51.10708" lon="-0.51498">
    <ele>53.28</ele>
   </trkpt>
   <trkpt lat="51.10667" lon="-0.51515">
    <ele>53.21000000000001</ele>
   </trkpt>
   <trkpt lat="51.10636" lon="-0.51532">
    <ele>53.17</ele>
   </trkpt>
   <trkpt lat="51.106170000000006" lon="-0.5154500000000001">
    <ele>53.22</ele>
   </trkpt>
   <trkpt lat="51.10576000055623" lon="-0.5157900029634225">
    <ele>53.160000000000004</ele>
   </trkpt>
   <trkpt lat="51.10535" lon="-0.5161300000000001">
    <ele>53.01</ele>
   </trkpt>
   <trkpt lat="51.105160000000005" lon="-0.51627">
    <ele>53.01</ele>
   </trkpt>
   <trkpt lat="51.10430500077208" lon="-0.5166850076578359">
    <ele>53.11000000000001</ele>
   </trkpt>
   <trkpt lat="51.10345" lon="-0.5171">
    <ele>53.74</ele>
   </trkpt>
   <trkpt lat="51.10290500025402" lon="-0.5173450028893445">
    <ele>54.040000000000006</ele>
   </trkpt>
   <trkpt lat="51.102360000000004" lon="-0.51759">
    <ele>54.13</ele>
   </trkpt>
   <trkpt lat="51.10217" lon="-0.5177400000000001">
    <ele>54.32000000000001</ele>
   </trkpt>
   <trkpt lat="51.10181000000001" lon="-0.51807">
    <ele>54.44</ele>
   </trkpt>
   <trkpt lat="51.10161" lon="-0.51822">
    <ele>54.540000000000006</ele>
   </trkpt>
   <trkpt lat="51.10137" lon="-0.51834">
    <ele>54.690000000000005</ele>
   </trkpt>
   <trkpt lat="51.101290000000006" lon="-0.51834">
    <ele>55.09</ele>
   </trkpt>
   <trkpt lat="51.10065" lon="-0.5181100000000001">
    <ele>55.71</ele>
   </trkpt>
   <trkpt lat="51.100190000000005" lon="-0.51795">
    <ele>56.2</ele>
   </trkpt>
   <trkpt lat="51.0996" lon="-0.5177700000000001">
    <ele>55.650000000000006</ele>
   </trkpt>
   <trkpt lat="51.09882" lon="-0.5175500000000001">
    <ele>55.38</ele>
   </trkpt>
   <trkpt lat="51.09854000000001" lon="-0.51746">
    <ele>55.580000000000005</ele>
   </trkpt>
   <trkpt lat="51.09826" lon="-0.51729">
    <ele>55.67</ele>
   </trkpt>
   <trkpt lat="51.09789000000001" lon="-0.51703">
    <ele>55.940000000000005</ele>
   </trkpt>
   <trkpt lat="51.09741" lon="-0.51676">
    <ele>56.27</ele>
   </trkpt>
   <trkpt lat="51.097240000000006" lon="-0.51671">
    <ele>56.410000000000004</ele>
   </trkpt>
   <trkpt lat="51.097030000000004" lon="-0.5166900000000001">
    <ele>56.5</ele>
   </trkpt>
   <trkpt lat="51.096830000000004" lon="-0.51673">
    <ele>56.59</ele>
   </trkpt>
   <trkpt lat="51.096540000000005" lon="-0.51683">
    <ele>56.510000000000005</ele>
   </trkpt>
   <trkpt lat="51.09642" lon="-0.5168900000000001">
    <ele>56.400000000000006</ele>
   </trkpt>
   <trkpt lat="51.09624" lon="-0.5170600000000001">
    <ele>56.080000000000005</ele>
   </trkpt>
   <trkpt lat="51.096120000000006" lon="-0.51732">
    <ele>55.00000000000001</ele>
   </trkpt>
   <trkpt lat="51.09581000000001" lon="-0.51861">
    <ele>51.300000000000004</ele>
   </trkpt>
   <trkpt lat="51.095740000000006" lon="-0.51875">
    <ele>50.39</ele>
   </trkpt>
   <trkpt lat="51.09568" lon="-0.51886">
    <ele>48.77</ele>
   </trkpt>
   <trkpt lat="51.09548" lon="-0.51912">
    <ele>47.21</ele>
   </trkpt>
   <trkpt lat="51.095090000000006" lon="-0.5194300000000001">
    <ele>44.38</ele>
   </trkpt>
   <trkpt lat="51.09476" lon="-0.51964">
    <ele>40.49</ele>
   </trkpt>
   <trkpt lat="51.09456" lon="-0.5197400000000001">
    <ele>39.400000000000006</ele>
   </trkpt>
   <trkpt lat="51.09378000086987" lon="-0.5200000131550986">
    <ele>36.61</ele>
   </trkpt>
   <trkpt lat="51.093000001163055" lon="-0.5202600175386866">
    <ele>36.04</ele>
   </trkpt>
   <trkpt lat="51.092220000879635" lon="-0.5205200131512981">
    <ele>35.56</ele>
   </trkpt>
   <trkpt lat="51.091440000000006" lon="-0.52078">
    <ele>35.13</ele>
   </trkpt>
   <trkpt lat="51.09111000000001" lon="-0.52085">
    <ele>35.160000000000004</ele>
   </trkpt>
   <trkpt lat="51.09046500016094" lon="-0.5208550000684865">
    <ele>35.75</ele>
   </trkpt>
   <trkpt lat="51.08982" lon="-0.52086">
    <ele>36.93000000000001</ele>
   </trkpt>
   <trkpt lat="51.08966" lon="-0.5208900000000001">
    <ele>37.040000000000006</ele>
   </trkpt>
   <trkpt lat="51.08916999977247" lon="-0.520895000055296">
    <ele>36.67</ele>
   </trkpt>
   <trkpt lat="51.088680000000004" lon="-0.5209">
    <ele>35.99</ele>
   </trkpt>
   <trkpt lat="51.087920000000004" lon="-0.52088">
    <ele>34.27</ele>
   </trkpt>
   <trkpt lat="51.087374999962556" lon="-0.5209050002964172">
    <ele>32.77</ele>
   </trkpt>
   <trkpt lat="51.086830000000006" lon="-0.52093">
    <ele>31.27</ele>
   </trkpt>
   <trkpt lat="51.08662" lon="-0.5209">
    <ele>30.680000000000003</ele>
   </trkpt>
   <trkpt lat="51.08643000000001" lon="-0.52085">
    <ele>29.380000000000003</ele>
   </trkpt>
   <trkpt lat="51.086220000000004" lon="-0.52076">
    <ele>29.030000000000005</ele>
   </trkpt>
   <trkpt lat="51.08603" lon="-0.52064">
    <ele>29.17</ele>
   </trkpt>
   <trkpt lat="51.08532750538005" lon="-0.5199924705131727">
    <ele>30.8</ele>
   </trkpt>
   <trkpt lat="51.08462500718343" lon="-0.5193449606942494">
    <ele>29.490000000000002</ele>
   </trkpt>
   <trkpt lat="51.08392250541033" lon="-0.5186974705422394">
    <ele>27.73</ele>
   </trkpt>
   <trkpt lat="51.083220000000004" lon="-0.51805">
    <ele>27.87</ele>
   </trkpt>
   <trkpt lat="51.082600000678944" lon="-0.5176949953231358">
    <ele>27.650000000000002</ele>
   </trkpt>
   <trkpt lat="51.08198" lon="-0.51734">
    <ele>28.25</ele>
   </trkpt>
   <trkpt lat="51.08138000030964" lon="-0.5170749965675617">
    <ele>29.7</ele>
   </trkpt>
   <trkpt lat="51.080780000000004" lon="-0.51681">
    <ele>29.35</ele>
   </trkpt>
   <trkpt lat="51.080580000000005" lon="-0.51676">
    <ele>28.91</ele>
   </trkpt>
   <trkpt lat="51.080330000000004" lon="-0.51671">
    <ele>27.96</ele>
   </trkpt>
   <trkpt lat="51.0801" lon="-0.51678">
    <ele>27.270000000000003</ele>
   </trkpt>
   <trkpt lat="51.07987000000001" lon="-0.5169">
    <ele>26.67</ele>
   </trkpt>
   <trkpt lat="51.07967000000001" lon="-0.51707">
    <ele>26.04</ele>
   </trkpt>
   <trkpt lat="51.079390000000004" lon="-0.5173500000000001">
    <ele>25.27</ele>
   </trkpt>
   <trkpt lat="51.07867" lon="-0.5181800000000001">
    <ele>23.900000000000002</ele>
   </trkpt>
   <trkpt lat="51.07844000000001" lon="-0.51839">
    <ele>23.680000000000003</ele>
   </trkpt>
   <trkpt lat="51.07827" lon="-0.51851">
    <ele>23.64</ele>
   </trkpt>
   <trkpt lat="51.07808000000001" lon="-0.51859">
    <ele>23.75</ele>
   </trkpt>
   <trkpt lat="51.077400000000004" lon="-0.51876">
    <ele>24.380000000000003</ele>
   </trkpt>
   <trkpt lat="51.07708" lon="-0.51887">
    <ele>24.580000000000002</ele>
   </trkpt>
   <trkpt lat="51.07637000058155" lon="-0.5192300055094242">
    <ele>26.930000000000003</ele>
   </trkpt>
   <trkpt lat="51.075660000000006" lon="-0.51959">
    <ele>31.160000000000004</ele>
   </trkpt>
   <trkpt lat="51.07531" lon="-0.5196500000000001">
    <ele>33.050000000000004</ele>
   </trkpt>
   <trkpt lat="51.07479000000001" lon="-0.51963">
    <ele>32.940000000000005</ele>
   </trkpt>
   <trkpt lat="51.07437" lon="-0.51954">
    <ele>32.449999999999996</ele>
   </trkpt>
   <trkpt lat="51.07388" lon="-0.51939">
    <ele>31.96</ele>
   </trkpt>
   <trkpt lat="51.07338000000001" lon="-0.51932">
    <ele>32.11</ele>
   </trkpt>
   <trkpt lat="51.07300000000001" lon="-0.5192">
    <ele>32.31</ele>
   </trkpt>
   <trkpt lat="51.07251000035062" lon="-0.5189649975669088">
    <ele>32.13</ele>
   </trkpt>
   <trkpt lat="51.07202" lon="-0.51873">
    <ele>30.7</ele>
   </trkpt>
   <trkpt lat="51.07179000000001" lon="-0.51856">
    <ele>29.05</ele>
   </trkpt>
   <trkpt lat="51.07155" lon="-0.51824">
    <ele>27.19</ele>
   </trkpt>
   <trkpt lat="51.07129500220736" lon="-0.5175149959062973">
    <ele>24.290000000000003</ele>
   </trkpt>
   <trkpt lat="51.07104" lon="-0.5167900000000001">
    <ele>22.73</ele>
   </trkpt>
   <trkpt lat="51.070820000000005" lon="-0.5162100000000001">
    <ele>21.76</ele>
   </trkpt>
   <trkpt lat="51.07059" lon="-0.5158200000000001">
    <ele>20.790000000000003</ele>
   </trkpt>
   <trkpt lat="51.070420000000006" lon="-0.51561">
    <ele>20.41</ele>
   </trkpt>
   <trkpt lat="51.07012" lon="-0.51537">
    <ele>20.009999999999998</ele>
   </trkpt>
   <trkpt lat="51.06994" lon="-0.51529">
    <ele>20.14</ele>
   </trkpt>
   <trkpt lat="51.069700000000005" lon="-0.51522">
    <ele>20.400000000000002</ele>
   </trkpt>
   <trkpt lat="51.06926000000001" lon="-0.5152">
    <ele>21.290000000000003</ele>
   </trkpt>
   <trkpt lat="51.068623333767746" lon="-0.5154100057582113">
    <ele>24.330000000000002</ele>
   </trkpt>
   <trkpt lat="51.067986667159246" lon="-0.5156200057389333">
    <ele>24.77</ele>
   </trkpt>
   <trkpt lat="51.067350000000005" lon="-0.51583">
    <ele>25.52</ele>
   </trkpt>
   <trkpt lat="51.06721" lon="-0.5159">
    <ele>25.52</ele>
   </trkpt>
   <trkpt lat="51.06651" lon="-0.51612">
    <ele>28.8</ele>
   </trkpt>
   <trkpt lat="51.066" lon="-0.51624">
    <ele>31.990000000000006</ele>
   </trkpt>
   <trkpt lat="51.06577000000001" lon="-0.51627">
    <ele>33.690000000000005</ele>
   </trkpt>
   <trkpt lat="51.06553" lon="-0.51627">
    <ele>34.49</ele>
   </trkpt>
   <trkpt lat="51.065310000000004" lon="-0.5162300000000001">
    <ele>35.65</ele>
   </trkpt>
   <trkpt lat="51.06443500030534" lon="-0.5159849953827311">
    <ele>37.480000000000004</ele>
   </trkpt>
   <trkpt lat="51.06356" lon="-0.5157400000000001">
    <ele>38.32</ele>
   </trkpt>
   <trkpt lat="51.063590000000005" lon="-0.51575">
    <ele>38.290000000000006</ele>
   </trkpt>
   <trkpt lat="51.063570000000006" lon="-0.5159">
    <ele>37.74</ele>
   </trkpt>
   <trkpt lat="51.06362000000001" lon="-0.51688">
    <ele>36.25000000000001</ele>
   </trkpt>
   <trkpt lat="51.06363" lon="-0.5178200000000001">
    <ele>34.83</ele>
   </trkpt>
   <trkpt lat="51.06362000000001" lon="-0.51892">
    <ele>33.82</ele>
   </trkpt>
   <trkpt lat="51.063680000000005" lon="-0.52025">
    <ele>32.230000000000004</ele>
   </trkpt>
   <trkpt lat="51.06377334562679" lon="-0.521449995258026">
    <ele>31.580000000000002</ele>
   </trkpt>
   <trkpt lat="51.06386667896769" lon="-0.5226499953552411">
    <ele>30.67</ele>
   </trkpt>
   <trkpt lat="51.06396" lon="-0.52385">
    <ele>29.53</ele>
   </trkpt>
   <trkpt lat="51.06401" lon="-0.5246700000000001">
    <ele>28.540000000000003</ele>
   </trkpt>
   <trkpt lat="51.064020000000006" lon="-0.525">
    <ele>28.130000000000003</ele>
   </trkpt>
   <trkpt lat="51.06425500379558" lon="-0.5259399953328281">
    <ele>24.35</ele>
   </trkpt>
   <trkpt lat="51.064490000000006" lon="-0.52688">
    <ele>23.080000000000002</ele>
   </trkpt>
   <trkpt lat="51.064510000000006" lon="-0.52732">
    <ele>24.07</ele>
   </trkpt>
   <trkpt lat="51.0645" lon="-0.5277400000000001">
    <ele>25.490000000000002</ele>
   </trkpt>
   <trkpt lat="51.06441" lon="-0.5284500000000001">
    <ele>27.240000000000002</ele>
   </trkpt>
   <trkpt lat="51.06429000000001" lon="-0.52937">
    <ele>28.040000000000003</ele>
   </trkpt>
   <trkpt lat="51.064140003540516" lon="-0.5302750026513676">
    <ele>28.76</ele>
   </trkpt>
   <trkpt lat="51.063990000000004" lon="-0.5311800000000001">
    <ele>29.330000000000002</ele>
   </trkpt>
   <trkpt lat="51.06387" lon="-0.53225">
    <ele>30.44</ele>
   </trkpt>
   <trkpt lat="51.06385" lon="-0.53325">
    <ele>30.71</ele>
   </trkpt>
   <trkpt lat="51.06394" lon="-0.53369">
    <ele>30.300000000000004</ele>
   </trkpt>
   <trkpt lat="51.06428500370708" lon="-0.5346249929711326">
    <ele>30.04</ele>
   </trkpt>
   <trkpt lat="51.06463" lon="-0.53556">
    <ele>31.03</ele>
   </trkpt>
   <trkpt lat="51.06479" lon="-0.53595">
    <ele>31.69</ele>
   </trkpt>
   <trkpt lat="51.064890000000005" lon="-0.5363100000000001">
    <ele>31.830000000000002</ele>
   </trkpt>
   <trkpt lat="51.065020000000004" lon="-0.53693">
    <ele>32.36</ele>
   </trkpt>
   <trkpt lat="51.06505000000001" lon="-0.53822">
    <ele>32.81</ele>
   </trkpt>
   <trkpt lat="51.065090000000005" lon="-0.53844">
    <ele>32.980000000000004</ele>
   </trkpt>
   <trkpt lat="51.065160000000006" lon="-0.53861">
    <ele>33.260000000000005</ele>
   </trkpt>
   <trkpt lat="51.0656" lon="-0.5394100000000001">
    <ele>34.35</ele>
   </trkpt>
   <trkpt lat="51.06595333925834" lon="-0.5402433206115204">
    <ele>34.160000000000004</ele>
   </trkpt>
   <trkpt lat="51.066306672591935" lon="-0.5410766539453006">
    <ele>33.32</ele>
   </trkpt>
   <trkpt lat="51.066660000000006" lon="-0.54191">
    <ele>32.49</ele>
   </trkpt>
   <trkpt lat="51.06702000000001" lon="-0.54235">
    <ele>32.31</ele>
   </trkpt>
   <trkpt lat="51.06716" lon="-0.54257">
    <ele>32.39</ele>
   </trkpt>
   <trkpt lat="51.067690000000006" lon="-0.54354">
    <ele>33.620000000000005</ele>
   </trkpt>
   <trkpt lat="51.067930000000004" lon="-0.54383">
    <ele>33.440000000000005</ele>
   </trkpt>
   <trkpt lat="51.06814000000001" lon="-0.5439900000000001">
    <ele>32.67</ele>
   </trkpt>
   <trkpt lat="51.068400000000004" lon="-0.54439">
    <ele>32.449999999999996</ele>
   </trkpt>
   <trkpt lat="51.06869500253454" lon="-0.5451599951061831">
    <ele>33.300000000000004</ele>
   </trkpt>
   <trkpt lat="51.06899000000001" lon="-0.54593">
    <ele>36.18</ele>
   </trkpt>
   <trkpt lat="51.069280000000006" lon="-0.54637">
    <ele>37.84</ele>
   </trkpt>
   <trkpt lat="51.06992" lon="-0.5471">
    <ele>38.45</ele>
   </trkpt>
   <trkpt lat="51.06996" lon="-0.5473">
    <ele>38.57</ele>
   </trkpt>
   <trkpt lat="51.06991000000001" lon="-0.54801">
    <ele>39.290000000000006</ele>
   </trkpt>
   <trkpt lat="51.06973500208692" lon="-0.5487050025228516">
    <ele>41.61</ele>
   </trkpt>
   <trkpt lat="51.06956" lon="-0.5494">
    <ele>44.49</ele>
   </trkpt>
   <trkpt lat="51.06916000477672" lon="-0.5504500088811771">
    <ele>52.15</ele>
   </trkpt>
   <trkpt lat="51.068760000000005" lon="-0.5515">
    <ele>56.050000000000004</ele>
   </trkpt>
   <trkpt lat="51.06864" lon="-0.55193">
    <ele>56.290000000000006</ele>
   </trkpt>
   <trkpt lat="51.06855" lon="-0.55291">
    <ele>56.470000000000006</ele>
   </trkpt>
   <trkpt lat="51.06861000000001" lon="-0.55379">
    <ele>57.28</ele>
   </trkpt>
   <trkpt lat="51.06876500417661" lon="-0.5547749969417591">
    <ele>59.910000000000004</ele>
   </trkpt>
   <trkpt lat="51.068920000000006" lon="-0.55576">
    <ele>58.260000000000005</ele>
   </trkpt>
   <trkpt lat="51.06899000000001" lon="-0.55669">
    <ele>52.81</ele>
   </trkpt>
   <trkpt lat="51.069" lon="-0.55733">
    <ele>50.800000000000004</ele>
   </trkpt>
   <trkpt lat="51.06890000422297" lon="-0.5583300025887769">
    <ele>52.75000000000001</ele>
   </trkpt>
   <trkpt lat="51.0688" lon="-0.55933">
    <ele>55.190000000000005</ele>
   </trkpt>
   <trkpt lat="51.0688" lon="-0.55957">
    <ele>57.14</ele>
   </trkpt>
   <trkpt lat="51.068960000000004" lon="-0.56084">
    <ele>59.32</ele>
   </trkpt>
   <trkpt lat="51.06895" lon="-0.56108">
    <ele>59.60000000000001</ele>
   </trkpt>
   <trkpt lat="51.068920000000006" lon="-0.56133">
    <ele>60.50000000000001</ele>
   </trkpt>
   <trkpt lat="51.06884" lon="-0.56155">
    <ele>61.03000000000001</ele>
   </trkpt>
   <trkpt lat="51.06848" lon="-0.56213">
    <ele>63.85</ele>
   </trkpt>
   <trkpt lat="51.068270000000005" lon="-0.56311">
    <ele>67.06</ele>
   </trkpt>
   <trkpt lat="51.068305002646326" lon="-0.5638999990421072">
    <ele>68.35000000000001</ele>
   </trkpt>
   <trkpt lat="51.068340000000006" lon="-0.56469">
    <ele>69.59</ele>
   </trkpt>
   <trkpt lat="51.068450000000006" lon="-0.56499">
    <ele>71.42000000000002</ele>
   </trkpt>
   <trkpt lat="51.06864" lon="-0.56538">
    <ele>72.54</ele>
   </trkpt>
   <trkpt lat="51.068870000000004" lon="-0.56572">
    <ele>73.27</ele>
   </trkpt>
   <trkpt lat="51.069190000000006" lon="-0.56611">
    <ele>73.44</ele>
   </trkpt>
   <trkpt lat="51.06931" lon="-0.56652">
    <ele>73.46000000000001</ele>
   </trkpt>
   <trkpt lat="51.0694" lon="-0.5677500000000001">
    <ele>73.23</ele>
   </trkpt>
   <trkpt lat="51.06956" lon="-0.56788">
    <ele>73.19</ele>
   </trkpt>
   <trkpt lat="51.0696" lon="-0.56811">
    <ele>73.02</ele>
   </trkpt>
   <trkpt lat="51.06945" lon="-0.5694100000000001">
    <ele>73.86000000000001</ele>
   </trkpt>
   <trkpt lat="51.069350002626116" lon="-0.5702000019924693">
    <ele>73.83</ele>
   </trkpt>
   <trkpt lat="51.069250000000004" lon="-0.57099">
    <ele>73.77</ele>
   </trkpt>
   <trkpt lat="51.06924" lon="-0.57128">
    <ele>73.89000000000001</ele>
   </trkpt>
   <trkpt lat="51.06931" lon="-0.57152">
    <ele>73.88</ele>
   </trkpt>
   <trkpt lat="51.069810000000004" lon="-0.57201">
    <ele>73.53000000000002</ele>
   </trkpt>
   <trkpt lat="51.06992" lon="-0.57235">
    <ele>73.11000000000001</ele>
   </trkpt>
   <trkpt lat="51.069990000000004" lon="-0.57272">
    <ele>72.65</ele>
   </trkpt>
   <trkpt lat="51.07009000000001" lon="-0.57304">
    <ele>72.65</ele>
   </trkpt>
   <trkpt lat="51.07044500131862" lon="-0.573624995279973">
    <ele>72.01</ele>
   </trkpt>
   <trkpt lat="51.070800000000006" lon="-0.57421">
    <ele>71.35000000000001</ele>
   </trkpt>
   <trkpt lat="51.07103000000001" lon="-0.57452">
    <ele>69.63000000000001</ele>
   </trkpt>
   <trkpt lat="51.071270000000005" lon="-0.57467">
    <ele>69.63000000000001</ele>
   </trkpt>
   <trkpt lat="51.072120000000005" lon="-0.5748300000000001">
    <ele>66.88000000000001</ele>
   </trkpt>
   <trkpt lat="51.07217000000001" lon="-0.57557">
    <ele>65.83</ele>
   </trkpt>
   <trkpt lat="51.072230000000005" lon="-0.5761000000000001">
    <ele>66.09</ele>
   </trkpt>
   <trkpt lat="51.072520000000004" lon="-0.57696">
    <ele>66.95</ele>
   </trkpt>
   <trkpt lat="51.072810000000004" lon="-0.57806">
    <ele>66.43</ele>
   </trkpt>
   <trkpt lat="51.07300000000001" lon="-0.57857">
    <ele>65.01</ele>
   </trkpt>
   <trkpt lat="51.07316500218626" lon="-0.5792799976230918">
    <ele>64.14</ele>
   </trkpt>
   <trkpt lat="51.073330000000006" lon="-0.57999">
    <ele>62.84</ele>
   </trkpt>
   <trkpt lat="51.073515015196" lon="-0.5810799868804387">
    <ele>61.2</ele>
   </trkpt>
   <trkpt lat="51.073700020256176" lon="-0.5821699824764583">
    <ele>60.120000000000005</ele>
   </trkpt>
   <trkpt lat="51.07388501518036" lon="-0.5832599867877087">
    <ele>60.050000000000004</ele>
   </trkpt>
   <trkpt lat="51.074070000000006" lon="-0.58435">
    <ele>57.910000000000004</ele>
   </trkpt>
   <trkpt lat="51.07415000470031" lon="-0.5853999981516004">
    <ele>55.53</ele>
   </trkpt>
   <trkpt lat="51.07423000000001" lon="-0.58645">
    <ele>53.46000000000001</ele>
   </trkpt>
   <trkpt lat="51.07432000000001" lon="-0.58779">
    <ele>49.88</ele>
   </trkpt>
   <trkpt lat="51.07434000000001" lon="-0.5887">
    <ele>48.660000000000004</ele>
   </trkpt>
   <trkpt lat="51.07443000000001" lon="-0.58936">
    <ele>47.89</ele>
   </trkpt>
   <trkpt lat="51.074580000000005" lon="-0.58975">
    <ele>46.50000000000001</ele>
   </trkpt>
   <trkpt lat="51.07497000000001" lon="-0.59033">
    <ele>43.27</ele>
   </trkpt>
   <trkpt lat="51.07527000267776" lon="-0.5911099951577115">
    <ele>46.07000000000001</ele>
   </trkpt>
   <trkpt lat="51.075570000000006" lon="-0.59189">
    <ele>49.14</ele>
   </trkpt>
   <trkpt lat="51.07569" lon="-0.5926">
    <ele>50.400000000000006</ele>
   </trkpt>
   <trkpt lat="51.07585" lon="-0.59382">
    <ele>50.620000000000005</ele>
   </trkpt>
   <trkpt lat="51.07599000248144" lon="-0.594574997985109">
    <ele>51.370000000000005</ele>
   </trkpt>
   <trkpt lat="51.076130000000006" lon="-0.59533">
    <ele>51.410000000000004</ele>
   </trkpt>
   <trkpt lat="51.07623500269223" lon="-0.5961249981679746">
    <ele>50.580000000000005</ele>
   </trkpt>
   <trkpt lat="51.07634" lon="-0.59692">
    <ele>50.45</ele>
   </trkpt>
   <trkpt lat="51.076370000000004" lon="-0.59738">
    <ele>50.53</ele>
   </trkpt>
   <trkpt lat="51.076440000000005" lon="-0.5983">
    <ele>50.370000000000005</ele>
   </trkpt>
   <trkpt lat="51.07649500474456" lon="-0.5993549986866421">
    <ele>50.45</ele>
   </trkpt>
   <trkpt lat="51.076550000000005" lon="-0.60041">
    <ele>51.75</ele>
   </trkpt>
   <trkpt lat="51.07656001608968" lon="-0.6017833326994809">
    <ele>55.330000000000005</ele>
   </trkpt>
   <trkpt lat="51.07657001608939" lon="-0.603156665993049">
    <ele>58.25</ele>
   </trkpt>
   <trkpt lat="51.07658000000001" lon="-0.60453">
    <ele>63.63</ele>
   </trkpt>
   <trkpt lat="51.07663" lon="-0.60497">
    <ele>62.46000000000001</ele>
   </trkpt>
   <trkpt lat="51.07681000370847" lon="-0.6058999964814327">
    <ele>58.75</ele>
   </trkpt>
   <trkpt lat="51.07699" lon="-0.6068300000000001">
    <ele>57.13</ele>
   </trkpt>
   <trkpt lat="51.077090004446966" lon="-0.6078499978885036">
    <ele>55.010000000000005</ele>
   </trkpt>
   <trkpt lat="51.07719" lon="-0.60887">
    <ele>54.89</ele>
   </trkpt>
   <trkpt lat="51.07737001354706" lon="-0.610129990219178">
    <ele>54.290000000000006</ele>
   </trkpt>
   <trkpt lat="51.07755001355037" lon="-0.6113899902421758">
    <ele>54.96</ele>
   </trkpt>
   <trkpt lat="51.07773" lon="-0.61265">
    <ele>57.82</ele>
   </trkpt>
   <trkpt lat="51.07788500318764" lon="-0.6135199968558539">
    <ele>61.89000000000001</ele>
   </trkpt>
   <trkpt lat="51.07804" lon="-0.6143900000000001">
    <ele>60.61</ele>
   </trkpt>
   <trkpt lat="51.078210000000006" lon="-0.61497">
    <ele>58.60000000000001</ele>
   </trkpt>
   <trkpt lat="51.078390000000006" lon="-0.61541">
    <ele>56.18000000000001</ele>
   </trkpt>
   <trkpt lat="51.07878" lon="-0.61624">
    <ele>54.3</ele>
   </trkpt>
   <trkpt lat="51.078880000000005" lon="-0.61658">
    <ele>54.050000000000004</ele>
   </trkpt>
   <trkpt lat="51.078860000000006" lon="-0.61692">
    <ele>53.21000000000001</ele>
   </trkpt>
   <trkpt lat="51.078790000000005" lon="-0.61748">
    <ele>52.84</ele>
   </trkpt>
   <trkpt lat="51.07864000000001" lon="-0.61824">
    <ele>53.96</ele>
   </trkpt>
   <trkpt lat="51.0786" lon="-0.61934">
    <ele>54.95</ele>
   </trkpt>
   <trkpt lat="51.0786" lon="-0.62004">
    <ele>53.50000000000001</ele>
   </trkpt>
   <trkpt lat="51.07864000000001" lon="-0.6208">
    <ele>53.77</ele>
   </trkpt>
   <trkpt lat="51.07876" lon="-0.6218100000000001">
    <ele>56.84</ele>
   </trkpt>
   <trkpt lat="51.07885" lon="-0.62275">
    <ele>64.21000000000001</ele>
   </trkpt>
   <trkpt lat="51.078950000000006" lon="-0.62336">
    <ele>66.72</ele>
   </trkpt>
   <trkpt lat="51.07898" lon="-0.6234200000000001">
    <ele>66.72</ele>
   </trkpt>
   <trkpt lat="51.078970000000005" lon="-0.62341">
    <ele>66.69</ele>
   </trkpt>
   <trkpt lat="51.079060000000005" lon="-0.62346">
    <ele>66.85000000000001</ele>
   </trkpt>
   <trkpt lat="51.07994000000001" lon="-0.62363">
    <ele>68.35000000000001</ele>
   </trkpt>
   <trkpt lat="51.08021" lon="-0.62373">
    <ele>68.83</ele>
   </trkpt>
   <trkpt lat="51.080490000000005" lon="-0.62373">
    <ele>69.36</ele>
   </trkpt>
   <trkpt lat="51.08071" lon="-0.6236400000000001">
    <ele>69.66</ele>
   </trkpt>
   <trkpt lat="51.08111" lon="-0.62322">
    <ele>70.33</ele>
   </trkpt>
   <trkpt lat="51.08152000159178" lon="-0.6225950056524686">
    <ele>70.94</ele>
   </trkpt>
   <trkpt lat="51.08193000000001" lon="-0.62197">
    <ele>71.85000000000001</ele>
   </trkpt>
   <trkpt lat="51.08246000311871" lon="-0.6211050100288121">
    <ele>73.34</ele>
   </trkpt>
   <trkpt lat="51.08299" lon="-0.62024">
    <ele>74.87</ele>
   </trkpt>
   <trkpt lat="51.08315" lon="-0.62009">
    <ele>74.93</ele>
   </trkpt>
   <trkpt lat="51.08335" lon="-0.62007">
    <ele>75.21000000000001</ele>
   </trkpt>
   <trkpt lat="51.083540000000006" lon="-0.62014">
    <ele>75.41</ele>
   </trkpt>
   <trkpt lat="51.084065001320205" lon="-0.6206749940293599">
    <ele>75.58000000000001</ele>
   </trkpt>
   <trkpt lat="51.084590000000006" lon="-0.62121">
    <ele>76.11000000000001</ele>
   </trkpt>
   <trkpt lat="51.08466000000001" lon="-0.62124">
    <ele>76.11000000000001</ele>
   </trkpt>
   <trkpt lat="51.084720000000004" lon="-0.62124">
    <ele>75.98</ele>
   </trkpt>
   <trkpt lat="51.08478" lon="-0.62119">
    <ele>75.98</ele>
   </trkpt>
   <trkpt lat="51.085365001842845" lon="-0.6205300083640581">
    <ele>76.78</ele>
   </trkpt>
   <trkpt lat="51.085950000000004" lon="-0.61987">
    <ele>78.36000000000001</ele>
   </trkpt>
   <trkpt lat="51.086400000000005" lon="-0.6194200000000001">
    <ele>80.14</ele>
   </trkpt>
   <trkpt lat="51.086650000000006" lon="-0.61931">
    <ele>81.08000000000001</ele>
   </trkpt>
   <trkpt lat="51.08686" lon="-0.61929">
    <ele>81.74000000000001</ele>
   </trkpt>
   <trkpt lat="51.08724" lon="-0.61934">
    <ele>82.81</ele>
   </trkpt>
   <trkpt lat="51.087975000049056" lon="-0.619364999604295">
    <ele>80.88000000000001</ele>
   </trkpt>
   <trkpt lat="51.088710000000006" lon="-0.61939">
    <ele>75.7</ele>
   </trkpt>
   <trkpt lat="51.089180000000006" lon="-0.61951">
    <ele>70.76</ele>
   </trkpt>
   <trkpt lat="51.08944" lon="-0.6192300000000001">
    <ele>65.73</ele>
   </trkpt>
   <trkpt lat="51.08986" lon="-0.61895">
    <ele>61.18000000000001</ele>
   </trkpt>
   <trkpt lat="51.090160000000004" lon="-0.61868">
    <ele>58.81000000000001</ele>
   </trkpt>
   <trkpt lat="51.090740000000004" lon="-0.61812">
    <ele>57.970000000000006</ele>
   </trkpt>
   <trkpt lat="51.090810000000005" lon="-0.61799">
    <ele>57.96</ele>
   </trkpt>
   <trkpt lat="51.09129" lon="-0.61824">
    <ele>59.53000000000001</ele>
   </trkpt>
   <trkpt lat="51.09203" lon="-0.61885">
    <ele>61.42</ele>
   </trkpt>
   <trkpt lat="51.09253500104471" lon="-0.6193249948903685">
    <ele>62.92</ele>
   </trkpt>
   <trkpt lat="51.09304" lon="-0.6198">
    <ele>65.37</ele>
   </trkpt>
   <trkpt lat="51.093560000000004" lon="-0.62024">
    <ele>65.37</ele>
   </trkpt>
   <trkpt lat="51.094060000000006" lon="-0.62058">
    <ele>64.62</ele>
   </trkpt>
   <trkpt lat="51.09451000000001" lon="-0.62078">
    <ele>64.58</ele>
   </trkpt>
   <trkpt lat="51.09495499998295" lon="-0.6208899989244266">
    <ele>64.7</ele>
   </trkpt>
   <trkpt lat="51.095400000000005" lon="-0.621">
    <ele>64.97</ele>
   </trkpt>
   <trkpt lat="51.09575" lon="-0.62097">
    <ele>64.47</ele>
   </trkpt>
   <trkpt lat="51.09593" lon="-0.6208400000000001">
    <ele>64.05000000000001</ele>
   </trkpt>
   <trkpt lat="51.09591" lon="-0.62085">
    <ele>64.08000000000001</ele>
   </trkpt>
   <trkpt lat="51.09606" lon="-0.62063">
    <ele>63.57</ele>
   </trkpt>
   <trkpt lat="51.096140000000005" lon="-0.62039">
    <ele>63.22</ele>
   </trkpt>
   <trkpt lat="51.09639000000001" lon="-0.61912">
    <ele>62.870000000000005</ele>
   </trkpt>
   <trkpt lat="51.096650000000004" lon="-0.6182200000000001">
    <ele>63.56</ele>
   </trkpt>
   <trkpt lat="51.096965003262504" lon="-0.6173400061075872">
    <ele>62.160000000000004</ele>
   </trkpt>
   <trkpt lat="51.097280000000005" lon="-0.61646">
    <ele>60.0</ele>
   </trkpt>
   <trkpt lat="51.09767" lon="-0.6151800000000001">
    <ele>57.370000000000005</ele>
   </trkpt>
   <trkpt lat="51.09780000000001" lon="-0.61487">
    <ele>57.25</ele>
   </trkpt>
   <trkpt lat="51.09788" lon="-0.61475">
    <ele>57.25</ele>
   </trkpt>
   <trkpt lat="51.09799" lon="-0.61465">
    <ele>57.120000000000005</ele>
   </trkpt>
   <trkpt lat="51.09807000000001" lon="-0.6146">
    <ele>57.120000000000005</ele>
   </trkpt>
   <trkpt lat="51.09843000000001" lon="-0.61446">
    <ele>56.830000000000005</ele>
   </trkpt>
   <trkpt lat="51.09872000000001" lon="-0.6143900000000001">
    <ele>56.28</ele>
   </trkpt>
   <trkpt lat="51.098910000000004" lon="-0.6143900000000001">
    <ele>56.28</ele>
   </trkpt>
   <trkpt lat="51.09904" lon="-0.61441">
    <ele>56.06</ele>
   </trkpt>
   <trkpt lat="51.09933" lon="-0.6145200000000001">
    <ele>55.650000000000006</ele>
   </trkpt>
   <trkpt lat="51.09956000416222" lon="-0.6135300050013008">
    <ele>52.97</ele>
   </trkpt>
   <trkpt lat="51.099790000000006" lon="-0.6125400000000001">
    <ele>53.480000000000004</ele>
   </trkpt>
   <trkpt lat="51.099880000000006" lon="-0.6121800000000001">
    <ele>53.84</ele>
   </trkpt>
   <trkpt lat="51.10018" lon="-0.61123">
    <ele>55.300000000000004</ele>
   </trkpt>
   <trkpt lat="51.10034" lon="-0.6109300000000001">
    <ele>55.45</ele>
   </trkpt>
   <trkpt lat="51.10092002019797" lon="-0.6099567277293236">
    <ele>54.34</ele>
   </trkpt>
   <trkpt lat="51.1015000323161" lon="-0.6089834310365623">
    <ele>54.730000000000004</ele>
   </trkpt>
   <trkpt lat="51.102080036353996" lon="-0.6080101099209378">
    <ele>55.040000000000006</ele>
   </trkpt>
   <trkpt lat="51.10266003231131" lon="-0.6070367643816716">
    <ele>55.89</ele>
   </trkpt>
   <trkpt lat="51.10324002018765" lon="-0.6060633944179851">
    <ele>57.88000000000001</ele>
   </trkpt>
   <trkpt lat="51.103820000000006" lon="-0.60509">
    <ele>60.42</ele>
   </trkpt>
   <trkpt lat="51.104110001592524" lon="-0.6044800038150437">
    <ele>60.25000000000001</ele>
   </trkpt>
   <trkpt lat="51.104400000000005" lon="-0.60387">
    <ele>59.510000000000005</ele>
   </trkpt>
   <trkpt lat="51.10481000000001" lon="-0.60294">
    <ele>58.24000000000001</ele>
   </trkpt>
   <trkpt lat="51.10512000000001" lon="-0.60241">
    <ele>57.580000000000005</ele>
   </trkpt>
   <trkpt lat="51.10526" lon="-0.60209">
    <ele>57.32</ele>
   </trkpt>
   <trkpt lat="51.10546" lon="-0.60146">
    <ele>57.260000000000005</ele>
   </trkpt>
   <trkpt lat="51.10571" lon="-0.6005">
    <ele>57.400000000000006</ele>
   </trkpt>
   <trkpt lat="51.1058" lon="-0.6002200000000001">
    <ele>57.71</ele>
   </trkpt>
   <trkpt lat="51.105940000000004" lon="-0.59984">
    <ele>57.95</ele>
   </trkpt>
   <trkpt lat="51.1062" lon="-0.5992900000000001">
    <ele>58.32</ele>
   </trkpt>
   <trkpt lat="51.106300000000005" lon="-0.5991500000000001">
    <ele>58.400000000000006</ele>
   </trkpt>
   <trkpt lat="51.106880000000004" lon="-0.5984600000000001">
    <ele>59.61</ele>
   </trkpt>
   <trkpt lat="51.107285001144675" lon="-0.5979800040138468">
    <ele>60.120000000000005</ele>
   </trkpt>
   <trkpt lat="51.107690000000005" lon="-0.5975">
    <ele>60.65</ele>
   </trkpt>
   <trkpt lat="51.10832000201672" lon="-0.59680500952117">
    <ele>61.540000000000006</ele>
   </trkpt>
   <trkpt lat="51.10895000000001" lon="-0.59611">
    <ele>62.28</ele>
   </trkpt>
   <trkpt lat="51.109660000000005" lon="-0.5952700000000001">
    <ele>61.93000000000001</ele>
   </trkpt>
   <trkpt lat="51.110130000000005" lon="-0.5947">
    <ele>60.79</ele>
   </trkpt>
   <trkpt lat="51.110490000000006" lon="-0.59414">
    <ele>60.06</ele>
   </trkpt>
   <trkpt lat="51.11061" lon="-0.59399">
    <ele>59.74</ele>
   </trkpt>
   <trkpt lat="51.11068" lon="-0.5937800000000001">
    <ele>59.64000000000001</ele>
   </trkpt>
   <trkpt lat="51.11112000000001" lon="-0.5927600000000001">
    <ele>59.10000000000001</ele>
   </trkpt>
   <trkpt lat="51.111340000000006" lon="-0.59216">
    <ele>58.760000000000005</ele>
   </trkpt>
   <trkpt lat="51.11162" lon="-0.5911000000000001">
    <ele>57.5</ele>
   </trkpt>
   <trkpt lat="51.111940000000004" lon="-0.59028">
    <ele>54.92</ele>
   </trkpt>
   <trkpt lat="51.11215000000001" lon="-0.5896100000000001">
    <ele>53.6</ele>
   </trkpt>
   <trkpt lat="51.11216" lon="-0.58958">
    <ele>53.56</ele>
   </trkpt>
   <trkpt lat="51.11225" lon="-0.58914">
    <ele>52.50000000000001</ele>
   </trkpt>
   <trkpt lat="51.11225" lon="-0.58894">
    <ele>52.50000000000001</ele>
   </trkpt>
   <trkpt lat="51.112230000000004" lon="-0.5883400000000001">
    <ele>51.980000000000004</ele>
   </trkpt>
   <trkpt lat="51.11215000000001" lon="-0.5880200000000001">
    <ele>51.870000000000005</ele>
   </trkpt>
   <trkpt lat="51.111880000000006" lon="-0.58772">
    <ele>51.63</ele>
   </trkpt>
   <trkpt lat="51.111540000000005" lon="-0.58745">
    <ele>51.89000000000001</ele>
   </trkpt>
   <trkpt lat="51.11142" lon="-0.58733">
    <ele>52.45</ele>
   </trkpt>
   <trkpt lat="51.110850000000006" lon="-0.5864400000000001">
    <ele>52.9</ele>
   </trkpt>
   <trkpt lat="51.110530000000004" lon="-0.58631">
    <ele>53.14000000000001</ele>
   </trkpt>
   <trkpt lat="51.11045000000001" lon="-0.58626">
    <ele>52.97</ele>
   </trkpt>
   <trkpt lat="51.11034" lon="-0.58614">
    <ele>52.550000000000004</ele>
   </trkpt>
   <trkpt lat="51.11025000000001" lon="-0.58596">
    <ele>52.06</ele>
   </trkpt>
   <trkpt lat="51.10980000000001" lon="-0.58516">
    <ele>50.22</ele>
   </trkpt>
   <trkpt lat="51.10930500405961" lon="-0.584184989568485">
    <ele>49.290000000000006</ele>
   </trkpt>
   <trkpt lat="51.108810000000005" lon="-0.58321">
    <ele>48.95</ele>
   </trkpt>
   <trkpt lat="51.10875000000001" lon="-0.58306">
    <ele>48.95</ele>
   </trkpt>
   <trkpt lat="51.108700000000006" lon="-0.58284">
    <ele>48.870000000000005</ele>
   </trkpt>
   <trkpt lat="51.108700000000006" lon="-0.58248">
    <ele>48.52</ele>
   </trkpt>
   <trkpt lat="51.10874500330702" lon="-0.5816000007672101">
    <ele>48.32</ele>
   </trkpt>
   <trkpt lat="51.108790000000006" lon="-0.58072">
    <ele>48.71</ele>
   </trkpt>
   <trkpt lat="51.108845002542054" lon="-0.5799500007253391">
    <ele>48.57</ele>
   </trkpt>
   <trkpt lat="51.108900000000006" lon="-0.57918">
    <ele>47.370000000000005</ele>
   </trkpt>
   <trkpt lat="51.10889" lon="-0.57872">
    <ele>47.02</ele>
   </trkpt>
   <trkpt lat="51.10881500386726" lon="-0.5777699986934288">
    <ele>45.300000000000004</ele>
   </trkpt>
   <trkpt lat="51.108740000000004" lon="-0.57682">
    <ele>44.84</ele>
   </trkpt>
   <trkpt lat="51.10868000000001" lon="-0.57626">
    <ele>44.32000000000001</ele>
   </trkpt>
   <trkpt lat="51.10866000000001" lon="-0.57589">
    <ele>43.800000000000004</ele>
   </trkpt>
   <trkpt lat="51.10869" lon="-0.5746100000000001">
    <ele>42.29</ele>
   </trkpt>
   <trkpt lat="51.108745004002095" lon="-0.5736400013374209">
    <ele>40.830000000000005</ele>
   </trkpt>
   <trkpt lat="51.1088" lon="-0.57267">
    <ele>39.089999999999996</ele>
   </trkpt>
   <trkpt lat="51.1088" lon="-0.5720900000000001">
    <ele>38.50000000000001</ele>
   </trkpt>
   <trkpt lat="51.108760000000004" lon="-0.57155">
    <ele>36.71</ele>
   </trkpt>
   <trkpt lat="51.108700000000006" lon="-0.57116">
    <ele>34.690000000000005</ele>
   </trkpt>
   <trkpt lat="51.1084" lon="-0.57011">
    <ele>32.38</ele>
   </trkpt>
   <trkpt lat="51.108380000000004" lon="-0.56994">
    <ele>32.42</ele>
   </trkpt>
   <trkpt lat="51.1084" lon="-0.56976">
    <ele>32.550000000000004</ele>
   </trkpt>
   <trkpt lat="51.10844" lon="-0.5696100000000001">
    <ele>32.470000000000006</ele>
   </trkpt>
   <trkpt lat="51.108560000000004" lon="-0.5693100000000001">
    <ele>32.28</ele>
   </trkpt>
   <trkpt lat="51.10869" lon="-0.5689000000000001">
    <ele>32.080000000000005</ele>
   </trkpt>
   <trkpt lat="51.10887" lon="-0.56823">
    <ele>32.690000000000005</ele>
   </trkpt>
   <trkpt lat="51.109010000000005" lon="-0.5678700000000001">
    <ele>33.64</ele>
   </trkpt>
   <trkpt lat="51.109030000000004" lon="-0.56784">
    <ele>33.730000000000004</ele>
   </trkpt>
   <trkpt lat="51.109405001533396" lon="-0.5672550046312904">
    <ele>37.58</ele>
   </trkpt>
   <trkpt lat="51.10978" lon="-0.56667">
    <ele>45.050000000000004</ele>
   </trkpt>
   <trkpt lat="51.110440000000004" lon="-0.5658700000000001">
    <ele>51.870000000000005</ele>
   </trkpt>
   <trkpt lat="51.11099" lon="-0.56542">
    <ele>52.870000000000005</ele>
   </trkpt>
   <trkpt lat="51.11166000119767" lon="-0.5649100073267276">
    <ele>53.14000000000001</ele>
   </trkpt>
   <trkpt lat="51.11233000000001" lon="-0.5644">
    <ele>53.21000000000001</ele>
   </trkpt>
   <trkpt lat="51.11258" lon="-0.56425">
    <ele>53.2</ele>
   </trkpt>
   <trkpt lat="51.1132300019669" lon="-0.5637733467218305">
    <ele>53.34</ele>
   </trkpt>
   <trkpt lat="51.11388000199603" lon="-0.5632966800340403">
    <ele>53.08</ele>
   </trkpt>
   <trkpt lat="51.11453" lon="-0.5628200000000001">
    <ele>52.76</ele>
   </trkpt>
   <trkpt lat="51.114900000000006" lon="-0.5626000000000001">
    <ele>52.6</ele>
   </trkpt>
   <trkpt lat="51.11525" lon="-0.56245">
    <ele>52.56</ele>
   </trkpt>
   <trkpt lat="51.115500000000004" lon="-0.56237">
    <ele>52.620000000000005</ele>
   </trkpt>
   <trkpt lat="51.115700000000004" lon="-0.5623600000000001">
    <ele>52.61</ele>
   </trkpt>
   <trkpt lat="51.11591000000001" lon="-0.56238">
    <ele>52.61</ele>
   </trkpt>
   <trkpt lat="51.11623" lon="-0.56249">
    <ele>52.79</ele>
   </trkpt>
   <trkpt lat="51.116960000708815" lon="-0.5628849937827145">
    <ele>52.89000000000001</ele>
   </trkpt>
   <trkpt lat="51.11769" lon="-0.56328">
    <ele>53.39000000000001</ele>
   </trkpt>
   <trkpt lat="51.117830000000005" lon="-0.56333">
    <ele>53.39000000000001</ele>
   </trkpt>
   <trkpt lat="51.11857000008948" lon="-0.5634449981631979">
    <ele>53.78</ele>
   </trkpt>
   <trkpt lat="51.119310000000006" lon="-0.5635600000000001">
    <ele>54.19</ele>
   </trkpt>
   <trkpt lat="51.119310000000006" lon="-0.5635800000000001">
    <ele>54.19</ele>
   </trkpt>
   <trkpt lat="51.119210002426634" lon="-0.5643300014131291">
    <ele>54.27</ele>
   </trkpt>
   <trkpt lat="51.119110000000006" lon="-0.56508">
    <ele>54.42</ele>
   </trkpt>
   <trkpt lat="51.118970000000004" lon="-0.5657300000000001">
    <ele>54.730000000000004</ele>
   </trkpt>
   <trkpt lat="51.11878" lon="-0.56628">
    <ele>54.89</ele>
   </trkpt>
   <trkpt lat="51.118460000000006" lon="-0.56711">
    <ele>51.39</ele>
   </trkpt>
   <trkpt lat="51.11816" lon="-0.56808">
    <ele>44.02</ele>
   </trkpt>
   <trkpt lat="51.11802" lon="-0.56869">
    <ele>39.940000000000005</ele>
   </trkpt>
   <trkpt lat="51.11795000000001" lon="-0.56943">
    <ele>35.51</ele>
   </trkpt>
   <trkpt lat="51.117990000000006" lon="-0.5696">
    <ele>35.29</ele>
   </trkpt>
   <trkpt lat="51.118140000000004" lon="-0.57004">
    <ele>35.26</ele>
   </trkpt>
   <trkpt lat="51.118100000000005" lon="-0.57018">
    <ele>35.120000000000005</ele>
   </trkpt>
   <trkpt lat="51.11780000200064" lon="-0.5708650044483513">
    <ele>35.79</ele>
   </trkpt>
   <trkpt lat="51.11750000000001" lon="-0.57155">
    <ele>36.63</ele>
   </trkpt>
   <trkpt lat="51.11744" lon="-0.57177">
    <ele>38.17</ele>
   </trkpt>
   <trkpt lat="51.11742" lon="-0.57199">
    <ele>40.18</ele>
   </trkpt>
   <trkpt lat="51.117490000000004" lon="-0.57252">
    <ele>43.0</ele>
   </trkpt>
   <trkpt lat="51.117520000000006" lon="-0.57265">
    <ele>45.34</ele>
   </trkpt>
   <trkpt lat="51.11779000000001" lon="-0.57333">
    <ele>47.25000000000001</ele>
   </trkpt>
   <trkpt lat="51.11797000000001" lon="-0.5739700000000001">
    <ele>48.52</ele>
   </trkpt>
   <trkpt lat="51.11816" lon="-0.57413">
    <ele>50.18</ele>
   </trkpt>
   <trkpt lat="51.1182" lon="-0.57411">
    <ele>50.46</ele>
   </trkpt>
   <trkpt lat="51.118390000000005" lon="-0.5737800000000001">
    <ele>51.52</ele>
   </trkpt>
  </trkseg>
 </trk>
</gpx>
